{"id": 1, "province": "Western", "districts": [{"id": 5, "district": "Colombo", "cities": [{"id": 118, "city": "Colombo 15", "details": {"postalcode": "01500", "latitude": "6.96547650", "longitude": "79.87083950"}}, {"id": 329, "city": "Akarawita", "details": {"postalcode": "10732", "latitude": "6.84221160", "longitude": "80.00302570"}}, {"id": 330, "city": "Ambalangoda", "details": {"postalcode": "80300", "latitude": "6.77508470", "longitude": "79.96543240"}}, {"id": 331, "city": "Athurugiriya", "details": {"postalcode": "10150", "latitude": "6.87231850", "longitude": "80.00038750"}}, {"id": 332, "city": "Avissawella", "details": {"postalcode": "10700", "latitude": "6.95432890", "longitude": "80.20457680"}}, {"id": 333, "city": "Batawala", "details": {"postalcode": "10513", "latitude": "6.87742700", "longitude": "80.05488940"}}, {"id": 334, "city": "Battaramulla", "details": {"postalcode": "10120", "latitude": "6.89838190", "longitude": "79.91784130"}}, {"id": 335, "city": "Biyagama", "details": {"postalcode": "11650", "latitude": "6.94621530", "longitude": "79.98920340"}}, {"id": 336, "city": "Bope", "details": {"postalcode": "10522", "latitude": "6.82488950", "longitude": "80.13727570"}}, {"id": 337, "city": "Boralesgamuwa", "details": {"postalcode": "10290", "latitude": "6.82335500", "longitude": "79.90902460"}}, {"id": 338, "city": "Colombo 8", "details": {"postalcode": "00800", "latitude": "6.91217960", "longitude": "79.88288280"}}, {"id": 339, "city": "Dedigamuwa", "details": {"postalcode": "10656", "latitude": "6.89801900", "longitude": "80.02694400"}}, {"id": 340, "city": "Dehiwala", "details": {"postalcode": "10350", "latitude": "6.83011850", "longitude": "79.88008320"}}, {"id": 341, "city": "Deltara", "details": {"postalcode": "10302", "latitude": "6.78513280", "longitude": "79.91371250"}}, {"id": 342, "city": "Habarakada", "details": {"postalcode": "10204", "latitude": "6.86596670", "longitude": "80.01296790"}}, {"id": 343, "city": "Hanwella", "details": {"postalcode": "10650", "latitude": "6.89783440", "longitude": "80.08142920"}}, {"id": 344, "city": "Hiripitya", "details": {"postalcode": "10232", "latitude": "6.83346570", "longitude": "79.97661950"}}, {"id": 345, "city": "Hokandara", "details": {"postalcode": "10118", "latitude": "6.87431920", "longitude": "79.96962770"}}, {"id": 346, "city": "Homagama", "details": {"postalcode": "10200", "latitude": "6.84327620", "longitude": "80.00318330"}}, {"id": 347, "city": "Horagala", "details": {"postalcode": "10502", "latitude": "6.81482950", "longitude": "80.07236730"}}, {"id": 348, "city": "Kaduwela", "details": {"postalcode": "10640", "latitude": "6.94058620", "longitude": "79.95226860"}}, {"id": 349, "city": "Kaluaggala", "details": {"postalcode": "11224", "latitude": "6.93278990", "longitude": "80.10656460"}}, {"id": 350, "city": "Kapugoda", "details": {"postalcode": "10662", "latitude": "6.94498250", "longitude": "80.07466280"}}, {"id": 351, "city": "Kehelwatta", "details": {"postalcode": "12550", "latitude": "6.93352580", "longitude": "79.85978310"}}, {"id": 352, "city": "Kiriwattuduwa", "details": {"postalcode": "10208", "latitude": "6.80237970", "longitude": "80.00737680"}}, {"id": 353, "city": "Kolonnawa", "details": {"postalcode": "10600", "latitude": "6.92801560", "longitude": "79.89083080"}}, {"id": 354, "city": "Kosgama", "details": {"postalcode": "10730", "latitude": "6.93971650", "longitude": "80.13692680"}}, {"id": 355, "city": "Madapatha", "details": {"postalcode": "10306", "latitude": "6.76904650", "longitude": "79.92906420"}}, {"id": 356, "city": "Maharagama", "details": {"postalcode": "10280", "latitude": "6.84780040", "longitude": "79.92176150"}}, {"id": 357, "city": "Malabe", "details": {"postalcode": "10115", "latitude": "6.90784830", "longitude": "79.94740870"}}, {"id": 358, "city": "Moratuwa", "details": {"postalcode": "10400", "latitude": "6.78807060", "longitude": "79.89128130"}}, {"id": 359, "city": "Mount Lavinia", "details": {"postalcode": "10370", "latitude": "6.82215880", "longitude": "79.87317740"}}, {"id": 360, "city": "Mullegama", "details": {"postalcode": "10202", "latitude": "6.88452810", "longitude": "80.01285620"}}, {"id": 361, "city": "Napawela", "details": {"postalcode": "10704", "latitude": "6.89641910", "longitude": "79.88848190"}}, {"id": 362, "city": "Nugegoda", "details": {"postalcode": "10250", "latitude": "6.86490810", "longitude": "79.89967890"}}, {"id": 363, "city": "Padukka", "details": {"postalcode": "10500", "latitude": "6.84536340", "longitude": "80.10377210"}}, {"id": 364, "city": "Pannipitiya", "details": {"postalcode": "10230", "latitude": "6.84639930", "longitude": "79.94843460"}}, {"id": 365, "city": "Piliyandala", "details": {"postalcode": "10300", "latitude": "6.80175750", "longitude": "79.92273130"}}, {"id": 366, "city": "Pitipana Homagama", "details": {"postalcode": "10206", "latitude": "6.84444250", "longitude": "80.02062030"}}, {"id": 367, "city": "Polgasowita", "details": {"postalcode": "10320", "latitude": "6.78993580", "longitude": "79.98081430"}}, {"id": 368, "city": "Pugoda", "details": {"postalcode": "10660", "latitude": "6.95903420", "longitude": "80.13172030"}}, {"id": 369, "city": "Ranala", "details": {"postalcode": "10654", "latitude": "6.91537590", "longitude": "80.03393120"}}, {"id": 370, "city": "Siddamulla", "details": {"postalcode": "10304", "latitude": "6.81725160", "longitude": "79.95983830"}}, {"id": 371, "city": "Siyambalagoda", "details": {"postalcode": "81462", "latitude": "6.79228810", "longitude": "79.96683080"}}, {"id": 372, "city": "Sri Jayawardenepura", "details": {"postalcode": "10100", "latitude": "6.87927560", "longitude": "79.90080740"}}, {"id": 373, "city": "Talawatugoda", "details": {"postalcode": "10116", "latitude": "6.87586480", "longitude": "79.93919360"}}, {"id": 374, "city": "Tummodara", "details": {"postalcode": "10682", "latitude": "6.86589500", "longitude": "80.16906420"}}, {"id": 375, "city": "Waga", "details": {"postalcode": "10680", "latitude": "6.88051870", "longitude": "80.14006710"}}, {"id": 376, "city": "Colombo 6", "details": {"postalcode": "00600", "latitude": "6.87465790", "longitude": "79.86048310"}}, {"id": 1002, "city": "Colombo 2", "details": {"postalcode": "00200", "latitude": "6.91993310", "longitude": "79.85402740"}}, {"id": 1124, "city": "Colombo 13", "details": {"postalcode": "01300", "latitude": "6.94876640", "longitude": "79.86048310"}}, {"id": 1837, "city": "Colombo 1", "details": {"postalcode": "00100", "latitude": "6.87587000", "longitude": "79.86067390"}}, {"id": 1838, "city": "Colombo 3", "details": {"postalcode": "00300", "latitude": "6.89893440", "longitude": "79.85376720"}}, {"id": 1839, "city": "Colombo 4", "details": {"postalcode": "00400", "latitude": "6.89613350", "longitude": "79.85714750"}}, {"id": 1840, "city": "Colombo 5", "details": {"postalcode": "00500", "latitude": "6.88879470", "longitude": "79.86630240"}}, {"id": 1841, "city": "Colombo 7", "details": {"postalcode": "00700", "latitude": "6.91166520", "longitude": "79.86456780"}}, {"id": 1842, "city": "Colombo 9", "details": {"postalcode": "00900", "latitude": "6.93677080", "longitude": "79.86078060"}}, {"id": 1843, "city": "Colombo 10", "details": {"postalcode": "01000", "latitude": "6.92770380", "longitude": "79.86608360"}}, {"id": 1844, "city": "Colombo 11", "details": {"postalcode": "01100", "latitude": "6.93904180", "longitude": "79.85331900"}}, {"id": 1845, "city": "Colombo 12", "details": {"postalcode": "01200", "latitude": "6.93863620", "longitude": "79.86091740"}}, {"id": 1846, "city": "Colombo 14", "details": {"postalcode": "01400", "latitude": "6.94476020", "longitude": "79.86802080"}}, {"id": 1847, "city": "Colombo Secretariant", "details": {"postalcode": "00110", "latitude": "6.93883020", "longitude": "79.85597300"}}, {"id": 1848, "city": "Melle Street", "details": {"postalcode": "00276", "latitude": "6.92707860", "longitude": "79.86124300"}}, {"id": 1849, "city": "Rifel Street", "details": {"postalcode": "00279", "latitude": "6.92381440", "longitude": "79.85049130"}}, {"id": 1850, "city": "Gem & Jewelry", "details": {"postalcode": "00370", "latitude": "6.93265290", "longitude": "79.84416100"}}, {"id": 1851, "city": "Torington Square", "details": {"postalcode": "00376", "latitude": "6.90353830", "longitude": "79.86810980"}}, {"id": 1852, "city": "National Museum of Colombo", "details": {"postalcode": "00377", "latitude": "6.91045550", "longitude": "79.86099250"}}, {"id": 1853, "city": "Colombo Labour Sec", "details": {"postalcode": "00510", "latitude": "6.89200690", "longitude": "79.87642540"}}, {"id": 1854, "city": "Polhengoda", "details": {"postalcode": "00576", "latitude": "6.88105880", "longitude": "79.88013350"}}, {"id": 1855, "city": "Anderson Plats", "details": {"postalcode": "00577", "latitude": "6.89017040", "longitude": "79.87296210"}}, {"id": 1856, "city": "Keppetipola Mawatha", "details": {"postalcode": "00579", "latitude": "6.92800620", "longitude": "79.88757070"}}, {"id": 1857, "city": "Narahenpita", "details": {"postalcode": "00582", "latitude": "6.89759340", "longitude": "79.88148300"}}, {"id": 1858, "city": "Kirulapana", "details": {"postalcode": "00677", "latitude": "6.88147170", "longitude": "79.87634760"}}, {"id": 1859, "city": "University of Colombo", "details": {"postalcode": "00710", "latitude": "6.90001490", "longitude": "79.85879380"}}, {"id": 1860, "city": "Colombo General Hospital", "details": {"postalcode": "00779", "latitude": "6.91874290", "longitude": "79.86899200"}}, {"id": 1861, "city": "Gothami Road", "details": {"postalcode": "00876", "latitude": "6.91453560", "longitude": "79.88735650"}}, {"id": 1862, "city": "Wanathamulla", "details": {"postalcode": "00877", "latitude": "6.92670930", "longitude": "79.88148300"}}, {"id": 1863, "city": "Baseline Road", "details": {"postalcode": "00878", "latitude": "6.93279660", "longitude": "79.87817750"}}, {"id": 1864, "city": "Kopiyawatta", "details": {"postalcode": "00879", "latitude": "6.93369020", "longitude": "79.87874170"}}, {"id": 1865, "city": "Maligawatta", "details": {"postalcode": "01070", "latitude": "6.93727160", "longitude": "79.87175120"}}, {"id": 1866, "city": "Panchikawatte", "details": {"postalcode": "01078", "latitude": "6.93096820", "longitude": "79.86398350"}}, {"id": 1867, "city": "Sarasavipaya", "details": {"postalcode": "01079", "latitude": "6.90804600", "longitude": "79.87598160"}}, {"id": 1868, "city": "Maligakanda", "details": {"postalcode": "01081", "latitude": "6.92841060", "longitude": "79.86818370"}}, {"id": 1869, "city": "Wolfendal Street", "details": {"postalcode": "01178", "latitude": "6.93963520", "longitude": "79.85430140"}}, {"id": 1870, "city": "Pettah Bus Stand", "details": {"postalcode": "01179", "latitude": "6.93500540", "longitude": "79.85456970"}}, {"id": 1871, "city": "Colombo Kachcheri", "details": {"postalcode": "01181", "latitude": "6.93840050", "longitude": "79.85555210"}}, {"id": 1872, "city": "Armour Street", "details": {"postalcode": "01182", "latitude": "6.94242220", "longitude": "79.86376180"}}, {"id": 1873, "city": "St. Anthony's", "details": {"postalcode": "01183", "latitude": "6.93171040", "longitude": "79.87376180"}}, {"id": 1874, "city": "Miraniya Street", "details": {"postalcode": "01276", "latitude": "6.93696440", "longitude": "79.86364710"}}, {"id": 1875, "city": "Wasala Road", "details": {"postalcode": "01377", "latitude": "6.95118770", "longitude": "79.86498570"}}, {"id": 1876, "city": "Nagalagam Street", "details": {"postalcode": "01476", "latitude": "6.95527300", "longitude": "79.87651510"}}, {"id": 1877, "city": "Aluth Mawatha Road", "details": {"postalcode": "01478", "latitude": "6.96952880", "longitude": "79.87322490"}}, {"id": 1878, "city": "Mutwal South", "details": {"postalcode": "01479", "latitude": "6.96692470", "longitude": "79.87115330"}}, {"id": 1879, "city": "Beddagana", "details": {"postalcode": "10101", "latitude": "6.89149910", "longitude": "79.90908710"}}, {"id": 1880, "city": "Madiwela", "details": {"postalcode": "10102", "latitude": "6.87731530", "longitude": "79.92346780"}}, {"id": 1881, "city": "Sri Perakumpura", "details": {"postalcode": "10103", "latitude": "8.15285510", "longitude": "80.14564960"}}, {"id": 1882, "city": "Mirihana North", "details": {"postalcode": "10104", "latitude": "6.87966520", "longitude": "79.90947510"}}, {"id": 1883, "city": "Nawala-Koswatte", "details": {"postalcode": "10105", "latitude": "6.90053750", "longitude": "79.89548020"}}, {"id": 1884, "city": "Nawala", "details": {"postalcode": "10106", "latitude": "6.89641910", "longitude": "79.88848190"}}, {"id": 1885, "city": "Rajagiriya", "details": {"postalcode": "10107", "latitude": "6.90941080", "longitude": "79.89425380"}}, {"id": 1886, "city": "Parliament of Sri Lanka", "details": {"postalcode": "10110", "latitude": "6.93110950", "longitude": "79.84302960"}}, {"id": 1887, "city": "Obeysekarapura", "details": {"postalcode": "10111", "latitude": "6.91330980", "longitude": "79.89026360"}}, {"id": 1888, "city": "Kalapaluwawa", "details": {"postalcode": "10112", "latitude": "6.91655310", "longitude": "79.92083240"}}, {"id": 1889, "city": "Talangama North", "details": {"postalcode": "10113", "latitude": "6.91687820", "longitude": "79.93173020"}}, {"id": 1890, "city": "Talangama South", "details": {"postalcode": "10114", "latitude": "6.88675520", "longitude": "79.94759990"}}, {"id": 1891, "city": "Jayawardhenegama", "details": {"postalcode": "10117", "latitude": "6.92707860", "longitude": "79.86124300"}}, {"id": 1892, "city": "Isurupaya", "details": {"postalcode": "10130", "latitude": "6.92918770", "longitude": "79.86394890"}}, {"id": 1893, "city": "Sethsiripaya", "details": {"postalcode": "10140", "latitude": "6.90327690", "longitude": "79.91542220"}}, {"id": 1894, "city": "Malabe", "details": {"postalcode": "10155", "latitude": "6.90607870", "longitude": "79.96962770"}}, {"id": 1895, "city": "Oruwala", "details": {"postalcode": "10201", "latitude": "6.88290380", "longitude": "80.00038750"}}, {"id": 1896, "city": "Panagoda Army Camp", "details": {"postalcode": "10203", "latitude": "6.86561170", "longitude": "80.02764270"}}, {"id": 1897, "city": "Magammana-Dolekade", "details": {"postalcode": "10207", "latitude": "6.82178770", "longitude": "79.99838110"}}, {"id": 1898, "city": "Homagama Town", "details": {"postalcode": "10209", "latitude": "6.84327620", "longitude": "80.00318330"}}, {"id": 1899, "city": "Godagama Junction", "details": {"postalcode": "10211", "latitude": "6.85167240", "longitude": "80.03273340"}}, {"id": 1900, "city": "Panagoda", "details": {"postalcode": "10213", "latitude": "6.86561170", "longitude": "80.02764270"}}, {"id": 1901, "city": "Galawilawaththa", "details": {"postalcode": "10217", "latitude": "6.83646020", "longitude": "79.99339760"}}, {"id": 1902, "city": "Kottawa", "details": {"postalcode": "10220", "latitude": "6.84116520", "longitude": "79.96543240"}}, {"id": 1903, "city": "Pelenwatta", "details": {"postalcode": "10231", "latitude": "6.82353930", "longitude": "79.94445260"}}, {"id": 1904, "city": "Arawwala West", "details": {"postalcode": "10233", "latitude": "6.83824460", "longitude": "79.94407100"}}, {"id": 1905, "city": "Kottawa North", "details": {"postalcode": "10235", "latitude": "6.86147310", "longitude": "79.95634170"}}, {"id": 1906, "city": "Rukmale-Pannipitiya", "details": {"postalcode": "10237", "latitude": "6.85597580", "longitude": "79.97801780"}}, {"id": 1907, "city": "Malapalla", "details": {"postalcode": "10239", "latitude": "6.84680570", "longitude": "79.98221260"}}, {"id": 1908, "city": "Mattegoda", "details": {"postalcode": "10240", "latitude": "6.81354880", "longitude": "79.97242450"}}, {"id": 1909, "city": "Mirihana", "details": {"postalcode": "10251", "latitude": "6.86896470", "longitude": "79.90387740"}}, {"id": 1910, "city": "Udahamulla", "details": {"postalcode": "10252", "latitude": "6.86655590", "longitude": "79.91507240"}}, {"id": 1911, "city": "Kohuwala", "details": {"postalcode": "10255", "latitude": "6.86248420", "longitude": "79.88549830"}}, {"id": 1912, "city": "Pamunuwa-Patiragoda", "details": {"postalcode": "10281", "latitude": "6.86166890", "longitude": "79.92892900"}}, {"id": 1913, "city": "Sudanapura", "details": {"postalcode": "10282", "latitude": "6.87830600", "longitude": "80.24325360"}}, {"id": 1914, "city": "Nawinna", "details": {"postalcode": "10283", "latitude": "6.85333090", "longitude": "79.91507240"}}, {"id": 1915, "city": "Vidyodaya University", "details": {"postalcode": "10284", "latitude": "6.90522350", "longitude": "79.85125590"}}, {"id": 1916, "city": "Pepiliyana", "details": {"postalcode": "10291", "latitude": "6.85381660", "longitude": "79.88508760"}}, {"id": 1917, "city": "Katuwawala", "details": {"postalcode": "10292", "latitude": "6.83211780", "longitude": "79.91227380"}}, {"id": 1918, "city": "Suwarapola", "details": {"postalcode": "10301", "latitude": "6.79787420", "longitude": "79.91787090"}}, {"id": 1919, "city": "Gorakapitiya", "details": {"postalcode": "10303", "latitude": "6.81437460", "longitude": "79.94864890"}}, {"id": 1920, "city": "Makandana", "details": {"postalcode": "10305", "latitude": "6.77693190", "longitude": "79.95111430"}}, {"id": 1921, "city": "Kesbewa", "details": {"postalcode": "10307", "latitude": "6.77867010", "longitude": "79.94725020"}}, {"id": 1922, "city": "Bokundara", "details": {"postalcode": "10309", "latitude": "6.81643270", "longitude": "79.92066940"}}, {"id": 1923, "city": "Kahathuduwa", "details": {"postalcode": "10321", "latitude": "6.78229800", "longitude": "79.99479560"}}, {"id": 1924, "city": "Ratmalana North", "details": {"postalcode": "10372", "latitude": "6.82138560", "longitude": "79.89012960"}}, {"id": 1925, "city": "Sirimal Uyana", "details": {"postalcode": "10373", "latitude": "6.82677000", "longitude": "79.87798340"}}, {"id": 1926, "city": "Ratmalana", "details": {"postalcode": "10390", "latitude": "6.81879540", "longitude": "79.87101950"}}, {"id": 1927, "city": "Koralawella", "details": {"postalcode": "10401", "latitude": "6.75779280", "longitude": "79.88737000"}}, {"id": 1928, "city": "Egodauyana North", "details": {"postalcode": "10402", "latitude": "6.72094140", "longitude": "79.90107840"}}, {"id": 1929, "city": "Egodauyana South", "details": {"postalcode": "10403", "latitude": "6.72094140", "longitude": "79.90107840"}}, {"id": 1930, "city": "Indibedda", "details": {"postalcode": "10404", "latitude": "6.77380480", "longitude": "79.90387740"}}, {"id": 1931, "city": "Moratumulla", "details": {"postalcode": "10405", "latitude": "6.78084970", "longitude": "79.89338070"}}, {"id": 1932, "city": "Rawathawatta", "details": {"postalcode": "10406", "latitude": "6.79188690", "longitude": "79.88428260"}}, {"id": 1933, "city": "Willorawatta", "details": {"postalcode": "10407", "latitude": "6.78687850", "longitude": "79.90098840"}}, {"id": 1934, "city": "Lunawa", "details": {"postalcode": "10408", "latitude": "6.78648590", "longitude": "79.87868330"}}, {"id": 1935, "city": "Laksapatiya", "details": {"postalcode": "10409", "latitude": "6.92707860", "longitude": "79.86124300"}}, {"id": 1936, "city": "Angulana", "details": {"postalcode": "10411", "latitude": "6.79761140", "longitude": "79.87378360"}}, {"id": 1937, "city": "Kaldemulla", "details": {"postalcode": "10413", "latitude": "6.80562650", "longitude": "79.87798340"}}, {"id": 1938, "city": "Katubedda", "details": {"postalcode": "10414", "latitude": "6.80145720", "longitude": "79.89967890"}}, {"id": 1939, "city": "Liyanwala", "details": {"postalcode": "10501", "latitude": "6.83690770", "longitude": "80.07863590"}}, {"id": 1940, "city": "Poregedara", "details": {"postalcode": "10503", "latitude": "6.82250470", "longitude": "80.08561890"}}, {"id": 1941, "city": "Dampe", "details": {"postalcode": "10505", "latitude": "6.77178680", "longitude": "79.91591810"}}, {"id": 1942, "city": "Malagala", "details": {"postalcode": "10507", "latitude": "6.79517150", "longitude": "80.10656460"}}, {"id": 1943, "city": "Meepe Junction", "details": {"postalcode": "10509", "latitude": "6.76749490", "longitude": "80.84717490"}}, {"id": 1944, "city": "Pinnawala-Waga", "details": {"postalcode": "10515", "latitude": "6.86720730", "longitude": "80.12094220"}}, {"id": 1945, "city": "Angampitiya", "details": {"postalcode": "10517", "latitude": "6.84700310", "longitude": "80.11912960"}}, {"id": 1946, "city": "Arukwathupura", "details": {"postalcode": "10519", "latitude": "6.87102580", "longitude": "79.93885710"}}, {"id": 1947, "city": "Kandanapitiya", "details": {"postalcode": "10523", "latitude": "6.81523830", "longitude": "80.15173220"}}, {"id": 1948, "city": "Gurulana", "details": {"postalcode": "10527", "latitude": "6.83457760", "longitude": "80.15820880"}}, {"id": 1949, "city": "Udugamkanda", "details": {"postalcode": "10529", "latitude": "7.13764480", "longitude": "80.09289820"}}]}, {"id": 7, "district": "Gampaha", "cities": [{"id": 464, "city": "Akaragama", "details": {"postalcode": "11536", "latitude": "7.27348030", "longitude": "79.95704110"}}, {"id": 465, "city": "Ambagaspitiya", "details": {"postalcode": "11052", "latitude": "7.08445090", "longitude": "80.06533660"}}, {"id": 466, "city": "Ambepussa", "details": {"postalcode": "11212", "latitude": "7.25610360", "longitude": "80.16932850"}}, {"id": 467, "city": "Andiambalama", "details": {"postalcode": "11558", "latitude": "7.17881270", "longitude": "79.90685340"}}, {"id": 468, "city": "Attanagalla", "details": {"postalcode": "11120", "latitude": "7.11374270", "longitude": "80.13550050"}}, {"id": 469, "city": "Badalgama", "details": {"postalcode": "11538", "latitude": "7.28865230", "longitude": "79.98081430"}}, {"id": 470, "city": "Banduragoda", "details": {"postalcode": "11244", "latitude": "7.22779350", "longitude": "80.05768340"}}, {"id": 471, "city": "Batuwatta", "details": {"postalcode": "11011", "latitude": "7.06225400", "longitude": "79.94123680"}}, {"id": 472, "city": "Bemmulla", "details": {"postalcode": "11040", "latitude": "7.11313180", "longitude": "80.02718930"}}, {"id": 473, "city": "Biyagama IPZ", "details": {"postalcode": "11672", "latitude": "6.96228400", "longitude": "80.00903670"}}, {"id": 474, "city": "Bokalagama", "details": {"postalcode": "11216", "latitude": "7.21532070", "longitude": "80.10292600"}}, {"id": 475, "city": "Bollete (WP)", "details": {"postalcode": "11024", "latitude": "7.08404840", "longitude": "80.00983140"}}, {"id": 476, "city": "Bopagama", "details": {"postalcode": "11134", "latitude": "7.07130690", "longitude": "80.16369600"}}, {"id": 477, "city": "Buthpitiya", "details": {"postalcode": "11720", "latitude": "7.05470030", "longitude": "80.05322640"}}, {"id": 478, "city": "Dagonna", "details": {"postalcode": "11524", "latitude": "7.21005490", "longitude": "79.91647170"}}, {"id": 479, "city": "Danowita", "details": {"postalcode": "11896", "latitude": "7.22087770", "longitude": "80.16797580"}}, {"id": 480, "city": "Debahera", "details": {"postalcode": "11889", "latitude": "7.15797470", "longitude": "80.14983620"}}, {"id": 481, "city": "Dekatana", "details": {"postalcode": "11690", "latitude": "6.97023240", "longitude": "80.04241920"}}, {"id": 482, "city": "Delgoda", "details": {"postalcode": "11700", "latitude": "6.98928850", "longitude": "80.01437660"}}, {"id": 483, "city": "Delwagura", "details": {"postalcode": "11228", "latitude": "7.26524820", "longitude": "80.00597900"}}, {"id": 484, "city": "Demalagama", "details": {"postalcode": "11692", "latitude": "6.99127630", "longitude": "80.05209520"}}, {"id": 485, "city": "Demanhandiya", "details": {"postalcode": "11270", "latitude": "7.22438790", "longitude": "79.88451350"}}, {"id": 486, "city": "Dewalapola", "details": {"postalcode": "11102", "latitude": "7.16120370", "longitude": "79.99199950"}}, {"id": 487, "city": "Divulapitiya", "details": {"postalcode": "11250", "latitude": "7.23031430", "longitude": "80.01647400"}}, {"id": 488, "city": "Divuldeniya", "details": {"postalcode": "11208", "latitude": "7.28072540", "longitude": "80.04371230"}}, {"id": 489, "city": "Dompe", "details": {"postalcode": "11680", "latitude": "6.94039470", "longitude": "80.07719620"}}, {"id": 490, "city": "Dunagaha", "details": {"postalcode": "11264", "latitude": "7.22205330", "longitude": "79.97801780"}}, {"id": 491, "city": "Ekala", "details": {"postalcode": "11380", "latitude": "7.10229130", "longitude": "79.90947510"}}, {"id": 492, "city": "Ellakkala", "details": {"postalcode": "11116", "latitude": "7.14166500", "longitude": "80.13308850"}}, {"id": 493, "city": "Essella", "details": {"postalcode": "11108", "latitude": "7.17651350", "longitude": "80.02546960"}}, {"id": 494, "city": "Galedanda", "details": {"postalcode": "90206", "latitude": "6.96486420", "longitude": "79.93186230"}}, {"id": 495, "city": "Gampaha", "details": {"postalcode": "11000", "latitude": "7.08404840", "longitude": "80.00983140"}}, {"id": 496, "city": "Ganemulla", "details": {"postalcode": "11020", "latitude": "7.08271900", "longitude": "79.94825480"}}, {"id": 497, "city": "Giriulla", "details": {"postalcode": "60140", "latitude": "7.34867490", "longitude": "80.13801950"}}, {"id": 498, "city": "Gonawala", "details": {"postalcode": "11630", "latitude": "6.95417030", "longitude": "79.93661870"}}, {"id": 499, "city": "Halpe", "details": {"postalcode": "70145", "latitude": "7.26221070", "longitude": "79.92906420"}}, {"id": 500, "city": "Hapugastenna", "details": {"postalcode": "70164", "latitude": "6.74054400", "longitude": "80.18881730"}}, {"id": 501, "city": "Heiyanthuduwa", "details": {"postalcode": "11618", "latitude": "6.97187680", "longitude": "79.97376420"}}, {"id": 502, "city": "Hinatiyana Madawala", "details": {"postalcode": "11568", "latitude": "7.15015720", "longitude": "79.91227380"}}, {"id": 503, "city": "Hiswella", "details": {"postalcode": "11734", "latitude": "7.02015740", "longitude": "80.16379010"}}, {"id": 504, "city": "Horampella", "details": {"postalcode": "11564", "latitude": "7.17023150", "longitude": "79.97941610"}}, {"id": 505, "city": "Hunumulla", "details": {"postalcode": "11262", "latitude": "7.23365100", "longitude": "79.98930900"}}, {"id": 506, "city": "Hunupola", "details": {"postalcode": "60582", "latitude": "7.61421880", "longitude": "80.38952480"}}, {"id": 507, "city": "Ihala Madampella", "details": {"postalcode": "11265", "latitude": "7.24895350", "longitude": "79.95371930"}}, {"id": 508, "city": "Imbulgoda", "details": {"postalcode": "11856", "latitude": "7.08704600", "longitude": "80.01751040"}}, {"id": 509, "city": "Ja-Ela", "details": {"postalcode": "11350", "latitude": "7.08575960", "longitude": "79.92544450"}}, {"id": 510, "city": "Kadawatha", "details": {"postalcode": "11850", "latitude": "7.00467190", "longitude": "79.95420020"}}, {"id": 511, "city": "Kahatowita", "details": {"postalcode": "11144", "latitude": "7.09745510", "longitude": "80.11223900"}}, {"id": 512, "city": "Kalagedihena", "details": {"postalcode": "11875", "latitude": "7.12014350", "longitude": "80.05908040"}}, {"id": 513, "city": "Kaleliya", "details": {"postalcode": "11160", "latitude": "7.19702310", "longitude": "80.11075310"}}, {"id": 514, "city": "Kandana", "details": {"postalcode": "11320", "latitude": "7.04778970", "longitude": "79.89703480"}}, {"id": 515, "city": "Katana", "details": {"postalcode": "11534", "latitude": "7.24802840", "longitude": "79.89936650"}}, {"id": 516, "city": "Katudeniya", "details": {"postalcode": "21016", "latitude": "7.43831900", "longitude": "80.64154520"}}, {"id": 517, "city": "Katunayake", "details": {"postalcode": "11450", "latitude": "7.17248490", "longitude": "79.88534840"}}, {"id": 518, "city": "Katunayake Air Force Camp", "details": {"postalcode": "11440", "latitude": "7.18282930", "longitude": "79.86773900"}}, {"id": 519, "city": "Katunayake(FTZ)", "details": {"postalcode": "11420", "latitude": "7.17366030", "longitude": "79.88688610"}}, {"id": 520, "city": "Katuwellegama", "details": {"postalcode": "11526", "latitude": "7.19971330", "longitude": "79.94976680"}}, {"id": 521, "city": "Kelaniya", "details": {"postalcode": "11600", "latitude": "6.97821370", "longitude": "79.91155220"}}, {"id": 522, "city": "Kimbulapitiya", "details": {"postalcode": "11522", "latitude": "7.20424070", "longitude": "79.89408060"}}, {"id": 523, "city": "Kirindiwela", "details": {"postalcode": "11730", "latitude": "7.04118250", "longitude": "80.12893240"}}, {"id": 524, "city": "Kitalawalana", "details": {"postalcode": "11206", "latitude": "7.29093330", "longitude": "80.11424340"}}, {"id": 525, "city": "Kochchikade", "details": {"postalcode": "11540", "latitude": "7.26570630", "longitude": "79.85912350"}}, {"id": 526, "city": "Kotadeniyawa", "details": {"postalcode": "11232", "latitude": "7.28388130", "longitude": "80.06606500"}}, {"id": 527, "city": "Kotugoda", "details": {"postalcode": "11390", "latitude": "7.12319100", "longitude": "79.92416730"}}, {"id": 528, "city": "Kumbaloluwa", "details": {"postalcode": "11105", "latitude": "7.17710570", "longitude": "80.11214930"}}, {"id": 529, "city": "Loluwagoda", "details": {"postalcode": "11204", "latitude": "7.29210060", "longitude": "80.13503500"}}, {"id": 530, "city": "Mabodale", "details": {"postalcode": "11114", "latitude": "7.20243690", "longitude": "80.01872130"}}, {"id": 531, "city": "Madelgamuwa", "details": {"postalcode": "11033", "latitude": "7.10846130", "longitude": "79.95986960"}}, {"id": 532, "city": "Makewita", "details": {"postalcode": "11358", "latitude": "7.10095000", "longitude": "79.96332620"}}, {"id": 533, "city": "Makola", "details": {"postalcode": "11640", "latitude": "6.97189890", "longitude": "79.94663980"}}, {"id": 534, "city": "Malwana", "details": {"postalcode": "11670", "latitude": "6.95078440", "longitude": "80.01574490"}}, {"id": 535, "city": "Mandawala", "details": {"postalcode": "11061", "latitude": "7.00011780", "longitude": "80.09399780"}}, {"id": 536, "city": "Marandagahamula", "details": {"postalcode": "11260", "latitude": "7.22898140", "longitude": "79.99060150"}}, {"id": 537, "city": "Mellawagedara", "details": {"postalcode": "11234", "latitude": "7.28568090", "longitude": "80.02694400"}}, {"id": 538, "city": "Minuwangoda", "details": {"postalcode": "11550", "latitude": "7.18420760", "longitude": "79.95004770"}}, {"id": 539, "city": "Mirigama", "details": {"postalcode": "11200", "latitude": "7.22711090", "longitude": "80.15676640"}}, {"id": 540, "city": "Miriswatta", "details": {"postalcode": "80508", "latitude": "7.07273940", "longitude": "80.01576330"}}, {"id": 541, "city": "Mithirigala", "details": {"postalcode": "11742", "latitude": "6.99622360", "longitude": "80.16099950"}}, {"id": 542, "city": "Muddaragama", "details": {"postalcode": "11112", "latitude": "7.20859950", "longitude": "80.05500330"}}, {"id": 543, "city": "Mudungoda", "details": {"postalcode": "11056", "latitude": "7.06669220", "longitude": "80.01226900"}}, {"id": 544, "city": "Mulleriyawa New Town", "details": {"postalcode": "10620", "latitude": "7.08404840", "longitude": "80.00983140"}}, {"id": 545, "city": "Naranwala", "details": {"postalcode": "11063", "latitude": "7.01189570", "longitude": "80.02414890"}}, {"id": 546, "city": "Nawana", "details": {"postalcode": "11222", "latitude": "7.08404840", "longitude": "80.00983140"}}, {"id": 547, "city": "Nedungamuwa", "details": {"postalcode": "11066", "latitude": "7.04897410", "longitude": "80.02135380"}}, {"id": 548, "city": "Negombo", "details": {"postalcode": "11500", "latitude": "7.19554740", "longitude": "79.85733840"}}, {"id": 549, "city": "Nikadalupotha", "details": {"postalcode": "60580", "latitude": "7.65409650", "longitude": "80.37560810"}}, {"id": 550, "city": "Nikahetikanda", "details": {"postalcode": "11128", "latitude": "7.09880240", "longitude": "80.17913680"}}, {"id": 551, "city": "Nittambuwa", "details": {"postalcode": "11880", "latitude": "7.14236390", "longitude": "80.10377210"}}, {"id": 552, "city": "Niwandama", "details": {"postalcode": "11354", "latitude": "7.07345330", "longitude": "79.92777630"}}, {"id": 553, "city": "Opatha", "details": {"postalcode": "80142", "latitude": "7.13205760", "longitude": "79.92634270"}}, {"id": 554, "city": "Pamunugama", "details": {"postalcode": "11370", "latitude": "7.08649860", "longitude": "79.85488230"}}, {"id": 555, "city": "Pamunuwatta", "details": {"postalcode": "11214", "latitude": "7.21631230", "longitude": "80.14146270"}}, {"id": 556, "city": "Panawala", "details": {"postalcode": "70612", "latitude": "7.16740680", "longitude": "80.09399780"}}, {"id": 557, "city": "Pasyala", "details": {"postalcode": "11890", "latitude": "7.16671030", "longitude": "80.12331750"}}, {"id": 558, "city": "Peliyagoda", "details": {"postalcode": "11830", "latitude": "6.95849150", "longitude": "79.90558190"}}, {"id": 559, "city": "Pepiliyawala", "details": {"postalcode": "11741", "latitude": "7.00218000", "longitude": "80.12890100"}}, {"id": 560, "city": "Pethiyagoda", "details": {"postalcode": "11043", "latitude": "7.13806170", "longitude": "79.99510440"}}, {"id": 561, "city": "Polpithimukulana", "details": {"postalcode": "11324", "latitude": "7.08404840", "longitude": "80.00983140"}}, {"id": 562, "city": "Puwakpitiya", "details": {"postalcode": "10712", "latitude": "7.03801870", "longitude": "80.06746190"}}, {"id": 563, "city": "Radawadunna", "details": {"postalcode": "11892", "latitude": "7.18438730", "longitude": "80.14146270"}}, {"id": 564, "city": "Radawana", "details": {"postalcode": "11725", "latitude": "7.03194950", "longitude": "80.09399780"}}, {"id": 565, "city": "Raddolugama", "details": {"postalcode": "11400", "latitude": "7.14063340", "longitude": "79.90136030"}}, {"id": 566, "city": "Ragama", "details": {"postalcode": "11010", "latitude": "7.02317680", "longitude": "79.90777230"}}, {"id": 567, "city": "Ruggahawila", "details": {"postalcode": "11142", "latitude": "7.11003790", "longitude": "80.11424340"}}, {"id": 568, "city": "Seeduwa", "details": {"postalcode": "11410", "latitude": "7.14067840", "longitude": "79.88697320"}}, {"id": 569, "city": "Siyambalape", "details": {"postalcode": "11607", "latitude": "6.96741120", "longitude": "79.98920340"}}, {"id": 570, "city": "Talahena", "details": {"postalcode": "11504", "latitude": "7.08404840", "longitude": "80.00983140"}}, {"id": 571, "city": "Thambagalla", "details": {"postalcode": "60584", "latitude": "7.08404840", "longitude": "80.00983140"}}, {"id": 572, "city": "Thimbirigaskatuwa", "details": {"postalcode": "11532", "latitude": "7.13542420", "longitude": "79.88851020"}}, {"id": 573, "city": "Tittapattara", "details": {"postalcode": "10664", "latitude": "6.91356150", "longitude": "80.05972130"}}, {"id": 574, "city": "Udathuthiripitiya", "details": {"postalcode": "11054", "latitude": "7.08404840", "longitude": "80.00983140"}}, {"id": 575, "city": "Udugampola", "details": {"postalcode": "11030", "latitude": "7.12635740", "longitude": "79.97801780"}}, {"id": 576, "city": "Uggalboda", "details": {"postalcode": "11034", "latitude": "7.13248020", "longitude": "79.95424380"}}, {"id": 577, "city": "Urapola", "details": {"postalcode": "11126", "latitude": "7.09804240", "longitude": "80.14499060"}}, {"id": 578, "city": "Uswetakeiyawa", "details": {"postalcode": "11328", "latitude": "7.03899110", "longitude": "79.86608360"}}, {"id": 579, "city": "Veyangoda", "details": {"postalcode": "11100", "latitude": "7.16621390", "longitude": "80.05586950"}}, {"id": 580, "city": "Walgammulla", "details": {"postalcode": "11146", "latitude": "7.07093920", "longitude": "80.11773350"}}, {"id": 581, "city": "Walpita", "details": {"postalcode": "11226", "latitude": "7.26126670", "longitude": "80.04591300"}}, {"id": 582, "city": "Walpola (WP)", "details": {"postalcode": "11012", "latitude": "7.19434870", "longitude": "79.92766510"}}, {"id": 583, "city": "Wathurugama", "details": {"postalcode": "11724", "latitude": "7.05465480", "longitude": "80.10097960"}}, {"id": 584, "city": "Watinapaha", "details": {"postalcode": "11104", "latitude": "7.18531180", "longitude": "80.00038750"}}, {"id": 585, "city": "Wattala", "details": {"postalcode": "11104", "latitude": "6.99066770", "longitude": "79.89317090"}}, {"id": 586, "city": "Weboda", "details": {"postalcode": "11858", "latitude": "7.02511750", "longitude": "79.99130050"}}, {"id": 587, "city": "Wegowwa", "details": {"postalcode": "11562", "latitude": "7.17160320", "longitude": "79.97462990"}}, {"id": 588, "city": "Weweldeniya", "details": {"postalcode": "11894", "latitude": "7.19792850", "longitude": "80.15262710"}}, {"id": 589, "city": "Yakkala", "details": {"postalcode": "11870", "latitude": "7.08641530", "longitude": "80.03351070"}}, {"id": 590, "city": "Yatiyana", "details": {"postalcode": "11566", "latitude": "7.18677080", "longitude": "79.92605480"}}, {"id": 1951, "city": "Wattala", "details": {"postalcode": "11300", "latitude": "6.98601320", "longitude": "79.90701560"}}, {"id": 2213, "city": "Mabola", "details": {"postalcode": "11104", "latitude": "7.00628330", "longitude": "79.89248280"}}]}, {"id": 10, "district": "Kalutara", "cities": [{"id": 655, "city": "Agalawatta", "details": {"postalcode": "12200", "latitude": "6.54227940", "longitude": "80.15750400"}}, {"id": 656, "city": "Alubomulla", "details": {"postalcode": "12524", "latitude": "6.71130910", "longitude": "79.94585140"}}, {"id": 657, "city": "Anguruwatota", "details": {"postalcode": "12320", "latitude": "6.64469710", "longitude": "80.07459540"}}, {"id": 658, "city": "Atale", "details": {"postalcode": "71363", "latitude": "6.45000000", "longitude": "80.26666700"}}, {"id": 659, "city": "Baduraliya", "details": {"postalcode": "12230", "latitude": "6.51712210", "longitude": "80.23118010"}}, {"id": 660, "city": "Bandaragama", "details": {"postalcode": "12530", "latitude": "6.71440730", "longitude": "79.98906040"}}, {"id": 661, "city": "Batugampola", "details": {"postalcode": "10526", "latitude": "6.77398170", "longitude": "80.13967210"}}, {"id": 662, "city": "Bellana", "details": {"postalcode": "12224", "latitude": "6.52213600", "longitude": "80.17355650"}}, {"id": 663, "city": "Beruwala", "details": {"postalcode": "12070", "latitude": "6.46320380", "longitude": "79.97471240"}}, {"id": 664, "city": "Bolossagama", "details": {"postalcode": "12008", "latitude": "6.62305890", "longitude": "80.01576330"}}, {"id": 665, "city": "Bombuwala", "details": {"postalcode": "12024", "latitude": "6.57540720", "longitude": "80.01428050"}}, {"id": 666, "city": "Boralugoda", "details": {"postalcode": "12142", "latitude": "6.43471850", "longitude": "80.27951950"}}, {"id": 667, "city": "Bulathsinhala", "details": {"postalcode": "12300", "latitude": "6.64874710", "longitude": "80.17913680"}}, {"id": 668, "city": "Danawala Thiniyawala", "details": {"postalcode": "12148", "latitude": "6.41510400", "longitude": "80.32862730"}}, {"id": 669, "city": "Delmella", "details": {"postalcode": "12304", "latitude": "6.67962190", "longitude": "80.20563820"}}, {"id": 670, "city": "Dharga Town", "details": {"postalcode": "12090", "latitude": "6.44474520", "longitude": "80.01686020"}}, {"id": 671, "city": "Diwalakada", "details": {"postalcode": "12308", "latitude": "6.57111530", "longitude": "80.06087530"}}, {"id": 672, "city": "Dodangoda", "details": {"postalcode": "12020", "latitude": "6.55286750", "longitude": "80.02329230"}}, {"id": 673, "city": "Dombagoda", "details": {"postalcode": "12416", "latitude": "6.64617370", "longitude": "80.05069810"}}, {"id": 674, "city": "Ethkandura", "details": {"postalcode": "80458", "latitude": "6.23289180", "longitude": "80.15681340"}}, {"id": 675, "city": "Galpatha", "details": {"postalcode": "12005", "latitude": "6.62914500", "longitude": "80.02345020"}}, {"id": 676, "city": "Gamagoda", "details": {"postalcode": "12016", "latitude": "6.58394120", "longitude": "79.99535970"}}, {"id": 677, "city": "Gonagalpura", "details": {"postalcode": "80502", "latitude": "6.58539480", "longitude": "79.96074000"}}, {"id": 678, "city": "Gonapola Junction", "details": {"postalcode": "12410", "latitude": "6.75634030", "longitude": "80.01716090"}}, {"id": 679, "city": "Govinna", "details": {"postalcode": "12310", "latitude": "6.67523890", "longitude": "80.11834880"}}, {"id": 680, "city": "Gurulubadda", "details": {"postalcode": "12236", "latitude": "6.04826920", "longitude": "80.19603960"}}, {"id": 681, "city": "Halkandawila", "details": {"postalcode": "12055", "latitude": "6.50000000", "longitude": "80.01666670"}}, {"id": 682, "city": "Haltota", "details": {"postalcode": "12538", "latitude": "6.69425550", "longitude": "80.03086100"}}, {"id": 683, "city": "Halvitigala Colony", "details": {"postalcode": "80146", "latitude": "6.31172200", "longitude": "80.36510350"}}, {"id": 684, "city": "Halwala", "details": {"postalcode": "12118", "latitude": "6.42087690", "longitude": "80.10656460"}}, {"id": 685, "city": "Halwatura", "details": {"postalcode": "12306", "latitude": "6.71759930", "longitude": "80.19029630"}}, {"id": 686, "city": "Handapangoda", "details": {"postalcode": "10524", "latitude": "6.79056920", "longitude": "80.14006710"}}, {"id": 687, "city": "Hedigalla Colony", "details": {"postalcode": "12234", "latitude": "6.46639100", "longitude": "80.28509290"}}, {"id": 688, "city": "Henegama", "details": {"postalcode": "11715", "latitude": "6.48387220", "longitude": "80.10097960"}}, {"id": 689, "city": "Hettimulla", "details": {"postalcode": "71210", "latitude": "6.45807660", "longitude": "79.99080060"}}, {"id": 690, "city": "Horana", "details": {"postalcode": "12400", "latitude": "6.72465340", "longitude": "80.03994640"}}, {"id": 691, "city": "Ittapana", "details": {"postalcode": "12116", "latitude": "6.43664840", "longitude": "80.09552300"}}, {"id": 692, "city": "Kahawala", "details": {"postalcode": "10508", "latitude": "6.77942550", "longitude": "80.11214930"}}, {"id": 693, "city": "Kalawila Kiranthidiya", "details": {"postalcode": "12078", "latitude": "6.45456930", "longitude": "80.01038610"}}, {"id": 694, "city": "Kalutara", "details": {"postalcode": "12000", "latitude": "6.58539480", "longitude": "79.96074000"}}, {"id": 695, "city": "Kananwila", "details": {"postalcode": "12418", "latitude": "6.75423780", "longitude": "80.06228150"}}, {"id": 696, "city": "Kandanagama", "details": {"postalcode": "12428", "latitude": "6.71440730", "longitude": "79.98906040"}}, {"id": 697, "city": "Kelinkanda", "details": {"postalcode": "12218", "latitude": "6.57452540", "longitude": "80.29345220"}}, {"id": 698, "city": "Kitulgoda", "details": {"postalcode": "12222", "latitude": "6.50645020", "longitude": "80.17913680"}}, {"id": 699, "city": "Koholana", "details": {"postalcode": "12007", "latitude": "6.61727960", "longitude": "79.99060150"}}, {"id": 700, "city": "Kuda Uduwa", "details": {"postalcode": "12426", "latitude": "6.76620850", "longitude": "80.07789310"}}, {"id": 701, "city": "Labbala", "details": {"postalcode": "60162", "latitude": "7.33960770", "longitude": "80.07846130"}}, {"id": 702, "city": "Ihalahewessa", "details": {"postalcode": "80432", "latitude": "6.58539480", "longitude": "79.96074000"}}, {"id": 703, "city": "Induruwa", "details": {"postalcode": "80510", "latitude": "6.37585110", "longitude": "80.00931050"}}, {"id": 704, "city": "Ingiriya", "details": {"postalcode": "12440", "latitude": "6.74037690", "longitude": "80.16245430"}}, {"id": 705, "city": "Maggona", "details": {"postalcode": "12060", "latitude": "6.50957990", "longitude": "79.99571700"}}, {"id": 706, "city": "Mahagama", "details": {"postalcode": "12210", "latitude": "6.60352860", "longitude": "80.15960410"}}, {"id": 707, "city": "Mahakalupahana", "details": {"postalcode": "12126", "latitude": "6.58539480", "longitude": "79.96074000"}}, {"id": 708, "city": "Maharangalla", "details": {"postalcode": "71211", "latitude": "6.60155280", "longitude": "79.97532410"}}, {"id": 709, "city": "Malgalla Talangalla", "details": {"postalcode": "80144", "latitude": "6.30741480", "longitude": "80.36607150"}}, {"id": 710, "city": "Matugama", "details": {"postalcode": "12100", "latitude": "6.52194320", "longitude": "80.11368520"}}, {"id": 711, "city": "Meegahatenna", "details": {"postalcode": "12130", "latitude": "6.43311600", "longitude": "80.19587550"}}, {"id": 712, "city": "Meegama", "details": {"postalcode": "12094", "latitude": "6.42134980", "longitude": "80.06327130"}}, {"id": 713, "city": "Meegoda", "details": {"postalcode": "10504", "latitude": "6.58936130", "longitude": "79.96366730"}}, {"id": 714, "city": "Millaniya", "details": {"postalcode": "12412", "latitude": "6.68051510", "longitude": "80.02065500"}}, {"id": 715, "city": "Millewa", "details": {"postalcode": "12422", "latitude": "6.78121050", "longitude": "80.07025550"}}, {"id": 716, "city": "Miwanapalana", "details": {"postalcode": "12424", "latitude": "6.74338480", "longitude": "80.09399780"}}, {"id": 717, "city": "Molkawa", "details": {"postalcode": "12216", "latitude": "6.60507010", "longitude": "80.23770780"}}, {"id": 718, "city": "Morapitiya", "details": {"postalcode": "12232", "latitude": "6.53052660", "longitude": "80.27365140"}}, {"id": 719, "city": "Morontuduwa", "details": {"postalcode": "12564", "latitude": "6.66234510", "longitude": "79.97032690"}}, {"id": 720, "city": "Nawattuduwa", "details": {"postalcode": "12106", "latitude": "6.48495100", "longitude": "80.06382200"}}, {"id": 721, "city": "Neboda", "details": {"postalcode": "12030", "latitude": "6.59165510", "longitude": "80.09260140"}}, {"id": 722, "city": "Padagoda", "details": {"postalcode": "12074", "latitude": "6.56576860", "longitude": "79.98361080"}}, {"id": 723, "city": "Pahalahewessa", "details": {"postalcode": "12144", "latitude": "6.58539480", "longitude": "79.96074000"}}, {"id": 724, "city": "Paiyagala", "details": {"postalcode": "12050", "latitude": "6.51861030", "longitude": "79.99479560"}}, {"id": 725, "city": "Panadura", "details": {"postalcode": "12500", "latitude": "6.75279940", "longitude": "79.89493090"}}, {"id": 726, "city": "Pannala", "details": {"postalcode": "60160", "latitude": "6.56600740", "longitude": "79.96254190"}}, {"id": 727, "city": "Paragastota", "details": {"postalcode": "12414", "latitude": "6.67287650", "longitude": "80.00178540"}}, {"id": 728, "city": "Paragoda", "details": {"postalcode": "12302", "latitude": "6.61220740", "longitude": "80.22668470"}}, {"id": 729, "city": "Paraigama", "details": {"postalcode": "12122", "latitude": "6.58539480", "longitude": "79.96074000"}}, {"id": 730, "city": "Pelanda", "details": {"postalcode": "12214", "latitude": "6.58539480", "longitude": "79.96074000"}}, {"id": 731, "city": "Pelawatta", "details": {"postalcode": "12138", "latitude": "6.40053000", "longitude": "80.21206180"}}, {"id": 732, "city": "Pimbura", "details": {"postalcode": "70472", "latitude": "6.55867620", "longitude": "80.15681340"}}, {"id": 733, "city": "Pitagaldeniya", "details": {"postalcode": "71360", "latitude": "7.19266780", "longitude": "80.30015810"}}, {"id": 734, "city": "Pokunuwita", "details": {"postalcode": "12404", "latitude": "6.72886860", "longitude": "80.02973890"}}, {"id": 735, "city": "Poruwedanda", "details": {"postalcode": "12432", "latitude": "6.73631930", "longitude": "80.13355590"}}, {"id": 736, "city": "Ratmale", "details": {"postalcode": "81030", "latitude": "6.46117810", "longitude": "80.19808440"}}, {"id": 737, "city": "Remunagoda", "details": {"postalcode": "12009", "latitude": "6.60790790", "longitude": "80.02527190"}}, {"id": 738, "city": "Talgaswela", "details": {"postalcode": "80470", "latitude": "6.24410260", "longitude": "80.27089570"}}, {"id": 739, "city": "Tebuwana", "details": {"postalcode": "12025", "latitude": "6.59227590", "longitude": "80.05768340"}}, {"id": 740, "city": "Uduwara", "details": {"postalcode": "12322", "latitude": "6.62301950", "longitude": "80.06724360"}}, {"id": 741, "city": "Utumgama", "details": {"postalcode": "12127", "latitude": "6.42699770", "longitude": "80.15123170"}}, {"id": 742, "city": "Veyangalla", "details": {"postalcode": "12204", "latitude": "6.58235810", "longitude": "80.14736130"}}, {"id": 743, "city": "Wadduwa", "details": {"postalcode": "12560", "latitude": "6.63628230", "longitude": "79.95284510"}}, {"id": 744, "city": "Walagedara", "details": {"postalcode": "12112", "latitude": "6.44991840", "longitude": "80.07933420"}}, {"id": 745, "city": "Walallawita", "details": {"postalcode": "12134", "latitude": "6.38055500", "longitude": "80.19587550"}}, {"id": 746, "city": "Waskaduwa", "details": {"postalcode": "12580", "latitude": "6.62685800", "longitude": "79.94305370"}}, {"id": 747, "city": "Welipenna", "details": {"postalcode": "12108", "latitude": "6.46819940", "longitude": "80.10656460"}}, {"id": 748, "city": "Weliveriya", "details": {"postalcode": "11710", "latitude": "7.03134070", "longitude": "80.02875140"}}, {"id": 749, "city": "Welmilla Junction", "details": {"postalcode": "12534", "latitude": "6.74843260", "longitude": "79.97148470"}}, {"id": 750, "city": "Weragala", "details": {"postalcode": "71622", "latitude": "6.52935950", "longitude": "80.00597900"}}, {"id": 751, "city": "Yagirala", "details": {"postalcode": "12124", "latitude": "6.36940910", "longitude": "80.16239480"}}, {"id": 752, "city": "Yatadolawatta", "details": {"postalcode": "12104", "latitude": "6.52016150", "longitude": "80.07304910"}}, {"id": 753, "city": "Yatawara Junction", "details": {"postalcode": "12006", "latitude": "6.60032430", "longitude": "80.03684880"}}]}]}