{"id": 2, "province": "Central", "districts": [{"id": 11, "district": "Kandy", "cities": [{"id": 754, "city": "Aludeniya", "details": {"postalcode": "20062", "latitude": "7.33069300", "longitude": "80.56884280"}}, {"id": 755, "city": "Ambagahapelessa", "details": {"postalcode": "20986", "latitude": "7.24356700", "longitude": "81.00644420"}}, {"id": 756, "city": "Ambagamuwa Udabulathgama", "details": {"postalcode": "20678", "latitude": "7.11324900", "longitude": "80.61881560"}}, {"id": 757, "city": "Ambatenna", "details": {"postalcode": "20136", "latitude": "7.35297890", "longitude": "80.61326460"}}, {"id": 758, "city": "Ampitiya", "details": {"postalcode": "20160", "latitude": "7.26863590", "longitude": "80.66321030"}}, {"id": 759, "city": "Ankumbura", "details": {"postalcode": "20150", "latitude": "7.43751890", "longitude": "80.56884280"}}, {"id": 760, "city": "Atabage", "details": {"postalcode": "20574", "latitude": "7.13773260", "longitude": "80.61106310"}}, {"id": 761, "city": "Balana", "details": {"postalcode": "20308", "latitude": "7.27224530", "longitude": "80.48822660"}}, {"id": 762, "city": "Bambaragahaela", "details": {"postalcode": "20644", "latitude": "7.28914610", "longitude": "80.76075890"}}, {"id": 763, "city": "Batagolladeniya", "details": {"postalcode": "20154", "latitude": "7.41501070", "longitude": "80.57856210"}}, {"id": 764, "city": "Batugoda", "details": {"postalcode": "20132", "latitude": "7.36568320", "longitude": "80.60543550"}}, {"id": 765, "city": "Batumulla", "details": {"postalcode": "20966", "latitude": "7.26447420", "longitude": "80.98434460"}}, {"id": 766, "city": "Bawlana", "details": {"postalcode": "20218", "latitude": "7.20982270", "longitude": "80.72005570"}}, {"id": 767, "city": "Bopana", "details": {"postalcode": "20932", "latitude": "7.30682480", "longitude": "80.90003310"}}, {"id": 768, "city": "Danture", "details": {"postalcode": "20465", "latitude": "7.28209570", "longitude": "80.54106700"}}, {"id": 769, "city": "Dedunupitiya", "details": {"postalcode": "20068", "latitude": "7.32662400", "longitude": "80.43960600"}}, {"id": 770, "city": "Dekinda", "details": {"postalcode": "20658", "latitude": "7.01611380", "longitude": "80.51667090"}}, {"id": 771, "city": "Deltota", "details": {"postalcode": "20430", "latitude": "7.17267450", "longitude": "80.70157100"}}, {"id": 772, "city": "Divulankadawala", "details": {"postalcode": "51428", "latitude": "8.11175760", "longitude": "80.92906850"}}, {"id": 773, "city": "Dolapihilla", "details": {"postalcode": "20126", "latitude": "7.39500360", "longitude": "80.57995050"}}, {"id": 774, "city": "Dolosbage", "details": {"postalcode": "20510", "latitude": "7.08608120", "longitude": "80.46046430"}}, {"id": 775, "city": "Dunuwila", "details": {"postalcode": "20824", "latitude": "7.37907490", "longitude": "80.64795240"}}, {"id": 776, "city": "Etulgama", "details": {"postalcode": "20202", "latitude": "7.25143540", "longitude": "80.66452750"}}, {"id": 777, "city": "Galaboda", "details": {"postalcode": "20664", "latitude": "6.98119520", "longitude": "80.52717560"}}, {"id": 778, "city": "Galagedara", "details": {"postalcode": "20100", "latitude": "7.36996830", "longitude": "80.53273240"}}, {"id": 779, "city": "Galaha", "details": {"postalcode": "20420", "latitude": "7.19684440", "longitude": "80.67153170"}}, {"id": 780, "city": "Galhinna", "details": {"postalcode": "20152", "latitude": "7.41602200", "longitude": "80.56328840"}}, {"id": 781, "city": "Gampola", "details": {"postalcode": "20500", "latitude": "7.12677700", "longitude": "80.56467700"}}, {"id": 782, "city": "Gelioya", "details": {"postalcode": "20620", "latitude": "7.21531510", "longitude": "80.59799730"}}, {"id": 783, "city": "Godamunna", "details": {"postalcode": "20214", "latitude": "7.22808190", "longitude": "80.70064960"}}, {"id": 784, "city": "Gomagoda", "details": {"postalcode": "20184", "latitude": "7.30505700", "longitude": "80.61881560"}}, {"id": 785, "city": "Gonagantenna", "details": {"postalcode": "20712", "latitude": "7.29057150", "longitude": "80.63372620"}}, {"id": 786, "city": "Gonawalapatana", "details": {"postalcode": "20656", "latitude": "7.29057150", "longitude": "80.63372620"}}, {"id": 787, "city": "Gunnepana", "details": {"postalcode": "20270", "latitude": "7.32286100", "longitude": "80.65913260"}}, {"id": 788, "city": "Gurudeniya", "details": {"postalcode": "20189", "latitude": "7.26311390", "longitude": "80.71816510"}}, {"id": 789, "city": "Hakmana", "details": {"postalcode": "81300", "latitude": "7.31433950", "longitude": "80.80416350"}}, {"id": 790, "city": "Handaganawa", "details": {"postalcode": "20984", "latitude": "7.26730780", "longitude": "80.99263270"}}, {"id": 791, "city": "Handawalapitiya", "details": {"postalcode": "20438", "latitude": "7.04470080", "longitude": "80.51606080"}}, {"id": 792, "city": "Handessa", "details": {"postalcode": "20480", "latitude": "7.23030520", "longitude": "80.58203300"}}, {"id": 794, "city": "Harangalagama", "details": {"postalcode": "20669", "latitude": "7.29057150", "longitude": "80.63372620"}}, {"id": 795, "city": "Hataraliyadda", "details": {"postalcode": "20060", "latitude": "7.33688600", "longitude": "80.47181430"}}, {"id": 796, "city": "Hindagala", "details": {"postalcode": "20414", "latitude": "7.23674630", "longitude": "80.60354940"}}, {"id": 797, "city": "Hondiyadeniya", "details": {"postalcode": "20524", "latitude": "7.32102140", "longitude": "80.61584050"}}, {"id": 798, "city": "Hunnasgiriya", "details": {"postalcode": "20948", "latitude": "7.29917070", "longitude": "80.85161730"}}, {"id": 799, "city": "Inguruwatta", "details": {"postalcode": "60064", "latitude": "7.17678210", "longitude": "80.60216140"}}, {"id": 800, "city": "Jambugahapitiya", "details": {"postalcode": "20822", "latitude": "7.35952440", "longitude": "80.63893500"}}, {"id": 801, "city": "Kadugannawa", "details": {"postalcode": "20300", "latitude": "7.25497250", "longitude": "80.51883960"}}, {"id": 802, "city": "Kahataliyadda", "details": {"postalcode": "20924", "latitude": "7.33577980", "longitude": "80.47115370"}}, {"id": 803, "city": "Kalugala", "details": {"postalcode": "20926", "latitude": "7.38690830", "longitude": "80.89726730"}}, {"id": 804, "city": "Kandy", "details": {"postalcode": "20000", "latitude": "7.27974620", "longitude": "80.62020330"}}, {"id": 805, "city": "Kapuliyadde", "details": {"postalcode": "20206", "latitude": "7.23911780", "longitude": "80.71072330"}}, {"id": 806, "city": "Katugastota", "details": {"postalcode": "20800", "latitude": "7.33599030", "longitude": "80.62140050"}}, {"id": 807, "city": "Katukitula", "details": {"postalcode": "20588", "latitude": "7.08155280", "longitude": "80.66794850"}}, {"id": 808, "city": "Kelanigama", "details": {"postalcode": "20688", "latitude": "6.97648370", "longitude": "80.48151140"}}, {"id": 809, "city": "Kengalla", "details": {"postalcode": "20186", "latitude": "7.29253660", "longitude": "80.72282770"}}, {"id": 810, "city": "Ketaboola", "details": {"postalcode": "20660", "latitude": "7.01016490", "longitude": "80.58962260"}}, {"id": 811, "city": "Ketakumbura", "details": {"postalcode": "20306", "latitude": "7.28327560", "longitude": "80.66182340"}}, {"id": 812, "city": "Kobonila", "details": {"postalcode": "20928", "latitude": "7.29057150", "longitude": "80.63372620"}}, {"id": 813, "city": "Kolabissa", "details": {"postalcode": "20212", "latitude": "7.16928430", "longitude": "80.73246460"}}, {"id": 814, "city": "Kolongoda", "details": {"postalcode": "20971", "latitude": "7.47215410", "longitude": "80.94565530"}}, {"id": 815, "city": "Kulugammana", "details": {"postalcode": "20048", "latitude": "7.31827420", "longitude": "80.59585190"}}, {"id": 816, "city": "Kumbukkandura", "details": {"postalcode": "20902", "latitude": "7.30459410", "longitude": "80.74214100"}}, {"id": 817, "city": "Kumburegama", "details": {"postalcode": "20086", "latitude": "7.35091190", "longitude": "80.54776870"}}, {"id": 818, "city": "Kundasale", "details": {"postalcode": "20168", "latitude": "7.28219950", "longitude": "80.69427580"}}, {"id": 819, "city": "Leemagahakotuwa", "details": {"postalcode": "20482", "latitude": "7.21536260", "longitude": "80.57105550"}}, {"id": 820, "city": "Ihala Kobbekaduwa", "details": {"postalcode": "20042", "latitude": "7.31288880", "longitude": "80.56027950"}}, {"id": 821, "city": "Lunugama", "details": {"postalcode": "11062", "latitude": "7.19830890", "longitude": "80.58064470"}}, {"id": 822, "city": "Lunuketiya Maditta", "details": {"postalcode": "20172", "latitude": "7.29057150", "longitude": "80.63372620"}}, {"id": 823, "city": "Madawala Bazaar", "details": {"postalcode": "20260", "latitude": "7.32755930", "longitude": "80.67430530"}}, {"id": 824, "city": "Madawalalanda", "details": {"postalcode": "32016", "latitude": "7.18419030", "longitude": "81.67472950"}}, {"id": 825, "city": "Madugalla", "details": {"postalcode": "20938", "latitude": "7.25845310", "longitude": "80.88343670"}}, {"id": 826, "city": "Madulkele", "details": {"postalcode": "20840", "latitude": "7.39292340", "longitude": "80.72389960"}}, {"id": 827, "city": "Mahadoraliyadda", "details": {"postalcode": "20945", "latitude": "7.33577980", "longitude": "80.47115370"}}, {"id": 828, "city": "Mahamedagama", "details": {"postalcode": "20216", "latitude": "7.22160320", "longitude": "80.71412800"}}, {"id": 829, "city": "Mahanagapura", "details": {"postalcode": "32018", "latitude": "6.32520790", "longitude": "81.21057130"}}, {"id": 830, "city": "Mailapitiya", "details": {"postalcode": "20702", "latitude": "7.22779430", "longitude": "80.75192720"}}, {"id": 831, "city": "Makkanigama", "details": {"postalcode": "20828", "latitude": "7.34551600", "longitude": "80.70342220"}}, {"id": 832, "city": "Makuldeniya", "details": {"postalcode": "20921", "latitude": "7.34041540", "longitude": "80.77963130"}}, {"id": 833, "city": "Mangalagama", "details": {"postalcode": "32069", "latitude": "7.29214700", "longitude": "80.63451000"}}, {"id": 834, "city": "Mapakanda", "details": {"postalcode": "20662", "latitude": "7.23017010", "longitude": "80.60771320"}}, {"id": 835, "city": "Marassana", "details": {"postalcode": "20210", "latitude": "7.20636030", "longitude": "80.74638520"}}, {"id": 837, "city": "Mawatura", "details": {"postalcode": "20564", "latitude": "7.08809270", "longitude": "80.57328790"}}, {"id": 838, "city": "Medamahanuwara", "details": {"postalcode": "20940", "latitude": "7.28645840", "longitude": "80.81701670"}}, {"id": 839, "city": "Medawala Harispattuwa", "details": {"postalcode": "20120", "latitude": "7.35750070", "longitude": "80.57439690"}}, {"id": 840, "city": "Meetalawa", "details": {"postalcode": "20512", "latitude": "7.13712680", "longitude": "80.52600060"}}, {"id": 841, "city": "Megoda Kalugamuwa", "details": {"postalcode": "20409", "latitude": "7.20719150", "longitude": "80.60907330"}}, {"id": 842, "city": "Menikdiwela", "details": {"postalcode": "20470", "latitude": "7.14489710", "longitude": "80.53838360"}}, {"id": 843, "city": "Menikhinna", "details": {"postalcode": "20170", "latitude": "7.31745810", "longitude": "80.70203590"}}, {"id": 844, "city": "Mimure", "details": {"postalcode": "20923", "latitude": "7.43264530", "longitude": "80.84608220"}}, {"id": 845, "city": "Minigamuwa", "details": {"postalcode": "20109", "latitude": "7.34132310", "longitude": "80.50355480"}}, {"id": 846, "city": "Minipe", "details": {"postalcode": "20983", "latitude": "7.22745230", "longitude": "81.00091990"}}, {"id": 847, "city": "Moragahapallama", "details": {"postalcode": "32012", "latitude": "7.30269050", "longitude": "80.62927990"}}, {"id": 848, "city": "Murutalawa", "details": {"postalcode": "20232", "latitude": "7.29867830", "longitude": "80.56884280"}}, {"id": 849, "city": "Muruthagahamulla", "details": {"postalcode": "20526", "latitude": "7.20709420", "longitude": "80.58689210"}}, {"id": 850, "city": "Nanuoya", "details": {"postalcode": "22150", "latitude": "6.94031580", "longitude": "80.74084290"}}, {"id": 851, "city": "Naranpanawa", "details": {"postalcode": "20176", "latitude": "7.34413090", "longitude": "80.73322160"}}, {"id": 852, "city": "Narawelpita", "details": {"postalcode": "81302", "latitude": "7.29057150", "longitude": "80.63372620"}}, {"id": 853, "city": "Nawalapitiya", "details": {"postalcode": "20650", "latitude": "7.04470080", "longitude": "80.51606080"}}, {"id": 854, "city": "Nawathispane", "details": {"postalcode": "20670", "latitude": "7.03981720", "longitude": "80.60385780"}}, {"id": 855, "city": "Nillambe", "details": {"postalcode": "20418", "latitude": "7.19950170", "longitude": "80.61300540"}}, {"id": 856, "city": "Nugaliyadda", "details": {"postalcode": "20204", "latitude": "7.23754640", "longitude": "80.69561280"}}, {"id": 857, "city": "Ovilikanda", "details": {"postalcode": "21020", "latitude": "7.45254660", "longitude": "80.58411550"}}, {"id": 858, "city": "Pallekotuwa", "details": {"postalcode": "20084", "latitude": "6.02501430", "longitude": "80.21804080"}}, {"id": 859, "city": "Panwilatenna", "details": {"postalcode": "20544", "latitude": "7.15582330", "longitude": "80.63193290"}}, {"id": 860, "city": "Paradeka", "details": {"postalcode": "20578", "latitude": "7.12389050", "longitude": "80.61881560"}}, {"id": 861, "city": "Pasbage", "details": {"postalcode": "20654", "latitude": "7.00785470", "longitude": "80.53273240"}}, {"id": 862, "city": "Pattitalawa", "details": {"postalcode": "20511", "latitude": "7.11224550", "longitude": "80.47228170"}}, {"id": 863, "city": "Peradeniya", "details": {"postalcode": "20400", "latitude": "7.26986530", "longitude": "80.59383300"}}, {"id": 864, "city": "Pilimatalawa", "details": {"postalcode": "20450", "latitude": "7.25884400", "longitude": "80.54025890"}}, {"id": 865, "city": "Poholiyadda", "details": {"postalcode": "20106", "latitude": "7.24902840", "longitude": "80.65061490"}}, {"id": 866, "city": "Pubbiliya", "details": {"postalcode": "21502", "latitude": "7.38628780", "longitude": "80.48409740"}}, {"id": 867, "city": "Pupuressa", "details": {"postalcode": "20546", "latitude": "7.14358860", "longitude": "80.67153170"}}, {"id": 868, "city": "Pussellawa", "details": {"postalcode": "20580", "latitude": "7.11098270", "longitude": "80.63824130"}}, {"id": 869, "city": "Putuhapuwa", "details": {"postalcode": "20906", "latitude": "7.33592530", "longitude": "80.75608340"}}, {"id": 870, "city": "Rajawella", "details": {"postalcode": "20180", "latitude": "7.29635490", "longitude": "80.73010350"}}, {"id": 871, "city": "Rambukpitiya", "details": {"postalcode": "20676", "latitude": "8.56611110", "longitude": "80.22638890"}}, {"id": 872, "city": "Rambukwella", "details": {"postalcode": "20128", "latitude": "7.29100470", "longitude": "80.77824630"}}, {"id": 873, "city": "Rangala", "details": {"postalcode": "20922", "latitude": "7.32297530", "longitude": "80.77547630"}}, {"id": 874, "city": "Rantembe", "details": {"postalcode": "20990", "latitude": "7.19960590", "longitude": "80.94962880"}}, {"id": 875, "city": "Sangarajapura", "details": {"postalcode": "20044", "latitude": "7.32172700", "longitude": "80.51825350"}}, {"id": 876, "city": "Senarathwela", "details": {"postalcode": "20904", "latitude": "7.28271720", "longitude": "80.76439520"}}, {"id": 877, "city": "Talatuoya", "details": {"postalcode": "20200", "latitude": "7.24776190", "longitude": "80.68539860"}}, {"id": 878, "city": "Teldeniya", "details": {"postalcode": "20900", "latitude": "7.31538190", "longitude": "80.74493090"}}, {"id": 879, "city": "Tennekumbura", "details": {"postalcode": "20166", "latitude": "7.28327560", "longitude": "80.66182340"}}, {"id": 880, "city": "Uda Peradeniya", "details": {"postalcode": "20404", "latitude": "7.26399420", "longitude": "80.60384950"}}, {"id": 881, "city": "Udahentenna", "details": {"postalcode": "20506", "latitude": "7.09592590", "longitude": "80.52279280"}}, {"id": 882, "city": "Udatalawinna", "details": {"postalcode": "20802", "latitude": "7.34174960", "longitude": "80.65072680"}}, {"id": 883, "city": "Udispattuwa", "details": {"postalcode": "20916", "latitude": "7.31415770", "longitude": "80.78482470"}}, {"id": 884, "city": "Ududumbara", "details": {"postalcode": "20950", "latitude": "7.31438630", "longitude": "80.87790380"}}, {"id": 885, "city": "Uduwahinna", "details": {"postalcode": "20934", "latitude": "7.29057150", "longitude": "80.63372620"}}, {"id": 886, "city": "Uduwela", "details": {"postalcode": "20164", "latitude": "7.26257160", "longitude": "80.63300950"}}, {"id": 887, "city": "Ulapane", "details": {"postalcode": "20562", "latitude": "7.09876450", "longitude": "80.56051110"}}, {"id": 888, "city": "Unuwinna", "details": {"postalcode": "20708", "latitude": "7.20522760", "longitude": "80.76879140"}}, {"id": 889, "city": "Velamboda", "details": {"postalcode": "20640", "latitude": "7.20096370", "longitude": "80.54801180"}}, {"id": 890, "city": "Watagoda", "details": {"postalcode": "22110", "latitude": "7.39523860", "longitude": "80.59105670"}}, {"id": 891, "city": "Watagoda Harispattuwa", "details": {"postalcode": "20134", "latitude": "7.39523860", "longitude": "80.59105670"}}, {"id": 892, "city": "Wattappola", "details": {"postalcode": "20454", "latitude": "7.23411760", "longitude": "80.54106700"}}, {"id": 893, "city": "Weligampola", "details": {"postalcode": "20666", "latitude": "7.04210070", "longitude": "80.51883960"}}, {"id": 894, "city": "Wendaruwa", "details": {"postalcode": "20914", "latitude": "7.26511460", "longitude": "80.81701670"}}, {"id": 895, "city": "Weragantota", "details": {"postalcode": "20982", "latitude": "7.32991440", "longitude": "80.98572600"}}, {"id": 896, "city": "Werapitya", "details": {"postalcode": "20908", "latitude": "7.36454780", "longitude": "80.75138200"}}, {"id": 897, "city": "Werellagama", "details": {"postalcode": "20080", "latitude": "7.31577890", "longitude": "80.57950500"}}, {"id": 898, "city": "Wettawa", "details": {"postalcode": "20108", "latitude": "7.36437410", "longitude": "80.51160780"}}, {"id": 899, "city": "Yahalatenna", "details": {"postalcode": "20234", "latitude": "7.31478000", "longitude": "80.57109060"}}, {"id": 900, "city": "Yatihalagala", "details": {"postalcode": "20034", "latitude": "7.29440420", "longitude": "80.59672060"}}, {"id": 1032, "city": "Akurana", "details": {"postalcode": "20850", "latitude": "7.36889590", "longitude": "80.61312250"}}]}, {"id": 16, "district": "Matale", "cities": [{"id": 1287, "city": "Akuramboda", "details": {"postalcode": "21142", "latitude": "7.65000000", "longitude": "80.60000000"}}, {"id": 1288, "city": "Alawatuwala", "details": {"postalcode": "60047", "latitude": "7.45765490", "longitude": "80.62425990"}}, {"id": 1289, "city": "Alwatta", "details": {"postalcode": "21004", "latitude": "7.44890800", "longitude": "80.66459730"}}, {"id": 1290, "city": "Ambana", "details": {"postalcode": "21504", "latitude": "7.64766030", "longitude": "80.69233120"}}, {"id": 1291, "city": "Aralaganwila", "details": {"postalcode": "51100", "latitude": "7.78278190", "longitude": "81.18454260"}}, {"id": 1292, "city": "Ataragallewa", "details": {"postalcode": "21512", "latitude": "7.46746500", "longitude": "80.62341610"}}, {"id": 1293, "city": "Bambaragaswewa", "details": {"postalcode": "21212", "latitude": "7.78609140", "longitude": "80.53291660"}}, {"id": 1294, "city": "Barawardhana Oya", "details": {"postalcode": "20967", "latitude": "7.46746500", "longitude": "80.62341610"}}, {"id": 1295, "city": "Beligamuwa", "details": {"postalcode": "21214", "latitude": "7.72737210", "longitude": "80.54974800"}}, {"id": 1296, "city": "Damana", "details": {"postalcode": "32014", "latitude": "7.46746500", "longitude": "80.62341610"}}, {"id": 1297, "city": "Dambulla", "details": {"postalcode": "21100", "latitude": "7.87421700", "longitude": "80.65112870"}}, {"id": 1298, "city": "Damminna", "details": {"postalcode": "51106", "latitude": "7.75023710", "longitude": "81.21673770"}}, {"id": 1299, "city": "Dankanda", "details": {"postalcode": "21032", "latitude": "7.53472880", "longitude": "80.70109270"}}, {"id": 1300, "city": "Delwite", "details": {"postalcode": "60044", "latitude": "7.47097150", "longitude": "80.62306210"}}, {"id": 1301, "city": "Devagiriya", "details": {"postalcode": "21552", "latitude": "7.46746500", "longitude": "80.62341610"}}, {"id": 1302, "city": "Dewahuwa", "details": {"postalcode": "21206", "latitude": "7.84386120", "longitude": "80.57856210"}}, {"id": 1303, "city": "Divuldamana", "details": {"postalcode": "51104", "latitude": "7.46746500", "longitude": "80.62341610"}}, {"id": 1304, "city": "Dullewa", "details": {"postalcode": "21054", "latitude": "7.51442180", "longitude": "80.60077340"}}, {"id": 1305, "city": "Dunkolawatta", "details": {"postalcode": "21046", "latitude": "7.46746500", "longitude": "80.62341610"}}, {"id": 1306, "city": "Elkaduwa", "details": {"postalcode": "21012", "latitude": "7.41723760", "longitude": "80.68401210"}}, {"id": 1307, "city": "Erawula Junction", "details": {"postalcode": "21108", "latitude": "7.46746500", "longitude": "80.62341610"}}, {"id": 1308, "city": "Etanawala", "details": {"postalcode": "21402", "latitude": "7.46746500", "longitude": "80.62341610"}}, {"id": 1309, "city": "Galewela", "details": {"postalcode": "21200", "latitude": "7.75650450", "longitude": "80.57717370"}}, {"id": 1310, "city": "Galoya Junction", "details": {"postalcode": "51375", "latitude": "7.46746500", "longitude": "80.62341610"}}, {"id": 1311, "city": "Gammaduwa", "details": {"postalcode": "21068", "latitude": "7.57022620", "longitude": "80.69709690"}}, {"id": 1312, "city": "Gangala Puwakpitiya", "details": {"postalcode": "21404", "latitude": "7.58824670", "longitude": "80.75496740"}}, {"id": 1313, "city": "Hasalaka", "details": {"postalcode": "20960", "latitude": "7.46802280", "longitude": "80.62482660"}}, {"id": 1314, "city": "Hattota Amuna", "details": {"postalcode": "21514", "latitude": "7.61224780", "longitude": "80.82755060"}}, {"id": 1315, "city": "Imbulgolla", "details": {"postalcode": "21064", "latitude": "7.56681210", "longitude": "80.66692110"}}, {"id": 1316, "city": "Inamaluwa", "details": {"postalcode": "21124", "latitude": "7.92424990", "longitude": "80.68401210"}}, {"id": 1317, "city": "Iriyagolla", "details": {"postalcode": "60045", "latitude": "7.46746500", "longitude": "80.62341610"}}, {"id": 1318, "city": "Kaikawala", "details": {"postalcode": "21066", "latitude": "7.50769890", "longitude": "80.66182340"}}, {"id": 1319, "city": "Kalundawa", "details": {"postalcode": "21112", "latitude": "7.80335460", "longitude": "80.66960340"}}, {"id": 1320, "city": "Kandalama", "details": {"postalcode": "21106", "latitude": "7.88849850", "longitude": "80.71035320"}}, {"id": 1321, "city": "Kavudupelella", "details": {"postalcode": "21072", "latitude": "7.58020770", "longitude": "80.62658080"}}, {"id": 1322, "city": "Kibissa", "details": {"postalcode": "21122", "latitude": "7.93732850", "longitude": "80.72698540"}}, {"id": 1323, "city": "Kiwula", "details": {"postalcode": "21042", "latitude": "7.46347490", "longitude": "80.62644770"}}, {"id": 1324, "city": "Kongahawela", "details": {"postalcode": "21500", "latitude": "7.68975230", "longitude": "80.71589770"}}, {"id": 1325, "city": "Laggala Pallegama", "details": {"postalcode": "21520", "latitude": "7.59653370", "longitude": "80.83678340"}}, {"id": 1326, "city": "Leliambe", "details": {"postalcode": "21008", "latitude": "7.42250790", "longitude": "80.65710080"}}, {"id": 1327, "city": "Lenadora", "details": {"postalcode": "21094", "latitude": "7.75551730", "longitude": "80.66165000"}}, {"id": 1328, "city": "Ihala Halmillewa", "details": {"postalcode": "50262", "latitude": "8.13637740", "longitude": "80.35751280"}}, {"id": 1329, "city": "Illukkumbura", "details": {"postalcode": "21406", "latitude": "7.54413100", "longitude": "80.80178770"}}, {"id": 1330, "city": "Madipola", "details": {"postalcode": "51108", "latitude": "7.67611540", "longitude": "80.58272720"}}, {"id": 1332, "city": "Mahawela", "details": {"postalcode": "21140", "latitude": "7.58014170", "longitude": "80.61138060"}}, {"id": 1333, "city": "Mananwatta", "details": {"postalcode": "21144", "latitude": "7.68458910", "longitude": "80.60216140"}}, {"id": 1334, "city": "Maraka", "details": {"postalcode": "21554", "latitude": "7.58553720", "longitude": "80.96561810"}}, {"id": 1335, "city": "Matale", "details": {"postalcode": "21000", "latitude": "7.46746500", "longitude": "80.62341610"}}, {"id": 1336, "city": "Melipitiya", "details": {"postalcode": "21055", "latitude": "7.46746500", "longitude": "80.62341610"}}, {"id": 1337, "city": "Metihakka", "details": {"postalcode": "21062", "latitude": "7.54009730", "longitude": "80.65322010"}}, {"id": 1338, "city": "Millawana", "details": {"postalcode": "21154", "latitude": "7.64991060", "longitude": "80.57546640"}}, {"id": 1339, "city": "Muwandeniya", "details": {"postalcode": "21044", "latitude": "7.45476490", "longitude": "80.64097640"}}, {"id": 1340, "city": "Nalanda", "details": {"postalcode": "21082", "latitude": "7.66974860", "longitude": "80.64585600"}}, {"id": 1341, "city": "Naula", "details": {"postalcode": "21090", "latitude": "7.70714930", "longitude": "80.65211390"}}, {"id": 1342, "city": "Opalgala", "details": {"postalcode": "21076", "latitude": "7.62489860", "longitude": "80.69371770"}}, {"id": 1343, "city": "Pallepola", "details": {"postalcode": "21152", "latitude": "7.62297620", "longitude": "80.60493740"}}, {"id": 1344, "city": "Pimburattewa", "details": {"postalcode": "51102", "latitude": "7.71855030", "longitude": "81.18852930"}}, {"id": 1345, "city": "Pulastigama", "details": {"postalcode": "51050", "latitude": "8.04219630", "longitude": "81.08098480"}}, {"id": 1346, "city": "Ranamuregama", "details": {"postalcode": "21524", "latitude": "7.50290940", "longitude": "80.83303400"}}, {"id": 1347, "city": "Rattota", "details": {"postalcode": "21400", "latitude": "7.51727300", "longitude": "80.67153170"}}, {"id": 1348, "city": "Selagama", "details": {"postalcode": "21058", "latitude": "7.59204690", "longitude": "80.59404970"}}, {"id": 1349, "city": "Sigiriya", "details": {"postalcode": "21120", "latitude": "7.95410850", "longitude": "80.75469800"}}, {"id": 1350, "city": "Sinhagama", "details": {"postalcode": "51378", "latitude": "7.46746500", "longitude": "80.62341610"}}, {"id": 1351, "city": "Sungavila", "details": {"postalcode": "51052", "latitude": "8.07483740", "longitude": "81.09202180"}}, {"id": 1352, "city": "Talagoda Junction", "details": {"postalcode": "21506", "latitude": "7.70144770", "longitude": "80.76023940"}}, {"id": 1353, "city": "Talakiriyagama", "details": {"postalcode": "21116", "latitude": "7.82531670", "longitude": "80.62089720"}}, {"id": 1354, "city": "Tamankaduwa", "details": {"postalcode": "51089", "latitude": "7.46746500", "longitude": "80.62341610"}}, {"id": 1355, "city": "Udasgiriya", "details": {"postalcode": "21051", "latitude": "7.53517470", "longitude": "80.57023140"}}, {"id": 1356, "city": "Udatenna", "details": {"postalcode": "21006", "latitude": "7.42874250", "longitude": "80.64754180"}}, {"id": 1357, "city": "Ukuwela", "details": {"postalcode": "21300", "latitude": "7.42346230", "longitude": "80.63061030"}}, {"id": 1358, "city": "Wahacotte", "details": {"postalcode": "21160", "latitude": "7.71904370", "longitude": "80.58272720"}}, {"id": 1359, "city": "Walawela", "details": {"postalcode": "21048", "latitude": "7.51971430", "longitude": "80.59799730"}}, {"id": 1360, "city": "Wehigala", "details": {"postalcode": "21009", "latitude": "7.43822650", "longitude": "80.61406850"}}, {"id": 1361, "city": "Welangahawatte", "details": {"postalcode": "21408", "latitude": "7.54980700", "longitude": "80.75424470"}}, {"id": 1362, "city": "Wewalawewa", "details": {"postalcode": "21114", "latitude": "7.46746500", "longitude": "80.62341610"}}, {"id": 1363, "city": "Yatawatta", "details": {"postalcode": "21056", "latitude": "7.56348260", "longitude": "80.58767940"}}, {"id": 1974, "city": "Madipola", "details": {"postalcode": "21156", "latitude": "7.67611540", "longitude": "80.58272720"}}]}, {"id": 20, "district": "Nuwara Eliya", "cities": [{"id": 793, "city": "Hanguranketha", "details": {"postalcode": "20710", "latitude": "7.29057150", "longitude": "80.63372620"}}, {"id": 836, "city": "Marymount Colony", "details": {"postalcode": "20714", "latitude": "7.29057150", "longitude": "80.63372620"}}, {"id": 1491, "city": "Agarapathana", "details": {"postalcode": "22094", "latitude": "6.86724310", "longitude": "80.71217540"}}, {"id": 1492, "city": "Ambatalawa", "details": {"postalcode": "20686", "latitude": "7.05000000", "longitude": "80.66666690"}}, {"id": 1493, "city": "Ambewela", "details": {"postalcode": "22216", "latitude": "6.87871950", "longitude": "80.81355580"}}, {"id": 1494, "city": "Bogawantalawa", "details": {"postalcode": "22060", "latitude": "6.79723370", "longitude": "80.67569200"}}, {"id": 1495, "city": "Bopattalawa", "details": {"postalcode": "22095", "latitude": "6.80901900", "longitude": "80.69590130"}}, {"id": 1496, "city": "Dagampitiya", "details": {"postalcode": "20684", "latitude": "6.97747550", "longitude": "80.47436690"}}, {"id": 1497, "city": "Dayagama Bazaar", "details": {"postalcode": "22096", "latitude": "6.85612990", "longitude": "80.74742610"}}, {"id": 1498, "city": "Dikoya", "details": {"postalcode": "22050", "latitude": "6.87513130", "longitude": "80.60067720"}}, {"id": 1499, "city": "Doragala", "details": {"postalcode": "20567", "latitude": "6.95627300", "longitude": "80.78471800"}}, {"id": 1500, "city": "Dunukedeniya", "details": {"postalcode": "22002", "latitude": "6.99002820", "longitude": "80.63685390"}}, {"id": 1501, "city": "Egodawela", "details": {"postalcode": "90013", "latitude": "6.96448360", "longitude": "80.76335990"}}, {"id": 1502, "city": "Ekiriya", "details": {"postalcode": "20732", "latitude": "7.14825510", "longitude": "80.75435170"}}, {"id": 1503, "city": "Elamulla", "details": {"postalcode": "20742", "latitude": "7.05668610", "longitude": "80.76843740"}}, {"id": 1504, "city": "Ginigathena", "details": {"postalcode": "20680", "latitude": "6.98931710", "longitude": "80.49269330"}}, {"id": 1505, "city": "Gonakele", "details": {"postalcode": "22226", "latitude": "6.98379580", "longitude": "80.75815850"}}, {"id": 1506, "city": "Haggala", "details": {"postalcode": "22208", "latitude": "6.91868170", "longitude": "80.83103180"}}, {"id": 1507, "city": "Halgranoya", "details": {"postalcode": "22240", "latitude": "7.00678340", "longitude": "80.86520380"}}, {"id": 1508, "city": "Hangarapitiya", "details": {"postalcode": "22044", "latitude": "6.92040700", "longitude": "80.47255650"}}, {"id": 1509, "city": "Hapugasthalawa", "details": {"postalcode": "20668", "latitude": "7.05781340", "longitude": "80.57300840"}}, {"id": 1510, "city": "Harasbedda", "details": {"postalcode": "22262", "latitude": "7.06263870", "longitude": "80.88205350"}}, {"id": 1511, "city": "Hatton", "details": {"postalcode": "22000", "latitude": "6.89221530", "longitude": "80.59857650"}}, {"id": 1512, "city": "Hewaheta", "details": {"postalcode": "20440", "latitude": "7.11183660", "longitude": "80.76335630"}}, {"id": 1513, "city": "Hitigegama", "details": {"postalcode": "22046", "latitude": "6.95060760", "longitude": "80.45768350"}}, {"id": 1514, "city": "Jangulla", "details": {"postalcode": "90063", "latitude": "6.94971660", "longitude": "80.78910680"}}, {"id": 1515, "city": "Kalaganwatta", "details": {"postalcode": "22282", "latitude": "7.10063900", "longitude": "80.89945790"}}, {"id": 1516, "city": "Kandapola", "details": {"postalcode": "22220", "latitude": "7.00025120", "longitude": "80.81840100"}}, {"id": 1517, "city": "Karandagolla", "details": {"postalcode": "20738", "latitude": "7.05701940", "longitude": "80.90072450"}}, {"id": 1518, "city": "Keerthi Bandarapura", "details": {"postalcode": "22274", "latitude": "7.14589980", "longitude": "80.85300100"}}, {"id": 1519, "city": "Kiribathkumbura", "details": {"postalcode": "20442", "latitude": "7.26962890", "longitude": "80.57571610"}}, {"id": 1520, "city": "Kotiyagala", "details": {"postalcode": "91024", "latitude": "6.78550740", "longitude": "80.68539860"}}, {"id": 1521, "city": "Kotmale", "details": {"postalcode": "20560", "latitude": "7.02230890", "longitude": "80.59105670"}}, {"id": 1522, "city": "Kottellena", "details": {"postalcode": "22040", "latitude": "6.89316840", "longitude": "80.50216520"}}, {"id": 1523, "city": "Kumbalgamuwa", "details": {"postalcode": "22272", "latitude": "7.11248390", "longitude": "80.84608220"}}, {"id": 1524, "city": "Kumbukwela", "details": {"postalcode": "22246", "latitude": "7.05346520", "longitude": "80.88896920"}}, {"id": 1525, "city": "Kurupanawela", "details": {"postalcode": "22252", "latitude": "7.01672620", "longitude": "80.91386080"}}, {"id": 1526, "city": "Labukele", "details": {"postalcode": "20592", "latitude": "7.02431540", "longitude": "80.71909510"}}, {"id": 1527, "city": "Laxapana", "details": {"postalcode": "22034", "latitude": "6.92475840", "longitude": "80.49104700"}}, {"id": 1528, "city": "Lindula", "details": {"postalcode": "22090", "latitude": "6.90189800", "longitude": "80.67165240"}}, {"id": 1529, "city": "Madulla", "details": {"postalcode": "22256", "latitude": "7.01944190", "longitude": "80.92130100"}}, {"id": 1530, "city": "Mandaram Nuwara", "details": {"postalcode": "20744", "latitude": "7.04201080", "longitude": "80.77963130"}}, {"id": 1531, "city": "Maskeliya", "details": {"postalcode": "22070", "latitude": "6.83292940", "longitude": "80.57092560"}}, {"id": 1532, "city": "Maswela", "details": {"postalcode": "20566", "latitude": "7.06397370", "longitude": "80.63304790"}}, {"id": 1533, "city": "Maturata", "details": {"postalcode": "20748", "latitude": "6.99108740", "longitude": "80.83380120"}}, {"id": 1534, "city": "Mipanawa", "details": {"postalcode": "22254", "latitude": "6.97314000", "longitude": "80.76664000"}}, {"id": 1535, "city": "Mipilimana", "details": {"postalcode": "22214", "latitude": "6.93045680", "longitude": "80.77963130"}}, {"id": 1536, "city": "Morahenagama", "details": {"postalcode": "22036", "latitude": "6.94575120", "longitude": "80.47992730"}}, {"id": 1537, "city": "Munwatta", "details": {"postalcode": "20752", "latitude": "7.11578960", "longitude": "80.81147920"}}, {"id": 1538, "city": "Nayapana Janapadaya", "details": {"postalcode": "20568", "latitude": "7.06653840", "longitude": "80.60653300"}}, {"id": 1539, "city": "Nildandahinna", "details": {"postalcode": "22280", "latitude": "7.08011970", "longitude": "80.89173530"}}, {"id": 1540, "city": "Nissanka Uyana", "details": {"postalcode": "22075", "latitude": "6.94971660", "longitude": "80.78910680"}}, {"id": 1541, "city": "Norwood", "details": {"postalcode": "22058", "latitude": "6.83842070", "longitude": "80.61465240"}}, {"id": 1542, "city": "Nuwara Eliya", "details": {"postalcode": "22200", "latitude": "6.94795810", "longitude": "80.78851030"}}, {"id": 1543, "city": "Padiyapelella", "details": {"postalcode": "20750", "latitude": "7.09357490", "longitude": "80.79832620"}}, {"id": 1544, "city": "Pallebowala", "details": {"postalcode": "20734", "latitude": "7.15150470", "longitude": "80.73391440"}}, {"id": 1545, "city": "Panvila", "details": {"postalcode": "20830", "latitude": "7.40042080", "longitude": "80.73290790"}}, {"id": 1546, "city": "Pitawala", "details": {"postalcode": "20682", "latitude": "6.99836950", "longitude": "80.45768350"}}, {"id": 1547, "city": "Pundaluoya", "details": {"postalcode": "22120", "latitude": "7.01312780", "longitude": "80.66321030"}}, {"id": 1548, "city": "Ramboda", "details": {"postalcode": "20590", "latitude": "7.05654680", "longitude": "80.69384740"}}, {"id": 1549, "city": "Rikillagaskada", "details": {"postalcode": "20730", "latitude": "7.14865160", "longitude": "80.79071030"}}, {"id": 1550, "city": "Rozella", "details": {"postalcode": "22008", "latitude": "6.92768270", "longitude": "80.55854600"}}, {"id": 1551, "city": "Rupaha", "details": {"postalcode": "22245", "latitude": "7.03225930", "longitude": "80.90432340"}}, {"id": 1552, "city": "Ruwaneliya", "details": {"postalcode": "22212", "latitude": "6.94208920", "longitude": "80.77681290"}}, {"id": 1553, "city": "Santhipura", "details": {"postalcode": "22202", "latitude": "6.97894530", "longitude": "80.74777080"}}, {"id": 1554, "city": "Talawakele", "details": {"postalcode": "22100", "latitude": "6.93879140", "longitude": "80.66321030"}}, {"id": 1555, "city": "Tawalantenna", "details": {"postalcode": "20838", "latitude": "7.07068220", "longitude": "80.68401210"}}, {"id": 1556, "city": "Teripeha", "details": {"postalcode": "22287", "latitude": "7.11404420", "longitude": "80.91442850"}}, {"id": 1557, "city": "Udamadura", "details": {"postalcode": "22285", "latitude": "7.09657370", "longitude": "80.91662600"}}, {"id": 1558, "city": "Udapussallawa", "details": {"postalcode": "22250", "latitude": "7.01271230", "longitude": "80.91247810"}}, {"id": 1559, "city": "Uva Deegalla", "details": {"postalcode": "90062", "latitude": "6.94971660", "longitude": "80.78910680"}}, {"id": 1560, "city": "Uva Uduwara", "details": {"postalcode": "90061", "latitude": "6.93044210", "longitude": "81.05614580"}}, {"id": 1561, "city": "Uvaparanagama", "details": {"postalcode": "90230", "latitude": "6.94971660", "longitude": "80.78910680"}}, {"id": 1562, "city": "Walapane", "details": {"postalcode": "22270", "latitude": "7.10216630", "longitude": "80.86268640"}}, {"id": 1563, "city": "Watawala", "details": {"postalcode": "22010", "latitude": "6.94494680", "longitude": "80.53898340"}}, {"id": 1564, "city": "Widulipura", "details": {"postalcode": "22032", "latitude": "6.90940570", "longitude": "80.51883960"}}, {"id": 1565, "city": "Wijebahukanda", "details": {"postalcode": "22018", "latitude": "6.94971660", "longitude": "80.78910680"}}]}]}