{"id": 3, "province": "Southern", "districts": [{"id": 6, "district": "Galle", "cities": [{"id": 377, "city": "Agaliya", "details": {"postalcode": "80212", "latitude": "6.00854630", "longitude": "80.24223830"}}, {"id": 378, "city": "Ahangama", "details": {"postalcode": "80650", "latitude": "5.97397470", "longitude": "80.36215950"}}, {"id": 379, "city": "Ahungalla", "details": {"postalcode": "80562", "latitude": "6.31327760", "longitude": "80.04091780"}}, {"id": 380, "city": "Akmeemana", "details": {"postalcode": "80090", "latitude": "6.08363060", "longitude": "80.29623850"}}, {"id": 381, "city": "Alawatugoda", "details": {"postalcode": "20140", "latitude": "7.40899340", "longitude": "80.61879420"}}, {"id": 382, "city": "Aluthwala", "details": {"postalcode": "80332", "latitude": "6.18019580", "longitude": "80.14006710"}}, {"id": 383, "city": "Ampegama", "details": {"postalcode": "80204", "latitude": "6.19467440", "longitude": "80.14425400"}}, {"id": 384, "city": "Amugoda", "details": {"postalcode": "80422", "latitude": "6.32125570", "longitude": "80.21888580"}}, {"id": 385, "city": "Anangoda", "details": {"postalcode": "80044", "latitude": "6.04756420", "longitude": "80.25304120"}}, {"id": 386, "city": "Angulugaha", "details": {"postalcode": "80122", "latitude": "6.03185250", "longitude": "80.32409600"}}, {"id": 387, "city": "Ankokkawala", "details": {"postalcode": "80048", "latitude": "6.05329180", "longitude": "80.28091290"}}, {"id": 388, "city": "Aselapura", "details": {"postalcode": "51072", "latitude": "6.05351850", "longitude": "80.22097730"}}, {"id": 389, "city": "Baddegama", "details": {"postalcode": "80200", "latitude": "6.16882920", "longitude": "80.17939760"}}, {"id": 390, "city": "Balapitiya", "details": {"postalcode": "80550", "latitude": "6.27835460", "longitude": "80.04030470"}}, {"id": 391, "city": "Banagala", "details": {"postalcode": "80143", "latitude": "6.28153610", "longitude": "80.42590530"}}, {"id": 392, "city": "Batapola", "details": {"postalcode": "80320", "latitude": "6.22418210", "longitude": "80.11383690"}}, {"id": 393, "city": "Bentota", "details": {"postalcode": "80500", "latitude": "6.41891750", "longitude": "80.00597900"}}, {"id": 394, "city": "Boossa", "details": {"postalcode": "80270", "latitude": "6.08894940", "longitude": "80.15606480"}}, {"id": 395, "city": "Dellawa", "details": {"postalcode": "81477", "latitude": "6.32489590", "longitude": "80.44934050"}}, {"id": 396, "city": "Dikkumbura", "details": {"postalcode": "80654", "latitude": "6.01834760", "longitude": "80.37282450"}}, {"id": 397, "city": "Dodanduwa", "details": {"postalcode": "80250", "latitude": "6.10283470", "longitude": "80.13029690"}}, {"id": 398, "city": "Ella Tanabaddegama", "details": {"postalcode": "80402", "latitude": "6.05774900", "longitude": "80.21755720"}}, {"id": 399, "city": "Elpitiya", "details": {"postalcode": "80400", "latitude": "6.28799690", "longitude": "80.15960410"}}, {"id": 400, "city": "Galle", "details": {"postalcode": "80000", "latitude": "6.04819180", "longitude": "80.21539980"}}, {"id": 401, "city": "Ginimellagaha", "details": {"postalcode": "80220", "latitude": "6.12970640", "longitude": "80.16937100"}}, {"id": 402, "city": "Gintota", "details": {"postalcode": "80280", "latitude": "6.06001210", "longitude": "80.18002210"}}, {"id": 403, "city": "Godahena", "details": {"postalcode": "80302", "latitude": "6.23458620", "longitude": "80.07456270"}}, {"id": 404, "city": "Gonamulla Junction", "details": {"postalcode": "80054", "latitude": "6.08208300", "longitude": "80.29091100"}}, {"id": 405, "city": "Gonapinuwala", "details": {"postalcode": "80230", "latitude": "6.14345180", "longitude": "80.13448420"}}, {"id": 406, "city": "Habaraduwa", "details": {"postalcode": "80630", "latitude": "5.99835900", "longitude": "80.30782020"}}, {"id": 407, "city": "Haburugala", "details": {"postalcode": "80506", "latitude": "6.40370130", "longitude": "80.03393120"}}, {"id": 408, "city": "Hikkaduwa", "details": {"postalcode": "80240", "latitude": "6.13946760", "longitude": "80.10628610"}}, {"id": 409, "city": "Hiniduma", "details": {"postalcode": "80080", "latitude": "6.30944820", "longitude": "80.32409600"}}, {"id": 410, "city": "Hiyare", "details": {"postalcode": "80056", "latitude": "6.07201140", "longitude": "80.34258010"}}, {"id": 411, "city": "Kahaduwa", "details": {"postalcode": "80460", "latitude": "6.22345150", "longitude": "80.21261090"}}, {"id": 412, "city": "Kahawa", "details": {"postalcode": "80312", "latitude": "6.18818520", "longitude": "80.07723920"}}, {"id": 413, "city": "Karagoda", "details": {"postalcode": "80151", "latitude": "6.03524350", "longitude": "80.21049500"}}, {"id": 414, "city": "Karandeniya", "details": {"postalcode": "80360", "latitude": "6.26832170", "longitude": "80.08980850"}}, {"id": 415, "city": "Kosgoda", "details": {"postalcode": "80570", "latitude": "6.33544240", "longitude": "80.03393120"}}, {"id": 416, "city": "Kottawagama", "details": {"postalcode": "80062", "latitude": "6.10781390", "longitude": "80.30358840"}}, {"id": 417, "city": "Kottegoda", "details": {"postalcode": "81180", "latitude": "6.96152440", "longitude": "80.93610230"}}, {"id": 418, "city": "Kuleegoda", "details": {"postalcode": "80328", "latitude": "6.21382060", "longitude": "80.07033080"}}, {"id": 419, "city": "Magedara", "details": {"postalcode": "80152", "latitude": "6.09993990", "longitude": "80.40343930"}}, {"id": 420, "city": "Mahawela Sinhapura", "details": {"postalcode": "51076", "latitude": "6.68192410", "longitude": "80.40587410"}}, {"id": 421, "city": "Mapalagama", "details": {"postalcode": "80112", "latitude": "6.22356070", "longitude": "80.28927270"}}, {"id": 422, "city": "Mapalagama Central", "details": {"postalcode": "80116", "latitude": "6.22356070", "longitude": "80.28927270"}}, {"id": 423, "city": "Mattaka", "details": {"postalcode": "80424", "latitude": "6.30295010", "longitude": "80.25722250"}}, {"id": 424, "city": "Meda-Keembiya", "details": {"postalcode": "80092", "latitude": "6.11400500", "longitude": "80.24049590"}}, {"id": 425, "city": "Meetiyagoda", "details": {"postalcode": "80330", "latitude": "6.18983430", "longitude": "80.09539420"}}, {"id": 426, "city": "Nagoda", "details": {"postalcode": "80110", "latitude": "6.19797800", "longitude": "80.27465470"}}, {"id": 427, "city": "Nakiyadeniya", "details": {"postalcode": "80064", "latitude": "6.14332850", "longitude": "80.34219840"}}, {"id": 428, "city": "Nawandagala", "details": {"postalcode": "80416", "latitude": "6.31123550", "longitude": "80.14006710"}}, {"id": 429, "city": "Neluwa", "details": {"postalcode": "80082", "latitude": "6.37310280", "longitude": "80.35751280"}}, {"id": 430, "city": "Nindana", "details": {"postalcode": "80318", "latitude": "6.20709000", "longitude": "80.10796080"}}, {"id": 431, "city": "Pahala Millawa", "details": {"postalcode": "81472", "latitude": "6.29379580", "longitude": "80.47158660"}}, {"id": 432, "city": "Panangala", "details": {"postalcode": "80075", "latitude": "6.26290960", "longitude": "80.32370430"}}, {"id": 433, "city": "Pannimulla Panagoda", "details": {"postalcode": "80086", "latitude": "6.35379140", "longitude": "80.40869950"}}, {"id": 434, "city": "Parana Thanayamgoda", "details": {"postalcode": "80114", "latitude": "6.23054990", "longitude": "80.31295410"}}, {"id": 435, "city": "Patana", "details": {"postalcode": "22012", "latitude": "6.05351850", "longitude": "80.22097730"}}, {"id": 436, "city": "Pitigala", "details": {"postalcode": "80420", "latitude": "6.34195530", "longitude": "80.23770780"}}, {"id": 437, "city": "Poddala", "details": {"postalcode": "80170", "latitude": "6.10846880", "longitude": "80.22376600"}}, {"id": 438, "city": "Polgampola", "details": {"postalcode": "12136", "latitude": "6.46518930", "longitude": "80.19612050"}}, {"id": 439, "city": "Porawagama", "details": {"postalcode": "80408", "latitude": "6.28720780", "longitude": "80.22494260"}}, {"id": 440, "city": "Rantotuwila", "details": {"postalcode": "80354", "latitude": "6.05351850", "longitude": "80.22097730"}}, {"id": 441, "city": "Talagampola", "details": {"postalcode": "80058", "latitude": "6.08706280", "longitude": "80.30354180"}}, {"id": 442, "city": "Talgaspe", "details": {"postalcode": "80406", "latitude": "6.05423480", "longitude": "80.22446310"}}, {"id": 443, "city": "Talpe", "details": {"postalcode": "80615", "latitude": "6.00099540", "longitude": "80.27812620"}}, {"id": 444, "city": "Tawalama", "details": {"postalcode": "80148", "latitude": "6.33472690", "longitude": "80.34219840"}}, {"id": 445, "city": "Tiranagama", "details": {"postalcode": "80244", "latitude": "6.12857980", "longitude": "80.11121550"}}, {"id": 446, "city": "Udalamatta", "details": {"postalcode": "80108", "latitude": "6.18359350", "longitude": "80.29825070"}}, {"id": 447, "city": "Udugama", "details": {"postalcode": "80070", "latitude": "6.21790470", "longitude": "80.33802130"}}, {"id": 448, "city": "Uluvitike", "details": {"postalcode": "80168", "latitude": "6.08339890", "longitude": "80.21121640"}}, {"id": 449, "city": "Unawatuna", "details": {"postalcode": "80600", "latitude": "6.01744690", "longitude": "80.24885960"}}, {"id": 450, "city": "Unawitiya", "details": {"postalcode": "80214", "latitude": "6.05351850", "longitude": "80.22097730"}}, {"id": 451, "city": "Uragaha", "details": {"postalcode": "80352", "latitude": "6.34904400", "longitude": "80.09786370"}}, {"id": 452, "city": "Uragasmanhandiya", "details": {"postalcode": "80350", "latitude": "6.34904400", "longitude": "80.09786370"}}, {"id": 453, "city": "Wakwella", "details": {"postalcode": "80042", "latitude": "6.09216840", "longitude": "80.19029630"}}, {"id": 454, "city": "Walahanduwa", "details": {"postalcode": "80046", "latitude": "6.05155910", "longitude": "80.25722250"}}, {"id": 455, "city": "Wanchawela", "details": {"postalcode": "80120", "latitude": "6.03571080", "longitude": "80.26859670"}}, {"id": 456, "city": "Wanduramba", "details": {"postalcode": "80100", "latitude": "6.13247130", "longitude": "80.24885960"}}, {"id": 457, "city": "Warukandeniya", "details": {"postalcode": "80084", "latitude": "6.36610380", "longitude": "80.40483060"}}, {"id": 458, "city": "Watugedara", "details": {"postalcode": "80340", "latitude": "6.26121210", "longitude": "80.06047740"}}, {"id": 459, "city": "Weihena", "details": {"postalcode": "80216", "latitude": "6.30777980", "longitude": "80.23491960"}}, {"id": 460, "city": "Welikanda", "details": {"postalcode": "51070", "latitude": "7.94596540", "longitude": "81.24912980"}}, {"id": 461, "city": "Wilanagama", "details": {"postalcode": "20142", "latitude": "6.00417960", "longitude": "80.41381130"}}, {"id": 462, "city": "Yakkalamulla", "details": {"postalcode": "80150", "latitude": "6.10134950", "longitude": "80.35910020"}}, {"id": 463, "city": "Yatalamatta", "details": {"postalcode": "80107", "latitude": "6.17373330", "longitude": "80.28648620"}}]}, {"id": 8, "district": "Hambantota", "cities": [{"id": 591, "city": "Ambalantota", "details": {"postalcode": "82100", "latitude": "6.12259990", "longitude": "81.02375940"}}, {"id": 592, "city": "Angunakolapelessa", "details": {"postalcode": "82220", "latitude": "6.16556890", "longitude": "80.90311720"}}, {"id": 593, "city": "Angunakolawewa", "details": {"postalcode": "91302", "latitude": "6.41154880", "longitude": "81.08592350"}}, {"id": 594, "city": "Bandagiriya Colony", "details": {"postalcode": "82005", "latitude": "6.24086040", "longitude": "81.14484790"}}, {"id": 595, "city": "Barawakumbuka", "details": {"postalcode": "82110", "latitude": "6.22578540", "longitude": "80.92906850"}}, {"id": 596, "city": "Beliatta", "details": {"postalcode": "82400", "latitude": "6.04815730", "longitude": "80.73391440"}}, {"id": 597, "city": "Beragama", "details": {"postalcode": "82102", "latitude": "6.14212550", "longitude": "81.03181690"}}, {"id": 598, "city": "Beralihela", "details": {"postalcode": "82618", "latitude": "6.32158700", "longitude": "81.29816730"}}, {"id": 599, "city": "Bundala", "details": {"postalcode": "82002", "latitude": "6.19424870", "longitude": "81.18731410"}}, {"id": 600, "city": "Ellagala", "details": {"postalcode": "82619", "latitude": "6.33333300", "longitude": "81.25000000"}}, {"id": 601, "city": "Gangulandeniya", "details": {"postalcode": "82586", "latitude": "6.29562990", "longitude": "80.71866970"}}, {"id": 602, "city": "Getamanna", "details": {"postalcode": "82420", "latitude": "6.03954990", "longitude": "80.68955830"}}, {"id": 603, "city": "Goda Koggalla", "details": {"postalcode": "82401", "latitude": "6.18333300", "longitude": "81.01666700"}}, {"id": 604, "city": "Gonagamuwa Uduwila", "details": {"postalcode": "82602", "latitude": "6.24723940", "longitude": "81.26564900"}}, {"id": 605, "city": "Gonnoruwa", "details": {"postalcode": "82006", "latitude": "6.23333300", "longitude": "81.10000000"}}, {"id": 606, "city": "Hakuruwela", "details": {"postalcode": "82248", "latitude": "6.14933330", "longitude": "80.83085870"}}, {"id": 607, "city": "Hambantota", "details": {"postalcode": "82000", "latitude": "6.14288290", "longitude": "81.12123080"}}, {"id": 608, "city": "Handugala", "details": {"postalcode": "81326", "latitude": "6.19032110", "longitude": "80.62575390"}}, {"id": 609, "city": "Hungama", "details": {"postalcode": "82120", "latitude": "6.11562600", "longitude": "80.92906850"}}, {"id": 610, "city": "Ihala Beligalla", "details": {"postalcode": "82412", "latitude": "6.15358160", "longitude": "81.12714900"}}, {"id": 611, "city": "Iththa Demaliya", "details": {"postalcode": "82462", "latitude": "6.16784630", "longitude": "80.74593370"}}, {"id": 612, "city": "Julampitiya", "details": {"postalcode": "82252", "latitude": "6.23552320", "longitude": "80.73543110"}}, {"id": 613, "city": "Kahandamodara", "details": {"postalcode": "82126", "latitude": "6.06988240", "longitude": "80.89151100"}}, {"id": 614, "city": "Kariyamaditta", "details": {"postalcode": "82274", "latitude": "6.25527330", "longitude": "80.81286360"}}, {"id": 615, "city": "Katuwana", "details": {"postalcode": "82500", "latitude": "6.26362380", "longitude": "80.69094480"}}, {"id": 616, "city": "Kawantissapura", "details": {"postalcode": "82622", "latitude": "6.35187120", "longitude": "81.31297950"}}, {"id": 617, "city": "Kirama", "details": {"postalcode": "82550", "latitude": "6.20669210", "longitude": "80.66182340"}}, {"id": 618, "city": "Kirinda", "details": {"postalcode": "82614", "latitude": "6.23523600", "longitude": "81.33444080"}}, {"id": 619, "city": "Lunama", "details": {"postalcode": "82108", "latitude": "6.09531670", "longitude": "80.96776580"}}, {"id": 620, "city": "Lunugamwehera", "details": {"postalcode": "82634", "latitude": "6.33835150", "longitude": "81.14420930"}}, {"id": 621, "city": "Magama", "details": {"postalcode": "82608", "latitude": "6.20583660", "longitude": "81.30418000"}}, {"id": 622, "city": "Mahagalwewa", "details": {"postalcode": "82016", "latitude": "6.38543820", "longitude": "81.03958210"}}, {"id": 623, "city": "Mamadala", "details": {"postalcode": "82109", "latitude": "6.15965390", "longitude": "80.97467400"}}, {"id": 624, "city": "Medamulana", "details": {"postalcode": "82254", "latitude": "6.18102790", "longitude": "80.76855080"}}, {"id": 625, "city": "Middeniya", "details": {"postalcode": "82270", "latitude": "6.25135790", "longitude": "80.76416530"}}, {"id": 626, "city": "Meegahajandura", "details": {"postalcode": "82014", "latitude": "6.15928530", "longitude": "81.12730130"}}, {"id": 627, "city": "Modarawana", "details": {"postalcode": "82416", "latitude": "6.11736090", "longitude": "80.72421360"}}, {"id": 628, "city": "Mulkirigala", "details": {"postalcode": "82242", "latitude": "6.10879180", "longitude": "80.75885410"}}, {"id": 629, "city": "Nakulugamuwa", "details": {"postalcode": "82300", "latitude": "5.99543090", "longitude": "80.70896710"}}, {"id": 630, "city": "Netolpitiya", "details": {"postalcode": "82135", "latitude": "6.06565060", "longitude": "80.83916280"}}, {"id": 631, "city": "Nihiluwa", "details": {"postalcode": "82414", "latitude": "6.07135770", "longitude": "80.70629330"}}, {"id": 632, "city": "Padawkema", "details": {"postalcode": "82636", "latitude": "6.14288290", "longitude": "81.12123080"}}, {"id": 633, "city": "Pahala Andarawewa", "details": {"postalcode": "82008", "latitude": "6.29958800", "longitude": "81.08563270"}}, {"id": 634, "city": "Rammalawarapitiya", "details": {"postalcode": "82554", "latitude": "6.22198710", "longitude": "80.63685390"}}, {"id": 635, "city": "Ranakeliya", "details": {"postalcode": "82612", "latitude": "6.14288290", "longitude": "81.12123080"}}, {"id": 636, "city": "Ranmuduwewa", "details": {"postalcode": "82018", "latitude": "6.34629420", "longitude": "81.05890600"}}, {"id": 637, "city": "Ranna", "details": {"postalcode": "82125", "latitude": "6.09354290", "longitude": "80.86268640"}}, {"id": 638, "city": "Ratmalwala", "details": {"postalcode": "82276", "latitude": "6.14288290", "longitude": "81.12123080"}}, {"id": 639, "city": "Ruhunu Ridiyagama", "details": {"postalcode": "82106", "latitude": "6.24684360", "longitude": "80.98246490"}}, {"id": 640, "city": "Sooriyawewa Town", "details": {"postalcode": "82010", "latitude": "6.31100250", "longitude": "80.99539520"}}, {"id": 641, "city": "Tangalla", "details": {"postalcode": "82200", "latitude": "6.02433830", "longitude": "80.79407260"}}, {"id": 642, "city": "Tissamaharama", "details": {"postalcode": "82600", "latitude": "6.27915380", "longitude": "81.28766910"}}, {"id": 643, "city": "Uda Gomadiya", "details": {"postalcode": "82504", "latitude": "6.29561590", "longitude": "80.66933750"}}, {"id": 644, "city": "Udamattala", "details": {"postalcode": "82638", "latitude": "6.29139060", "longitude": "81.12135710"}}, {"id": 645, "city": "Uswewa", "details": {"postalcode": "82278", "latitude": "6.24206220", "longitude": "80.88343670"}}, {"id": 646, "city": "Vitharandeniya", "details": {"postalcode": "82232", "latitude": "6.02433830", "longitude": "80.79407260"}}, {"id": 647, "city": "Walasmulla", "details": {"postalcode": "82450", "latitude": "6.15088880", "longitude": "80.69371770"}}, {"id": 648, "city": "Weeraketiya", "details": {"postalcode": "82240", "latitude": "6.14760810", "longitude": "80.76337430"}}, {"id": 649, "city": "Weerawila", "details": {"postalcode": "82632", "latitude": "6.24214940", "longitude": "81.22920900"}}, {"id": 650, "city": "Weerawila NewTown", "details": {"postalcode": "82615", "latitude": "6.24214940", "longitude": "81.22920900"}}, {"id": 651, "city": "Wekandawela", "details": {"postalcode": "82246", "latitude": "6.14288290", "longitude": "81.12123080"}}, {"id": 652, "city": "Weligatta", "details": {"postalcode": "82004", "latitude": "6.23857610", "longitude": "81.21883550"}}, {"id": 653, "city": "Yatigala", "details": {"postalcode": "82418", "latitude": "6.11341960", "longitude": "80.69473650"}}, {"id": 1976, "city": "Gangulandeniya", "details": {"postalcode": "82506", "latitude": "6.29562990", "longitude": "80.71866970"}}]}, {"id": 17, "district": "Matara", "cities": [{"id": 1364, "city": "Akuressa", "details": {"postalcode": "81400", "latitude": "6.10013880", "longitude": "80.47595670"}}, {"id": 1365, "city": "Alapaladeniya", "details": {"postalcode": "81475", "latitude": "6.28333300", "longitude": "80.45000000"}}, {"id": 1366, "city": "Aparekka", "details": {"postalcode": "81032", "latitude": "5.99253730", "longitude": "80.61604020"}}, {"id": 1367, "city": "Athuraliya", "details": {"postalcode": "81402", "latitude": "6.06607070", "longitude": "80.50227640"}}, {"id": 1368, "city": "Bengamuwa", "details": {"postalcode": "81614", "latitude": "6.27861390", "longitude": "80.60426390"}}, {"id": 1369, "city": "Bopagoda", "details": {"postalcode": "81412", "latitude": "6.15866160", "longitude": "80.49953120"}}, {"id": 1370, "city": "Dampahala", "details": {"postalcode": "81612", "latitude": "6.27152470", "longitude": "80.64010980"}}, {"id": 1371, "city": "Deegala Lenama", "details": {"postalcode": "81452", "latitude": "6.16598040", "longitude": "80.46164750"}}, {"id": 1372, "city": "Deiyandara", "details": {"postalcode": "81320", "latitude": "6.15256980", "longitude": "80.60285540"}}, {"id": 1373, "city": "Denagama", "details": {"postalcode": "81314", "latitude": "6.11421070", "longitude": "80.66164450"}}, {"id": 1374, "city": "Denipitiya", "details": {"postalcode": "81730", "latitude": "5.98287730", "longitude": "80.45180530"}}, {"id": 1375, "city": "Deniyaya", "details": {"postalcode": "81500", "latitude": "6.34248470", "longitude": "80.55965820"}}, {"id": 1376, "city": "Derangala", "details": {"postalcode": "81454", "latitude": "6.21891180", "longitude": "80.45004250"}}, {"id": 1377, "city": "Devinuwara (Dondra)", "details": {"postalcode": "81160", "latitude": "5.93125530", "longitude": "80.59143310"}}, {"id": 1378, "city": "Dikwella", "details": {"postalcode": "81200", "latitude": "5.97167620", "longitude": "80.69510410"}}, {"id": 1379, "city": "Diyagaha", "details": {"postalcode": "81038", "latitude": "5.98551850", "longitude": "80.57856010"}}, {"id": 1380, "city": "Diyalape", "details": {"postalcode": "81422", "latitude": "6.12295420", "longitude": "80.44655940"}}, {"id": 1381, "city": "Gandara", "details": {"postalcode": "81170", "latitude": "5.93764030", "longitude": "80.61326460"}}, {"id": 1382, "city": "Godapitiya", "details": {"postalcode": "81408", "latitude": "6.08866040", "longitude": "80.47908660"}}, {"id": 1383, "city": "Gomilamawarala", "details": {"postalcode": "81072", "latitude": "6.21009260", "longitude": "80.59228810"}}, {"id": 1384, "city": "Hawpe", "details": {"postalcode": "80132", "latitude": "6.13288520", "longitude": "80.48965710"}}, {"id": 1385, "city": "Horapawita", "details": {"postalcode": "81108", "latitude": "6.10703990", "longitude": "80.58272720"}}, {"id": 1386, "city": "Kalubowitiyana", "details": {"postalcode": "81478", "latitude": "6.31165380", "longitude": "80.39371820"}}, {"id": 1387, "city": "Kamburugamuwa", "details": {"postalcode": "81750", "latitude": "5.94458700", "longitude": "80.49383440"}}, {"id": 1388, "city": "Kamburupitiya", "details": {"postalcode": "81100", "latitude": "6.07791070", "longitude": "80.56328840"}}, {"id": 1389, "city": "Karagoda Uyangoda", "details": {"postalcode": "81082", "latitude": "6.05200090", "longitude": "80.52825870"}}, {"id": 1390, "city": "Karaputugala", "details": {"postalcode": "81106", "latitude": "6.08452960", "longitude": "80.60134030"}}, {"id": 1391, "city": "Karatota", "details": {"postalcode": "81318", "latitude": "6.06412720", "longitude": "80.66600920"}}, {"id": 1392, "city": "Kekanadura", "details": {"postalcode": "81020", "latitude": "5.96375280", "longitude": "80.61326460"}}, {"id": 1393, "city": "Kiriweldola", "details": {"postalcode": "81514", "latitude": "6.37115050", "longitude": "80.53551070"}}, {"id": 1394, "city": "Kiriwelkele", "details": {"postalcode": "81456", "latitude": "6.24224840", "longitude": "80.45073110"}}, {"id": 1395, "city": "Kolawenigama", "details": {"postalcode": "81522", "latitude": "6.32323980", "longitude": "80.50216520"}}, {"id": 1396, "city": "Kotapola", "details": {"postalcode": "81480", "latitude": "6.27797250", "longitude": "80.53967800"}}, {"id": 1397, "city": "Lankagama", "details": {"postalcode": "81526", "latitude": "6.36713720", "longitude": "80.46046430"}}, {"id": 1398, "city": "Makandura", "details": {"postalcode": "81070", "latitude": "6.14192480", "longitude": "80.55634490"}}, {"id": 1399, "city": "Maliduwa", "details": {"postalcode": "81424", "latitude": "6.13543390", "longitude": "80.41047430"}}, {"id": 1400, "city": "Maramba", "details": {"postalcode": "81416", "latitude": "6.14552080", "longitude": "80.48235990"}}, {"id": 1401, "city": "Matara", "details": {"postalcode": "81000", "latitude": "5.94953080", "longitude": "80.53039310"}}, {"id": 1402, "city": "Mediripitiya", "details": {"postalcode": "81524", "latitude": "6.35070950", "longitude": "80.49309040"}}, {"id": 1403, "city": "Miella", "details": {"postalcode": "81312", "latitude": "6.11791320", "longitude": "80.67161110"}}, {"id": 1404, "city": "Mirissa", "details": {"postalcode": "81740", "latitude": "5.94826200", "longitude": "80.47158660"}}, {"id": 1405, "city": "Morawaka", "details": {"postalcode": "81470", "latitude": "6.26528020", "longitude": "80.49104700"}}, {"id": 1406, "city": "Mulatiyana Junction", "details": {"postalcode": "81071", "latitude": "6.16208860", "longitude": "80.58550380"}}, {"id": 1407, "city": "Nadugala", "details": {"postalcode": "81092", "latitude": "5.98136590", "longitude": "80.54971010"}}, {"id": 1408, "city": "Naimana", "details": {"postalcode": "81017", "latitude": "5.96344580", "longitude": "80.56584960"}}, {"id": 1409, "city": "Palatuwa", "details": {"postalcode": "81050", "latitude": "5.97631240", "longitude": "80.51844180"}}, {"id": 1410, "city": "Parapamulla", "details": {"postalcode": "81322", "latitude": "6.15162590", "longitude": "80.62186660"}}, {"id": 1411, "city": "Pasgoda", "details": {"postalcode": "81615", "latitude": "6.24639160", "longitude": "80.60771320"}}, {"id": 1412, "city": "Penetiyana", "details": {"postalcode": "81722", "latitude": "6.04772800", "longitude": "80.44994740"}}, {"id": 1413, "city": "Pitabeddara", "details": {"postalcode": "81450", "latitude": "6.20707730", "longitude": "80.46324500"}}, {"id": 1414, "city": "Puhulwella", "details": {"postalcode": "81290", "latitude": "6.05152880", "longitude": "80.62575390"}}, {"id": 1415, "city": "Radawela", "details": {"postalcode": "81316", "latitude": "7.67275800", "longitude": "80.70937300"}}, {"id": 1416, "city": "Ransegoda", "details": {"postalcode": "81064", "latitude": "6.11862980", "longitude": "80.56415070"}}, {"id": 1417, "city": "Rotumba", "details": {"postalcode": "81074", "latitude": "6.22578800", "longitude": "80.57597720"}}, {"id": 1418, "city": "Sultanagoda", "details": {"postalcode": "81051", "latitude": "5.97724210", "longitude": "80.51099480"}}, {"id": 1419, "city": "Telijjawila", "details": {"postalcode": "81060", "latitude": "6.02508460", "longitude": "80.49591140"}}, {"id": 1420, "city": "Thihagoda", "details": {"postalcode": "81280", "latitude": "6.01333870", "longitude": "80.56600410"}}, {"id": 1421, "city": "Urubokka", "details": {"postalcode": "81600", "latitude": "6.30652970", "longitude": "80.63061030"}}, {"id": 1422, "city": "Urugamuwa", "details": {"postalcode": "81230", "latitude": "6.01007300", "longitude": "80.64795240"}}, {"id": 1423, "city": "Urumutta", "details": {"postalcode": "81414", "latitude": "6.16195980", "longitude": "80.51692520"}}, {"id": 1424, "city": "Viharahena", "details": {"postalcode": "81508", "latitude": "6.38276970", "longitude": "80.60202340"}}, {"id": 1425, "city": "Walakanda", "details": {"postalcode": "81294", "latitude": "6.02305050", "longitude": "80.65586580"}}, {"id": 1426, "city": "Walasgala", "details": {"postalcode": "81220", "latitude": "5.98284010", "longitude": "80.69857010"}}, {"id": 1427, "city": "Waralla", "details": {"postalcode": "81479", "latitude": "6.27638310", "longitude": "80.52439700"}}, {"id": 1428, "city": "Weligama", "details": {"postalcode": "81700", "latitude": "5.97303210", "longitude": "80.42280410"}}, {"id": 1429, "city": "Wilpita", "details": {"postalcode": "81404", "latitude": "5.94603270", "longitude": "80.55772880"}}, {"id": 1430, "city": "Yatiyana", "details": {"postalcode": "81034", "latitude": "6.03027130", "longitude": "80.60632530"}}, {"id": 1975, "city": "Karatota", "details": {"postalcode": "81308", "latitude": "6.06412720", "longitude": "80.66600920"}}]}]}