{"id": 4, "province": "North Western", "districts": [{"id": 14, "district": "Kurunegala", "cities": [{"id": 1033, "city": "Alahengama", "details": {"postalcode": "60416", "latitude": "7.48176950", "longitude": "80.36088760"}}, {"id": 1034, "city": "Alahitiyawa", "details": {"postalcode": "60182", "latitude": "7.46205090", "longitude": "80.04371230"}}, {"id": 1035, "city": "Ambakote", "details": {"postalcode": "60036", "latitude": "7.49394280", "longitude": "80.45768350"}}, {"id": 1036, "city": "Ambanpola", "details": {"postalcode": "60650", "latitude": "7.91811440", "longitude": "80.24049590"}}, {"id": 1037, "city": "Andiyagala", "details": {"postalcode": "50112", "latitude": "7.46666710", "longitude": "80.13333290"}}, {"id": 1038, "city": "Anukkane", "details": {"postalcode": "60214", "latitude": "7.50258040", "longitude": "80.12331750"}}, {"id": 1039, "city": "Aragoda", "details": {"postalcode": "60308", "latitude": "7.36467220", "longitude": "80.34776760"}}, {"id": 1040, "city": "Ataragalla", "details": {"postalcode": "60706", "latitude": "7.91804160", "longitude": "80.29484530"}}, {"id": 1041, "city": "Awulegama", "details": {"postalcode": "60462", "latitude": "7.48176950", "longitude": "80.36088760"}}, {"id": 1042, "city": "Balalla", "details": {"postalcode": "60604", "latitude": "7.80709260", "longitude": "80.25426980"}}, {"id": 1043, "city": "Bamunukotuwa", "details": {"postalcode": "60347", "latitude": "7.57088740", "longitude": "80.24746570"}}, {"id": 1044, "city": "Bandara Koswatta", "details": {"postalcode": "60424", "latitude": "7.61207120", "longitude": "80.17495160"}}, {"id": 1045, "city": "Bingiriya", "details": {"postalcode": "60450", "latitude": "7.59822340", "longitude": "79.93721900"}}, {"id": 1046, "city": "Bogamulla", "details": {"postalcode": "60107", "latitude": "7.45722470", "longitude": "80.16797990"}}, {"id": 1047, "city": "Boraluwewa", "details": {"postalcode": "60437", "latitude": "7.68506230", "longitude": "80.04476020"}}, {"id": 1048, "city": "Boyagane", "details": {"postalcode": "60027", "latitude": "7.44999300", "longitude": "80.34219840"}}, {"id": 1049, "city": "Bujjomuwa", "details": {"postalcode": "60291", "latitude": "7.27361380", "longitude": "80.20563820"}}, {"id": 1050, "city": "Buluwala", "details": {"postalcode": "60076", "latitude": "7.48041800", "longitude": "80.47330290"}}, {"id": 1051, "city": "Dadayamtalawa", "details": {"postalcode": "32046", "latitude": "7.48176950", "longitude": "80.36088760"}}, {"id": 1052, "city": "Dambadeniya", "details": {"postalcode": "60130", "latitude": "7.36971470", "longitude": "80.15123170"}}, {"id": 1053, "city": "Daraluwa", "details": {"postalcode": "60174", "latitude": "7.35531880", "longitude": "79.98361080"}}, {"id": 1054, "city": "Deegalla", "details": {"postalcode": "60228", "latitude": "7.51124380", "longitude": "80.03393120"}}, {"id": 1055, "city": "Demataluwa", "details": {"postalcode": "60024", "latitude": "7.51786650", "longitude": "80.28797560"}}, {"id": 1056, "city": "Demuwatha", "details": {"postalcode": "70332", "latitude": "7.48684730", "longitude": "80.36514920"}}, {"id": 1057, "city": "Diddeniya", "details": {"postalcode": "60544", "latitude": "7.69904850", "longitude": "80.46050360"}}, {"id": 1058, "city": "Digannewa", "details": {"postalcode": "60485", "latitude": "7.89331550", "longitude": "80.10097960"}}, {"id": 1059, "city": "Divullegoda", "details": {"postalcode": "60472", "latitude": "7.76266490", "longitude": "80.20163350"}}, {"id": 1060, "city": "Diyasenpura", "details": {"postalcode": "51504", "latitude": "8.13236550", "longitude": "81.02059850"}}, {"id": 1061, "city": "Dodangaslanda", "details": {"postalcode": "60530", "latitude": "7.57567740", "longitude": "80.52439700"}}, {"id": 1062, "city": "Doluwa", "details": {"postalcode": "20532", "latitude": "7.62156470", "longitude": "80.41874250"}}, {"id": 1063, "city": "Doragamuwa", "details": {"postalcode": "20816", "latitude": "7.36589550", "longitude": "80.65627530"}}, {"id": 1064, "city": "Doratiyawa", "details": {"postalcode": "60013", "latitude": "7.45346260", "longitude": "80.39404730"}}, {"id": 1065, "city": "Dunumadalawa", "details": {"postalcode": "50214", "latitude": "7.28090960", "longitude": "80.64222390"}}, {"id": 1066, "city": "Dunuwilapitiya", "details": {"postalcode": "21538", "latitude": "7.48176950", "longitude": "80.36088760"}}, {"id": 1067, "city": "Ehetuwewa", "details": {"postalcode": "60716", "latitude": "7.93567610", "longitude": "80.34618760"}}, {"id": 1068, "city": "Elibichchiya", "details": {"postalcode": "60156", "latitude": "7.31429910", "longitude": "80.05628640"}}, {"id": 1069, "city": "Embogama", "details": {"postalcode": "60718", "latitude": "7.82330090", "longitude": "80.32409600"}}, {"id": 1070, "city": "Etungahakotuwa", "details": {"postalcode": "60266", "latitude": "7.51223530", "longitude": "79.96770490"}}, {"id": 1071, "city": "Galadivulwewa", "details": {"postalcode": "50210", "latitude": "7.48176950", "longitude": "80.36088760"}}, {"id": 1072, "city": "Galgamuwa", "details": {"postalcode": "60700", "latitude": "7.98649440", "longitude": "80.28787940"}}, {"id": 1073, "city": "Gallellagama", "details": {"postalcode": "20095", "latitude": "7.48176950", "longitude": "80.36088760"}}, {"id": 1074, "city": "Gallewa", "details": {"postalcode": "60712", "latitude": "7.88701170", "longitude": "80.06187430"}}, {"id": 1075, "city": "Ganegoda", "details": {"postalcode": "80440", "latitude": "7.63326800", "longitude": "80.46324500"}}, {"id": 1076, "city": "Girathalana", "details": {"postalcode": "60752", "latitude": "8.03476110", "longitude": "80.41037760"}}, {"id": 1077, "city": "Gokaralla", "details": {"postalcode": "60522", "latitude": "7.59886850", "longitude": "80.48270740"}}, {"id": 1078, "city": "Gonawila", "details": {"postalcode": "60170", "latitude": "7.39880630", "longitude": "80.20005960"}}, {"id": 1079, "city": "Halmillawewa", "details": {"postalcode": "60441", "latitude": "7.77075630", "longitude": "80.49382670"}}, {"id": 1080, "city": "Handungamuwa", "details": {"postalcode": "21536", "latitude": "7.48176950", "longitude": "80.36088760"}}, {"id": 1081, "city": "Harankahawa", "details": {"postalcode": "20092", "latitude": "7.48176950", "longitude": "80.36088760"}}, {"id": 1082, "city": "Helamada", "details": {"postalcode": "71046", "latitude": "7.48176950", "longitude": "80.36088760"}}, {"id": 1083, "city": "Hengamuwa", "details": {"postalcode": "60414", "latitude": "7.70035780", "longitude": "80.11214930"}}, {"id": 1084, "city": "Hettipola", "details": {"postalcode": "60430", "latitude": "7.53311240", "longitude": "80.91524340"}}, {"id": 1085, "city": "Hewainna", "details": {"postalcode": "10714", "latitude": "6.89755820", "longitude": "80.19587550"}}, {"id": 1086, "city": "Hilogama", "details": {"postalcode": "60486", "latitude": "7.48176950", "longitude": "80.36088760"}}, {"id": 1087, "city": "Hindagolla", "details": {"postalcode": "60034", "latitude": "7.48667050", "longitude": "80.41607830"}}, {"id": 1088, "city": "Hiriyala Lenawa", "details": {"postalcode": "60546", "latitude": "7.63887370", "longitude": "80.47436690"}}, {"id": 1089, "city": "Hiruwalpola", "details": {"postalcode": "60458", "latitude": "7.54778030", "longitude": "79.93745820"}}, {"id": 1090, "city": "Horambawa", "details": {"postalcode": "60181", "latitude": "7.45722470", "longitude": "80.16797990"}}, {"id": 1091, "city": "Hulogedara", "details": {"postalcode": "60474", "latitude": "7.78954430", "longitude": "80.19081820"}}, {"id": 1092, "city": "Hulugalla", "details": {"postalcode": "60477", "latitude": "7.59243750", "longitude": "80.57995310"}}, {"id": 1093, "city": "Ihala Gomugomuwa", "details": {"postalcode": "60211", "latitude": "7.47038950", "longitude": "80.04532310"}}, {"id": 1094, "city": "Ihala Katugampala", "details": {"postalcode": "60135", "latitude": "7.39470370", "longitude": "80.09875050"}}, {"id": 1095, "city": "Indulgodakanda", "details": {"postalcode": "60016", "latitude": "7.42336680", "longitude": "80.40761320"}}, {"id": 1096, "city": "Ithanawatta", "details": {"postalcode": "60025", "latitude": "7.48176950", "longitude": "80.36088760"}}, {"id": 1097, "city": "Kadigawa", "details": {"postalcode": "60492", "latitude": "7.71919830", "longitude": "80.00071420"}}, {"id": 1098, "city": "Kalankuttiya", "details": {"postalcode": "50174", "latitude": "7.48684730", "longitude": "80.36514920"}}, {"id": 1099, "city": "Kalatuwawa", "details": {"postalcode": "10718", "latitude": "6.85000000", "longitude": "80.20000000"}}, {"id": 1100, "city": "Kalugamuwa", "details": {"postalcode": "60096", "latitude": "7.39215900", "longitude": "80.44655940"}}, {"id": 1101, "city": "Kanadeniyawala", "details": {"postalcode": "60054", "latitude": "7.43813990", "longitude": "80.53393440"}}, {"id": 1102, "city": "Kanattewewa", "details": {"postalcode": "60422", "latitude": "7.61852160", "longitude": "80.20703290"}}, {"id": 1103, "city": "Kandegedara", "details": {"postalcode": "90070", "latitude": "7.35295450", "longitude": "80.20773000"}}, {"id": 1104, "city": "Karagahagedara", "details": {"postalcode": "60106", "latitude": "7.47785930", "longitude": "80.21261090"}}, {"id": 1105, "city": "Karambe", "details": {"postalcode": "60602", "latitude": "7.80756910", "longitude": "80.34080610"}}, {"id": 1106, "city": "Katiyawa", "details": {"postalcode": "50261", "latitude": "7.62687380", "longitude": "80.55012180"}}, {"id": 1107, "city": "Katupota", "details": {"postalcode": "60350", "latitude": "7.55053450", "longitude": "80.19086420"}}, {"id": 1108, "city": "Kawudulla", "details": {"postalcode": "51414", "latitude": "8.16101810", "longitude": "80.91386260"}}, {"id": 1109, "city": "Kawuduluwewa Stagell", "details": {"postalcode": "51514", "latitude": "7.48176950", "longitude": "80.36088760"}}, {"id": 1110, "city": "Kekunagolla", "details": {"postalcode": "60183", "latitude": "7.49836470", "longitude": "80.17355650"}}, {"id": 1111, "city": "Keppitiwalana", "details": {"postalcode": "60288", "latitude": "7.32257710", "longitude": "80.19029630"}}, {"id": 1112, "city": "Kimbulwanaoya", "details": {"postalcode": "60548", "latitude": "7.48176950", "longitude": "80.36088760"}}, {"id": 1113, "city": "Kirimetiyawa", "details": {"postalcode": "60184", "latitude": "7.51234310", "longitude": "80.14146270"}}, {"id": 1114, "city": "Kirindawa", "details": {"postalcode": "60212", "latitude": "7.49673230", "longitude": "80.10097960"}}, {"id": 1115, "city": "Kirindigalla", "details": {"postalcode": "60502", "latitude": "7.55328810", "longitude": "80.47992730"}}, {"id": 1116, "city": "Kithalawa", "details": {"postalcode": "60188", "latitude": "7.45933590", "longitude": "80.10097960"}}, {"id": 1117, "city": "Kitulwala", "details": {"postalcode": "11242", "latitude": "7.50632780", "longitude": "80.53551070"}}, {"id": 1118, "city": "Kobeigane", "details": {"postalcode": "60410", "latitude": "7.66057680", "longitude": "80.12661590"}}, {"id": 1119, "city": "Kohilagedara", "details": {"postalcode": "60028", "latitude": "7.40586090", "longitude": "80.33853900"}}, {"id": 1120, "city": "Konwewa", "details": {"postalcode": "60630", "latitude": "7.98498420", "longitude": "80.28091290"}}, {"id": 1121, "city": "Kosdeniya", "details": {"postalcode": "60356", "latitude": "7.57260270", "longitude": "80.14564960"}}, {"id": 1122, "city": "Kosgolla", "details": {"postalcode": "60029", "latitude": "7.40101800", "longitude": "80.39300370"}}, {"id": 1123, "city": "Kotagala", "details": {"postalcode": "22080", "latitude": "6.92968060", "longitude": "80.60493740"}}, {"id": 1125, "city": "Kotawehera", "details": {"postalcode": "60483", "latitude": "7.80900070", "longitude": "80.07797730"}}, {"id": 1126, "city": "Kudagalgamuwa", "details": {"postalcode": "60003", "latitude": "7.55700800", "longitude": "80.34498310"}}, {"id": 1127, "city": "Kudakatnoruwa", "details": {"postalcode": "60754", "latitude": "7.48176950", "longitude": "80.36088760"}}, {"id": 1128, "city": "Kuliyapitiya", "details": {"postalcode": "60200", "latitude": "7.47212300", "longitude": "80.04462210"}}, {"id": 1129, "city": "Kumaragama", "details": {"postalcode": "51412", "latitude": "7.48176950", "longitude": "80.36088760"}}, {"id": 1130, "city": "Kumbukgeta", "details": {"postalcode": "60508", "latitude": "7.67242180", "longitude": "80.41596030"}}, {"id": 1131, "city": "Kumbukwewa", "details": {"postalcode": "60506", "latitude": "7.64050560", "longitude": "80.42708850"}}, {"id": 1132, "city": "Kuratihena", "details": {"postalcode": "60438", "latitude": "7.48176950", "longitude": "80.36088760"}}, {"id": 1133, "city": "Kurunegala", "details": {"postalcode": "60000", "latitude": "7.49483690", "longitude": "80.37838420"}}, {"id": 1134, "city": "Ibbagamuwa", "details": {"postalcode": "60500", "latitude": "7.55541010", "longitude": "80.45644300"}}, {"id": 1135, "city": "Ihala Kadigamuwa", "details": {"postalcode": "60238", "latitude": "7.44155470", "longitude": "80.02275140"}}, {"id": 1136, "city": "Lihiriyagama", "details": {"postalcode": "61138", "latitude": "7.34755590", "longitude": "79.93466030"}}, {"id": 1137, "city": "Illagolla", "details": {"postalcode": "20724", "latitude": "7.16736970", "longitude": "80.81733640"}}, {"id": 1138, "city": "Ilukhena", "details": {"postalcode": "60232", "latitude": "7.53042710", "longitude": "80.00225670"}}, {"id": 1139, "city": "Lonahettiya", "details": {"postalcode": "60108", "latitude": "7.51154710", "longitude": "80.22516030"}}, {"id": 1140, "city": "Madahapola", "details": {"postalcode": "60552", "latitude": "7.45051990", "longitude": "80.19433970"}}, {"id": 1141, "city": "Madakumburumulla", "details": {"postalcode": "60209", "latitude": "7.44626040", "longitude": "79.99479560"}}, {"id": 1142, "city": "Madalagama", "details": {"postalcode": "70158", "latitude": "7.34316800", "longitude": "80.30947190"}}, {"id": 1143, "city": "Madawala Ulpotha", "details": {"postalcode": "21074", "latitude": "7.61559830", "longitude": "80.63546650"}}, {"id": 1144, "city": "Maduragoda", "details": {"postalcode": "60532", "latitude": "7.57638020", "longitude": "80.54930710"}}, {"id": 1145, "city": "Maeliya", "details": {"postalcode": "60512", "latitude": "7.74752840", "longitude": "80.41596030"}}, {"id": 1146, "city": "Magulagama", "details": {"postalcode": "60221", "latitude": "7.67063750", "longitude": "80.21818860"}}, {"id": 1147, "city": "Maha Ambagaswewa", "details": {"postalcode": "51518", "latitude": "8.20978530", "longitude": "81.03532020"}}, {"id": 1148, "city": "Mahagalkadawala", "details": {"postalcode": "60731", "latitude": "8.05639110", "longitude": "80.28230630"}}, {"id": 1149, "city": "Mahagirilla", "details": {"postalcode": "60479", "latitude": "7.82923540", "longitude": "80.13752990"}}, {"id": 1150, "city": "Mahamukalanyaya", "details": {"postalcode": "60516", "latitude": "7.56265260", "longitude": "80.41874250"}}, {"id": 1151, "city": "Mahananneriya", "details": {"postalcode": "60724", "latitude": "8.00158110", "longitude": "80.18611160"}}, {"id": 1152, "city": "Mahapallegama", "details": {"postalcode": "71063", "latitude": "7.09995240", "longitude": "80.20777840"}}, {"id": 1153, "city": "Maharachchimulla", "details": {"postalcode": "60286", "latitude": "7.34960560", "longitude": "80.20703280"}}, {"id": 1154, "city": "Mahatalakolawewa", "details": {"postalcode": "51506", "latitude": "7.48176950", "longitude": "80.36088760"}}, {"id": 1155, "city": "Mahawewa", "details": {"postalcode": "61220", "latitude": "7.45980540", "longitude": "79.82631690"}}, {"id": 1156, "city": "Maho", "details": {"postalcode": "60600", "latitude": "7.81939470", "longitude": "80.27115880"}}, {"id": 1157, "city": "Makulewa", "details": {"postalcode": "60714", "latitude": "7.99594590", "longitude": "80.34637540"}}, {"id": 1158, "city": "Makulpotha", "details": {"postalcode": "60514", "latitude": "7.74416030", "longitude": "80.44516870"}}, {"id": 1159, "city": "Makulwewa", "details": {"postalcode": "60578", "latitude": "7.60961260", "longitude": "80.36308100"}}, {"id": 1160, "city": "Malagane", "details": {"postalcode": "60404", "latitude": "7.59398170", "longitude": "80.07130310"}}, {"id": 1161, "city": "Mandapola", "details": {"postalcode": "60434", "latitude": "7.63594130", "longitude": "80.10656460"}}, {"id": 1162, "city": "Maspotha", "details": {"postalcode": "60344", "latitude": "7.48176950", "longitude": "80.36088760"}}, {"id": 1163, "city": "Mawathagama", "details": {"postalcode": "60060", "latitude": "7.43690130", "longitude": "80.45378280"}}, {"id": 1164, "city": "Medirigiriya", "details": {"postalcode": "51500", "latitude": "8.13963740", "longitude": "80.96776580"}}, {"id": 1165, "city": "Medivawa", "details": {"postalcode": "60612", "latitude": "7.48176950", "longitude": "80.36088760"}}, {"id": 1166, "city": "Meegalawa", "details": {"postalcode": "60750", "latitude": "8.05271540", "longitude": "80.35472860"}}, {"id": 1167, "city": "Meegaswewa", "details": {"postalcode": "51508", "latitude": "7.80296150", "longitude": "80.37421630"}}, {"id": 1168, "city": "Meewellawa", "details": {"postalcode": "60484", "latitude": "7.75060980", "longitude": "80.11601730"}}, {"id": 1169, "city": "Melsiripura", "details": {"postalcode": "60540", "latitude": "7.64497060", "longitude": "80.50772370"}}, {"id": 1170, "city": "Metikumbura", "details": {"postalcode": "60304", "latitude": "7.48176950", "longitude": "80.36088760"}}, {"id": 1171, "city": "Metiyagane", "details": {"postalcode": "60121", "latitude": "7.39476490", "longitude": "80.19034420"}}, {"id": 1172, "city": "Minhettiya", "details": {"postalcode": "60004", "latitude": "7.58897270", "longitude": "80.30807900"}}, {"id": 1173, "city": "Minuwangete", "details": {"postalcode": "60406", "latitude": "7.50721880", "longitude": "80.34290880"}}, {"id": 1174, "city": "Mirihanagama", "details": {"postalcode": "60408", "latitude": "7.65329280", "longitude": "80.17981590"}}, {"id": 1175, "city": "Monnekulama", "details": {"postalcode": "60495", "latitude": "7.82255920", "longitude": "80.06187430"}}, {"id": 1176, "city": "Moragane", "details": {"postalcode": "60354", "latitude": "7.54678230", "longitude": "80.12750520"}}, {"id": 1177, "city": "Moragollagama", "details": {"postalcode": "60640", "latitude": "7.90662950", "longitude": "80.44099670"}}, {"id": 1178, "city": "Morathiha", "details": {"postalcode": "60038", "latitude": "7.51071560", "longitude": "80.49104700"}}, {"id": 1179, "city": "Munamaldeniya", "details": {"postalcode": "60218", "latitude": "7.54786830", "longitude": "80.05768340"}}, {"id": 1180, "city": "Muruthenge", "details": {"postalcode": "60122", "latitude": "7.43761610", "longitude": "80.14435980"}}, {"id": 1181, "city": "Mutugala", "details": {"postalcode": "51064", "latitude": "7.48818930", "longitude": "80.35037220"}}, {"id": 1182, "city": "Nabadewa", "details": {"postalcode": "60482", "latitude": "7.78161690", "longitude": "80.10423790"}}, {"id": 1183, "city": "Nagollagama", "details": {"postalcode": "60590", "latitude": "7.75351680", "longitude": "80.31467200"}}, {"id": 1184, "city": "Nagollagoda", "details": {"postalcode": "60226", "latitude": "7.56352800", "longitude": "80.04091780"}}, {"id": 1185, "city": "Nakkawatta", "details": {"postalcode": "60186", "latitude": "7.44431430", "longitude": "80.14564960"}}, {"id": 1186, "city": "Narammala", "details": {"postalcode": "60100", "latitude": "7.43251330", "longitude": "80.21539980"}}, {"id": 1187, "city": "Nawasenapura", "details": {"postalcode": "51066", "latitude": "7.48176950", "longitude": "80.36088760"}}, {"id": 1188, "city": "Nawatalwatta", "details": {"postalcode": "60292", "latitude": "7.28334030", "longitude": "80.19236990"}}, {"id": 1189, "city": "Nelliya", "details": {"postalcode": "60549", "latitude": "7.69224710", "longitude": "80.46324500"}}, {"id": 1190, "city": "Nikaweratiya", "details": {"postalcode": "60470", "latitude": "7.75544500", "longitude": "80.11914020"}}, {"id": 1191, "city": "Nugagolla", "details": {"postalcode": "21534", "latitude": "7.48176950", "longitude": "80.36088760"}}, {"id": 1192, "city": "Nugawela", "details": {"postalcode": "20072", "latitude": "7.33397190", "longitude": "80.22376600"}}, {"id": 1193, "city": "Padeniya", "details": {"postalcode": "60461", "latitude": "7.65562250", "longitude": "80.22062870"}}, {"id": 1194, "city": "Padiwela", "details": {"postalcode": "60236", "latitude": "7.54229040", "longitude": "79.98920340"}}, {"id": 1195, "city": "Pahalagiribawa", "details": {"postalcode": "60735", "latitude": "8.11756490", "longitude": "80.19169110"}}, {"id": 1196, "city": "Pahamune", "details": {"postalcode": "60112", "latitude": "7.48098480", "longitude": "80.41225080"}}, {"id": 1197, "city": "Palagala", "details": {"postalcode": "50111", "latitude": "7.94746600", "longitude": "80.52022900"}}, {"id": 1198, "city": "Palapathwela", "details": {"postalcode": "21070", "latitude": "7.53773830", "longitude": "80.62714150"}}, {"id": 1199, "city": "Palaviya", "details": {"postalcode": "61280", "latitude": "7.98124320", "longitude": "79.84648040"}}, {"id": 1200, "city": "Pallewela", "details": {"postalcode": "11150", "latitude": "7.47829810", "longitude": "79.99479560"}}, {"id": 1201, "city": "Palukadawala", "details": {"postalcode": "60704", "latitude": "7.95708350", "longitude": "80.29623850"}}, {"id": 1202, "city": "Panadaragama", "details": {"postalcode": "60348", "latitude": "7.54304430", "longitude": "80.22864590"}}, {"id": 1203, "city": "Panagamuwa", "details": {"postalcode": "60052", "latitude": "7.48991870", "longitude": "80.51883960"}}, {"id": 1204, "city": "Panaliya", "details": {"postalcode": "60312", "latitude": "7.33093560", "longitude": "80.32966640"}}, {"id": 1205, "city": "Panapitiya", "details": {"postalcode": "70152", "latitude": "7.48176950", "longitude": "80.36088760"}}, {"id": 1206, "city": "Panliyadda", "details": {"postalcode": "60558", "latitude": "7.67263930", "longitude": "80.54662290"}}, {"id": 1207, "city": "Pansiyagama", "details": {"postalcode": "60554", "latitude": "7.73521190", "longitude": "80.49686610"}}, {"id": 1208, "city": "Parape", "details": {"postalcode": "71105", "latitude": "7.37257910", "longitude": "80.41493250"}}, {"id": 1209, "city": "Pathanewatta", "details": {"postalcode": "90071", "latitude": "7.48176950", "longitude": "80.36088760"}}, {"id": 1210, "city": "Pattiya Watta", "details": {"postalcode": "20118", "latitude": "7.48176950", "longitude": "80.36088760"}}, {"id": 1211, "city": "Perakanatta", "details": {"postalcode": "21532", "latitude": "7.48176950", "longitude": "80.36088760"}}, {"id": 1212, "city": "Periyakadneluwa", "details": {"postalcode": "60518", "latitude": "7.48176950", "longitude": "80.36088760"}}, {"id": 1213, "city": "Pihimbiya Ratmale", "details": {"postalcode": "60439", "latitude": "7.57682140", "longitude": "80.03313450"}}, {"id": 1214, "city": "Pihimbuwa", "details": {"postalcode": "60053", "latitude": "7.45907940", "longitude": "80.51467130"}}, {"id": 1215, "city": "Pilessa", "details": {"postalcode": "60058", "latitude": "7.46154690", "longitude": "80.41248240"}}, {"id": 1216, "city": "Polgahawela", "details": {"postalcode": "60300", "latitude": "7.32748660", "longitude": "80.29345220"}}, {"id": 1217, "city": "Polgolla", "details": {"postalcode": "20250", "latitude": "7.31642280", "longitude": "80.65211390"}}, {"id": 1218, "city": "Polpithigama", "details": {"postalcode": "60620", "latitude": "7.82115110", "longitude": "80.40622190"}}, {"id": 1219, "city": "Pothuhera", "details": {"postalcode": "60330", "latitude": "7.42167240", "longitude": "80.32966640"}}, {"id": 1220, "city": "Pothupitiya", "details": {"postalcode": "70338", "latitude": "7.35420460", "longitude": "80.17355650"}}, {"id": 1221, "city": "Pujapitiya", "details": {"postalcode": "20112", "latitude": "7.49813340", "longitude": "80.38431860"}}, {"id": 1222, "city": "Rakwana", "details": {"postalcode": "70300", "latitude": "6.46472370", "longitude": "80.61604020"}}, {"id": 1223, "city": "Ranorawa", "details": {"postalcode": "50212", "latitude": "7.60087940", "longitude": "80.21261090"}}, {"id": 1224, "city": "Rathukohodigala", "details": {"postalcode": "20818", "latitude": "7.48176950", "longitude": "80.36088760"}}, {"id": 1225, "city": "Ridibendiella", "details": {"postalcode": "60606", "latitude": "7.48176950", "longitude": "80.36088760"}}, {"id": 1226, "city": "Ridigama", "details": {"postalcode": "60040", "latitude": "7.54963470", "longitude": "80.49137540"}}, {"id": 1227, "city": "Saliya Asokapura", "details": {"postalcode": "60736", "latitude": "8.13469970", "longitude": "80.18879360"}}, {"id": 1228, "city": "Sandalankawa", "details": {"postalcode": "60176", "latitude": "7.31510150", "longitude": "79.95957180"}}, {"id": 1229, "city": "Sevanapitiya", "details": {"postalcode": "51062", "latitude": "7.48176950", "longitude": "80.36088760"}}, {"id": 1230, "city": "Sirambiadiya", "details": {"postalcode": "61312", "latitude": "8.05712610", "longitude": "79.86888370"}}, {"id": 1231, "city": "Sirisetagama", "details": {"postalcode": "60478", "latitude": "7.48176950", "longitude": "80.36088760"}}, {"id": 1232, "city": "Siyambalangamuwa", "details": {"postalcode": "60646", "latitude": "7.52948050", "longitude": "80.34285300"}}, {"id": 1233, "city": "Siyambalawewa", "details": {"postalcode": "32048", "latitude": "7.80422750", "longitude": "80.42987040"}}, {"id": 1234, "city": "Solepura", "details": {"postalcode": "60737", "latitude": "8.15312720", "longitude": "80.15681340"}}, {"id": 1235, "city": "Solewewa", "details": {"postalcode": "60738", "latitude": "8.14705210", "longitude": "80.12890100"}}, {"id": 1236, "city": "Sunandapura", "details": {"postalcode": "60436", "latitude": "7.63659560", "longitude": "80.07235920"}}, {"id": 1237, "city": "Talawattegedara", "details": {"postalcode": "60306", "latitude": "7.48176950", "longitude": "80.36088760"}}, {"id": 1238, "city": "Tambutta", "details": {"postalcode": "60734", "latitude": "8.08740100", "longitude": "80.22655450"}}, {"id": 1239, "city": "Tennepanguwa", "details": {"postalcode": "90072", "latitude": "7.48176950", "longitude": "80.36088760"}}, {"id": 1240, "city": "Thalahitimulla", "details": {"postalcode": "60208", "latitude": "7.43050010", "longitude": "80.00597900"}}, {"id": 1241, "city": "Thalakolawewa", "details": {"postalcode": "60624", "latitude": "7.79492120", "longitude": "80.43404290"}}, {"id": 1242, "city": "Thalwita", "details": {"postalcode": "60572", "latitude": "7.58221730", "longitude": "80.33523640"}}, {"id": 1243, "city": "Tharana Udawela", "details": {"postalcode": "60227", "latitude": "7.56001430", "longitude": "79.99410510"}}, {"id": 1244, "city": "Thimbiriyawa", "details": {"postalcode": "60476", "latitude": "7.74926250", "longitude": "80.14006710"}}, {"id": 1245, "city": "Tisogama", "details": {"postalcode": "60453", "latitude": "7.59055980", "longitude": "79.83209660"}}, {"id": 1246, "city": "Thorayaya", "details": {"postalcode": "60499", "latitude": "7.50874930", "longitude": "80.40684690"}}, {"id": 1247, "city": "Tulhiriya", "details": {"postalcode": "71610", "latitude": "7.27533840", "longitude": "80.22376600"}}, {"id": 1248, "city": "Tuntota", "details": {"postalcode": "71062", "latitude": "7.19318910", "longitude": "80.26506200"}}, {"id": 1249, "city": "Tuttiripitigama", "details": {"postalcode": "60426", "latitude": "7.48176950", "longitude": "80.36088760"}}, {"id": 1250, "city": "Udagaldeniya", "details": {"postalcode": "71113", "latitude": "7.41747560", "longitude": "80.47506200"}}, {"id": 1251, "city": "Udahingulwala", "details": {"postalcode": "20094", "latitude": "7.48176950", "longitude": "80.36088760"}}, {"id": 1252, "city": "Udawatta", "details": {"postalcode": "20722", "latitude": "7.48949470", "longitude": "80.36093070"}}, {"id": 1253, "city": "Udubaddawa", "details": {"postalcode": "60250", "latitude": "7.48529250", "longitude": "79.96753660"}}, {"id": 1254, "city": "Udumulla", "details": {"postalcode": "71521", "latitude": "7.46531670", "longitude": "80.42056820"}}, {"id": 1255, "city": "Uhumiya", "details": {"postalcode": "60094", "latitude": "7.46392420", "longitude": "80.29853450"}}, {"id": 1256, "city": "Ulpotha Pallekele", "details": {"postalcode": "60622", "latitude": "7.82652290", "longitude": "80.43722130"}}, {"id": 1257, "city": "Ulpothagama", "details": {"postalcode": "20965", "latitude": "7.48176950", "longitude": "80.36088760"}}, {"id": 1258, "city": "Usgala Siyabmalangamuwa", "details": {"postalcode": "60732", "latitude": "8.09826450", "longitude": "80.29486960"}}, {"id": 1259, "city": "Vijithapura", "details": {"postalcode": "50110", "latitude": "7.48176950", "longitude": "80.36088760"}}, {"id": 1260, "city": "Wadakada", "details": {"postalcode": "60318", "latitude": "7.39754080", "longitude": "80.26873400"}}, {"id": 1261, "city": "Wadumunnegedara", "details": {"postalcode": "60204", "latitude": "7.39810800", "longitude": "79.97739810"}}, {"id": 1262, "city": "Walakumburumulla", "details": {"postalcode": "60198", "latitude": "7.42540260", "longitude": "80.01558170"}}, {"id": 1263, "city": "Wannigama", "details": {"postalcode": "60465", "latitude": "7.70780050", "longitude": "80.14425400"}}, {"id": 1264, "city": "Wannikudawewa", "details": {"postalcode": "60721", "latitude": "8.03396870", "longitude": "80.21749140"}}, {"id": 1265, "city": "Wannilhalagama", "details": {"postalcode": "60722", "latitude": "7.48176950", "longitude": "80.36088760"}}, {"id": 1266, "city": "Wannirasnayakapura", "details": {"postalcode": "60490", "latitude": "7.48176950", "longitude": "80.36088760"}}, {"id": 1267, "city": "Warawewa", "details": {"postalcode": "60739", "latitude": "8.12049370", "longitude": "80.14564960"}}, {"id": 1268, "city": "Wariyapola", "details": {"postalcode": "60400", "latitude": "7.62391440", "longitude": "80.24331450"}}, {"id": 1269, "city": "Watareka", "details": {"postalcode": "10511", "latitude": "7.39726030", "longitude": "80.43543370"}}, {"id": 1270, "city": "Wattegama", "details": {"postalcode": "20810", "latitude": "7.35033130", "longitude": "80.68124680"}}, {"id": 1271, "city": "Watuwatta", "details": {"postalcode": "60262", "latitude": "7.50830680", "longitude": "79.91728030"}}, {"id": 1272, "city": "Weerapokuna", "details": {"postalcode": "60454", "latitude": "7.65135010", "longitude": "79.98890560"}}, {"id": 1273, "city": "Welawa Juncton", "details": {"postalcode": "60464", "latitude": "7.69012190", "longitude": "80.17453550"}}, {"id": 1274, "city": "Welipennagahamulla", "details": {"postalcode": "60240", "latitude": "7.43131540", "longitude": "79.92757560"}}, {"id": 1275, "city": "Wellagala", "details": {"postalcode": "60402", "latitude": "7.62222220", "longitude": "80.27666670"}}, {"id": 1276, "city": "Wellarawa", "details": {"postalcode": "60456", "latitude": "7.55692210", "longitude": "80.36918790"}}, {"id": 1277, "city": "Wellawa", "details": {"postalcode": "60570", "latitude": "7.56154660", "longitude": "80.36864880"}}, {"id": 1278, "city": "Welpalla", "details": {"postalcode": "60206", "latitude": "7.36547860", "longitude": "79.96123680"}}, {"id": 1279, "city": "Wennoruwa", "details": {"postalcode": "60284", "latitude": "7.38049560", "longitude": "80.21679420"}}, {"id": 1280, "city": "Weuda", "details": {"postalcode": "60080", "latitude": "7.40652540", "longitude": "80.49382670"}}, {"id": 1281, "city": "Wewagama", "details": {"postalcode": "60195", "latitude": "7.42332590", "longitude": "80.10237590"}}, {"id": 1282, "city": "Wilgamuwa", "details": {"postalcode": "21530", "latitude": "7.36099280", "longitude": "80.20536390"}}, {"id": 1283, "city": "Yakwila", "details": {"postalcode": "60202", "latitude": "7.38186900", "longitude": "80.03812320"}}, {"id": 1284, "city": "Yatigaloluwa", "details": {"postalcode": "60314", "latitude": "7.32973050", "longitude": "80.27394580"}}]}, {"id": 22, "district": "Puttalam", "cities": [{"id": 1587, "city": "Adippala", "details": {"postalcode": "61012", "latitude": "7.67343660", "longitude": "79.87728340"}}, {"id": 1588, "city": "Alutgama", "details": {"postalcode": "12080", "latitude": "7.56666700", "longitude": "79.90000000"}}, {"id": 1589, "city": "Alutwewa", "details": {"postalcode": "51014", "latitude": "7.98333300", "longitude": "80.40000000"}}, {"id": 1590, "city": "Ambakandawila", "details": {"postalcode": "61024", "latitude": "7.52756270", "longitude": "79.79363220"}}, {"id": 1591, "city": "Anamaduwa", "details": {"postalcode": "61500", "latitude": "7.87777030", "longitude": "80.01111560"}}, {"id": 1592, "city": "Andigama", "details": {"postalcode": "61508", "latitude": "7.77828890", "longitude": "79.94864890"}}, {"id": 1593, "city": "Angunawila", "details": {"postalcode": "61264", "latitude": "7.75339880", "longitude": "79.86048310"}}, {"id": 1594, "city": "Attawilluwa", "details": {"postalcode": "61328", "latitude": "7.96055990", "longitude": "79.88008320"}}, {"id": 1595, "city": "Bangadeniya", "details": {"postalcode": "61238", "latitude": "7.62805620", "longitude": "79.82547220"}}, {"id": 1596, "city": "Baranankattuwa", "details": {"postalcode": "61262", "latitude": "7.80192840", "longitude": "79.87168370"}}, {"id": 1597, "city": "Battuluoya", "details": {"postalcode": "61246", "latitude": "7.73377000", "longitude": "79.82407150"}}, {"id": 1598, "city": "Bujjampola", "details": {"postalcode": "61136", "latitude": "7.32716380", "longitude": "79.91647170"}}, {"id": 1599, "city": "Chilaw", "details": {"postalcode": "61000", "latitude": "7.56198940", "longitude": "79.80165690"}}, {"id": 1600, "city": "Dalukana", "details": {"postalcode": "51092", "latitude": "8.04079130", "longitude": "79.83938600"}}, {"id": 1601, "city": "Dankotuwa", "details": {"postalcode": "61130", "latitude": "7.29746350", "longitude": "79.88218810"}}, {"id": 1602, "city": "Dewagala", "details": {"postalcode": "51094", "latitude": "8.04079130", "longitude": "79.83938600"}}, {"id": 1603, "city": "Dummalasuriya", "details": {"postalcode": "60260", "latitude": "7.49240010", "longitude": "79.91087440"}}, {"id": 1604, "city": "Dunkannawa", "details": {"postalcode": "61192", "latitude": "7.41867940", "longitude": "79.91003190"}}, {"id": 1605, "city": "Eluwankulama", "details": {"postalcode": "61308", "latitude": "8.27308210", "longitude": "79.88008320"}}, {"id": 1606, "city": "Ettale", "details": {"postalcode": "61343", "latitude": "8.04079130", "longitude": "79.83938600"}}, {"id": 1607, "city": "Galamuna", "details": {"postalcode": "51416", "latitude": "7.46616800", "longitude": "79.87308370"}}, {"id": 1608, "city": "Galmuruwa", "details": {"postalcode": "61233", "latitude": "7.50282450", "longitude": "79.89967890"}}, {"id": 1609, "city": "Hansayapalama", "details": {"postalcode": "51098", "latitude": "8.04079130", "longitude": "79.83938600"}}, {"id": 1610, "city": "Ihala Kottaramulla", "details": {"postalcode": "61154", "latitude": "7.37820890", "longitude": "79.87588350"}}, {"id": 1611, "city": "Ilippadeniya", "details": {"postalcode": "61018", "latitude": "7.57059860", "longitude": "79.82687290"}}, {"id": 1612, "city": "Inginimitiya", "details": {"postalcode": "61514", "latitude": "7.98668480", "longitude": "79.95908080"}}, {"id": 1613, "city": "Ismailpuram", "details": {"postalcode": "61302", "latitude": "8.04079130", "longitude": "79.83938600"}}, {"id": 1614, "city": "Jayasiripura", "details": {"postalcode": "51246", "latitude": "7.57565870", "longitude": "80.04510950"}}, {"id": 1615, "city": "Kakkapalliya", "details": {"postalcode": "61236", "latitude": "7.52771560", "longitude": "79.82127000"}}, {"id": 1616, "city": "Kalkudah", "details": {"postalcode": "30410", "latitude": "8.11736840", "longitude": "79.71523340"}}, {"id": 1617, "city": "Kalladiya", "details": {"postalcode": "61534", "latitude": "7.99048070", "longitude": "79.89408060"}}, {"id": 1618, "city": "Kandakuliya", "details": {"postalcode": "61358", "latitude": "8.20374730", "longitude": "79.70072110"}}, {"id": 1619, "city": "Karathivu", "details": {"postalcode": "61307", "latitude": "8.04079130", "longitude": "79.83938600"}}, {"id": 1620, "city": "Karawitagara", "details": {"postalcode": "61022", "latitude": "7.56708100", "longitude": "79.84788080"}}, {"id": 1621, "city": "Karuwalagaswewa", "details": {"postalcode": "61314", "latitude": "8.05657590", "longitude": "79.95564240"}}, {"id": 1622, "city": "Katuneriya", "details": {"postalcode": "61180", "latitude": "7.37062070", "longitude": "79.83527670"}}, {"id": 1623, "city": "Koswatta", "details": {"postalcode": "61158", "latitude": "7.39206080", "longitude": "79.90126710"}}, {"id": 1624, "city": "Kottantivu", "details": {"postalcode": "61252", "latitude": "7.86167050", "longitude": "79.79044750"}}, {"id": 1625, "city": "Kottapitiya", "details": {"postalcode": "51244", "latitude": "7.63588320", "longitude": "79.81706750"}}, {"id": 1626, "city": "Kottukachchiya", "details": {"postalcode": "61532", "latitude": "7.94069150", "longitude": "79.94725020"}}, {"id": 1627, "city": "Kumarakattuwa", "details": {"postalcode": "61032", "latitude": "7.63411080", "longitude": "79.87432630"}}, {"id": 1628, "city": "Kurinjanpitiya", "details": {"postalcode": "61356", "latitude": "8.04079130", "longitude": "79.83938600"}}, {"id": 1629, "city": "Kuruketiyawa", "details": {"postalcode": "61516", "latitude": "8.02027780", "longitude": "80.05361110"}}, {"id": 1630, "city": "Lunuwila", "details": {"postalcode": "61150", "latitude": "7.35587820", "longitude": "79.87265240"}}, {"id": 1631, "city": "Madampe", "details": {"postalcode": "61230", "latitude": "7.49723360", "longitude": "79.84133190"}}, {"id": 1632, "city": "Madurankuliya", "details": {"postalcode": "61270", "latitude": "7.90806630", "longitude": "79.82127000"}}, {"id": 1633, "city": "Mahakumbukkadawala", "details": {"postalcode": "61272", "latitude": "7.84787790", "longitude": "79.88568240"}}, {"id": 1634, "city": "Mahauswewa", "details": {"postalcode": "61512", "latitude": "7.92412600", "longitude": "80.09679060"}}, {"id": 1635, "city": "Mampitiya", "details": {"postalcode": "51090", "latitude": "8.04079130", "longitude": "79.83938600"}}, {"id": 1636, "city": "Mampuri", "details": {"postalcode": "61341", "latitude": "8.00353730", "longitude": "79.74072560"}}, {"id": 1637, "city": "Mangalaeliya", "details": {"postalcode": "61266", "latitude": "7.85990910", "longitude": "79.82046190"}}, {"id": 1638, "city": "Marawila", "details": {"postalcode": "61210", "latitude": "7.42394280", "longitude": "79.83527670"}}, {"id": 1639, "city": "Mudalakkuliya", "details": {"postalcode": "61506", "latitude": "7.90806630", "longitude": "79.82127000"}}, {"id": 1640, "city": "Mugunuwatawana", "details": {"postalcode": "61014", "latitude": "7.58338240", "longitude": "79.85908300"}}, {"id": 1641, "city": "Mukkutoduwawa", "details": {"postalcode": "61274", "latitude": "7.91833330", "longitude": "79.76027780"}}, {"id": 1642, "city": "Mundel", "details": {"postalcode": "61250", "latitude": "7.79755870", "longitude": "79.80165690"}}, {"id": 1643, "city": "Muttibendiwila", "details": {"postalcode": "61195", "latitude": "8.04079130", "longitude": "79.83938600"}}, {"id": 1644, "city": "Nainamadama", "details": {"postalcode": "61120", "latitude": "7.31486810", "longitude": "79.84367960"}}, {"id": 1645, "city": "Nalladarankattuwa", "details": {"postalcode": "61244", "latitude": "7.66371710", "longitude": "79.83930340"}}, {"id": 1646, "city": "Nattandiya", "details": {"postalcode": "61190", "latitude": "7.41248700", "longitude": "79.85908300"}}, {"id": 1647, "city": "Nawagattegama", "details": {"postalcode": "61520", "latitude": "8.00129060", "longitude": "80.10379000"}}, {"id": 1648, "city": "Nelumwewa", "details": {"postalcode": "51096", "latitude": "8.01349020", "longitude": "79.87002700"}}, {"id": 1649, "city": "Norachcholai", "details": {"postalcode": "61342", "latitude": "8.01316760", "longitude": "79.72423930"}}, {"id": 1650, "city": "Pallama", "details": {"postalcode": "61040", "latitude": "7.68439390", "longitude": "79.92579690"}}, {"id": 1651, "city": "Palliwasalturai", "details": {"postalcode": "61354", "latitude": "8.04079130", "longitude": "79.83938600"}}, {"id": 1652, "city": "Panirendawa", "details": {"postalcode": "61234", "latitude": "7.49188440", "longitude": "79.88848190"}}, {"id": 1653, "city": "Parakramasamudraya", "details": {"postalcode": "51016", "latitude": "7.89959000", "longitude": "80.97052920"}}, {"id": 1654, "city": "Pothuwatawana", "details": {"postalcode": "61162", "latitude": "7.35854110", "longitude": "79.91647120"}}, {"id": 1655, "city": "Puttalam", "details": {"postalcode": "61300", "latitude": "8.04079130", "longitude": "79.83938600"}}, {"id": 1656, "city": "Puttalam Cement Factory", "details": {"postalcode": "61326", "latitude": "7.98782750", "longitude": "79.86818370"}}, {"id": 1657, "city": "Rajakadaluwa", "details": {"postalcode": "61242", "latitude": "7.65644900", "longitude": "79.83807780"}}, {"id": 1658, "city": "Saliyawewa Junction", "details": {"postalcode": "61324", "latitude": "8.19340770", "longitude": "80.09399780"}}, {"id": 1659, "city": "Serukele", "details": {"postalcode": "61042", "latitude": "7.72661490", "longitude": "79.91813320"}}, {"id": 1660, "city": "Siyambalagashene", "details": {"postalcode": "61504", "latitude": "8.04079130", "longitude": "79.83938600"}}, {"id": 1661, "city": "Tabbowa", "details": {"postalcode": "61322", "latitude": "8.08612210", "longitude": "79.92635980"}}, {"id": 1662, "city": "Talawila Church", "details": {"postalcode": "61344", "latitude": "8.11254360", "longitude": "79.70345860"}}, {"id": 1663, "city": "Toduwawa", "details": {"postalcode": "61224", "latitude": "7.48590270", "longitude": "79.80305800"}}, {"id": 1664, "city": "Udappuwa", "details": {"postalcode": "61004", "latitude": "7.73584470", "longitude": "79.79885470"}}, {"id": 1665, "city": "Uridyawa", "details": {"postalcode": "61502", "latitude": "8.04079130", "longitude": "79.83938600"}}, {"id": 1666, "city": "Vanathawilluwa", "details": {"postalcode": "61306", "latitude": "8.18693150", "longitude": "79.86118320"}}, {"id": 1667, "city": "Waikkal", "details": {"postalcode": "61110", "latitude": "7.28379190", "longitude": "79.85776340"}}, {"id": 1668, "city": "Watugahamulla", "details": {"postalcode": "61198", "latitude": "8.04079130", "longitude": "79.83938600"}}, {"id": 1669, "city": "Wennappuwa", "details": {"postalcode": "61170", "latitude": "7.34930370", "longitude": "79.83527670"}}, {"id": 1670, "city": "Wijeyakatupotha", "details": {"postalcode": "61006", "latitude": "7.72412290", "longitude": "79.86888370"}}, {"id": 1671, "city": "Wilpotha", "details": {"postalcode": "61008", "latitude": "7.74582630", "longitude": "79.88008320"}}, {"id": 1672, "city": "Yodaela", "details": {"postalcode": "51422", "latitude": "7.56666670", "longitude": "79.86666670"}}, {"id": 1673, "city": "Yogiyana", "details": {"postalcode": "61144", "latitude": "7.28876750", "longitude": "79.92626600"}}]}]}