{"id": 5, "province": "Sabaragamuwa", "districts": [{"id": 12, "district": "Kegalle", "cities": [{"id": 901, "city": "Alawala", "details": {"postalcode": "11122", "latitude": "7.19813610", "longitude": "80.28648620"}}, {"id": 902, "city": "Alawatura", "details": {"postalcode": "71204", "latitude": "7.13333300", "longitude": "80.33333300"}}, {"id": 903, "city": "Alawwa", "details": {"postalcode": "60280", "latitude": "7.29543020", "longitude": "80.23662610"}}, {"id": 904, "city": "Algama", "details": {"postalcode": "71607", "latitude": "7.15632470", "longitude": "80.16588300"}}, {"id": 905, "city": "Alutnuwara", "details": {"postalcode": "71508", "latitude": "6.68614570", "longitude": "80.74638520"}}, {"id": 906, "city": "Ambalakanda", "details": {"postalcode": "71546", "latitude": "7.13767300", "longitude": "80.44795000"}}, {"id": 907, "city": "Ambulugala", "details": {"postalcode": "71503", "latitude": "7.23676530", "longitude": "80.41317800"}}, {"id": 908, "city": "Amitirigala", "details": {"postalcode": "71320", "latitude": "7.02988480", "longitude": "80.18471670"}}, {"id": 909, "city": "Ampagala", "details": {"postalcode": "71232", "latitude": "7.07990050", "longitude": "80.29066590"}}, {"id": 910, "city": "Anhandiya", "details": {"postalcode": "60074", "latitude": "7.46171720", "longitude": "80.48201240"}}, {"id": 911, "city": "Anhettigama", "details": {"postalcode": "71403", "latitude": "6.92425410", "longitude": "80.37703340"}}, {"id": 912, "city": "Aranayaka", "details": {"postalcode": "71540", "latitude": "7.14966510", "longitude": "80.46498290"}}, {"id": 913, "city": "Aruggammana", "details": {"postalcode": "71041", "latitude": "7.11624740", "longitude": "80.30955840"}}, {"id": 914, "city": "Batuwita", "details": {"postalcode": "71321", "latitude": "6.74623400", "longitude": "80.03952050"}}, {"id": 915, "city": "Beligala(Sab)", "details": {"postalcode": "71044", "latitude": "7.27845860", "longitude": "80.29096310"}}, {"id": 916, "city": "Belihuloya", "details": {"postalcode": "70140", "latitude": "6.71459120", "longitude": "80.78721850"}}, {"id": 917, "city": "Berannawa", "details": {"postalcode": "71706", "latitude": "7.06627550", "longitude": "80.40204800"}}, {"id": 918, "city": "Bopitiya", "details": {"postalcode": "60155", "latitude": "7.32012270", "longitude": "80.07863590"}}, {"id": 919, "city": "Bopitiya (SAB)", "details": {"postalcode": "71612", "latitude": "7.16826830", "longitude": "80.19587550"}}, {"id": 920, "city": "Boralankada", "details": {"postalcode": "71418", "latitude": "6.97734990", "longitude": "80.33802130"}}, {"id": 921, "city": "Bossella", "details": {"postalcode": "71208", "latitude": "7.14727070", "longitude": "80.39787380"}}, {"id": 922, "city": "Bulathkohupitiya", "details": {"postalcode": "71230", "latitude": "7.10452810", "longitude": "80.33604700"}}, {"id": 923, "city": "Damunupola", "details": {"postalcode": "71034", "latitude": "7.19251700", "longitude": "80.33523640"}}, {"id": 924, "city": "Debathgama", "details": {"postalcode": "71037", "latitude": "7.17830540", "longitude": "80.41874250"}}, {"id": 925, "city": "Dedugala", "details": {"postalcode": "71237", "latitude": "7.09556450", "longitude": "80.40483060"}}, {"id": 926, "city": "Deewala Pallegama", "details": {"postalcode": "71022", "latitude": "7.17292530", "longitude": "80.36220460"}}, {"id": 927, "city": "Dehiowita", "details": {"postalcode": "71400", "latitude": "6.96389480", "longitude": "80.26419100"}}, {"id": 928, "city": "Deldeniya", "details": {"postalcode": "71009", "latitude": "7.28230050", "longitude": "80.36168900"}}, {"id": 929, "city": "Deloluwa", "details": {"postalcode": "71401", "latitude": "7.25133170", "longitude": "80.34637540"}}, {"id": 930, "city": "Deraniyagala", "details": {"postalcode": "71430", "latitude": "6.93491980", "longitude": "80.33802130"}}, {"id": 931, "city": "Dewalegama", "details": {"postalcode": "71050", "latitude": "7.27737960", "longitude": "80.31852520"}}, {"id": 932, "city": "Dewanagala", "details": {"postalcode": "71527", "latitude": "7.21804520", "longitude": "80.47297680"}}, {"id": 933, "city": "Dombemada", "details": {"postalcode": "71115", "latitude": "7.38409630", "longitude": "80.35124820"}}, {"id": 934, "city": "Dorawaka", "details": {"postalcode": "71601", "latitude": "7.18910810", "longitude": "80.22426240"}}, {"id": 935, "city": "Dunumala", "details": {"postalcode": "71605", "latitude": "7.14735240", "longitude": "80.21261090"}}, {"id": 936, "city": "Galapitamada", "details": {"postalcode": "71603", "latitude": "7.13934840", "longitude": "80.23474530"}}, {"id": 937, "city": "Galatara", "details": {"postalcode": "71505", "latitude": "7.25133170", "longitude": "80.34637540"}}, {"id": 938, "city": "Galigamuwa Town", "details": {"postalcode": "71350", "latitude": "7.23594070", "longitude": "80.31156120"}}, {"id": 939, "city": "Gallella", "details": {"postalcode": "70062", "latitude": "6.70779850", "longitude": "80.49660620"}}, {"id": 940, "city": "Galpatha(Sab)", "details": {"postalcode": "71312", "latitude": "7.05310740", "longitude": "80.27951950"}}, {"id": 941, "city": "Gantuna", "details": {"postalcode": "71222", "latitude": "7.12746820", "longitude": "80.40483060"}}, {"id": 942, "city": "Getahetta", "details": {"postalcode": "70620", "latitude": "6.90584960", "longitude": "80.22663120"}}, {"id": 943, "city": "Godagampola", "details": {"postalcode": "70556", "latitude": "6.88097930", "longitude": "80.31729520"}}, {"id": 944, "city": "Gonagala", "details": {"postalcode": "71318", "latitude": "7.01811020", "longitude": "80.20935370"}}, {"id": 945, "city": "Hakahinna", "details": {"postalcode": "71352", "latitude": "7.20704970", "longitude": "80.30170420"}}, {"id": 946, "city": "Hakbellawaka", "details": {"postalcode": "71715", "latitude": "6.99455040", "longitude": "80.32443620"}}, {"id": 947, "city": "Halloluwa", "details": {"postalcode": "20032", "latitude": "7.30186820", "longitude": "80.59383300"}}, {"id": 948, "city": "Hedunuwewa", "details": {"postalcode": "22024", "latitude": "7.05677800", "longitude": "80.65350110"}}, {"id": 949, "city": "Hemmatagama", "details": {"postalcode": "71530", "latitude": "7.17336010", "longitude": "80.50077550"}}, {"id": 950, "city": "Hewadiwela", "details": {"postalcode": "71108", "latitude": "7.37067080", "longitude": "80.37839160"}}, {"id": 951, "city": "Hingula", "details": {"postalcode": "71520", "latitude": "7.24791280", "longitude": "80.46811100"}}, {"id": 952, "city": "Hinguralakanda", "details": {"postalcode": "71417", "latitude": "6.91323470", "longitude": "80.27830300"}}, {"id": 953, "city": "Hingurana", "details": {"postalcode": "32010", "latitude": "7.22691760", "longitude": "81.67472950"}}, {"id": 954, "city": "Hiriwadunna", "details": {"postalcode": "71014", "latitude": "7.28745490", "longitude": "80.38465420"}}, {"id": 955, "city": "Ihala Walpola", "details": {"postalcode": "80134", "latitude": "7.34849750", "longitude": "80.40204800"}}, {"id": 956, "city": "Ihalagama", "details": {"postalcode": "70144", "latitude": "7.22236400", "longitude": "80.27724350"}}, {"id": 957, "city": "Imbulana", "details": {"postalcode": "71313", "latitude": "7.07241270", "longitude": "80.25025350"}}, {"id": 958, "city": "Imbulgasdeniya", "details": {"postalcode": "71055", "latitude": "7.30986000", "longitude": "80.31835110"}}, {"id": 959, "city": "Kabagamuwa", "details": {"postalcode": "71202", "latitude": "7.13641300", "longitude": "80.33976180"}}, {"id": 960, "city": "Kahapathwala", "details": {"postalcode": "60062", "latitude": "7.39388200", "longitude": "80.46463530"}}, {"id": 961, "city": "Kandaketya", "details": {"postalcode": "90020", "latitude": "7.25081670", "longitude": "80.37145700"}}, {"id": 962, "city": "Kannattota", "details": {"postalcode": "71372", "latitude": "7.09472260", "longitude": "80.28228110"}}, {"id": 963, "city": "Karagahinna", "details": {"postalcode": "21014", "latitude": "7.20704970", "longitude": "80.30170420"}}, {"id": 964, "city": "Kegalle", "details": {"postalcode": "71000", "latitude": "7.25133170", "longitude": "80.34637540"}}, {"id": 965, "city": "Kehelpannala", "details": {"postalcode": "71533", "latitude": "7.16660300", "longitude": "80.51924500"}}, {"id": 966, "city": "Ketawala Leula", "details": {"postalcode": "20198", "latitude": "7.26166000", "longitude": "80.68054550"}}, {"id": 967, "city": "Kitulgala", "details": {"postalcode": "71720", "latitude": "6.98978450", "longitude": "80.42708850"}}, {"id": 968, "city": "Kondeniya", "details": {"postalcode": "71501", "latitude": "7.27205560", "longitude": "80.38117510"}}, {"id": 969, "city": "Kotiyakumbura", "details": {"postalcode": "71370", "latitude": "7.12434010", "longitude": "80.28718280"}}, {"id": 970, "city": "Lewangama", "details": {"postalcode": "71315", "latitude": "7.10743580", "longitude": "80.24216720"}}, {"id": 971, "city": "Mahabage", "details": {"postalcode": "71722", "latitude": "7.02209340", "longitude": "80.44934050"}}, {"id": 972, "city": "Makehelwala", "details": {"postalcode": "71507", "latitude": "7.28193860", "longitude": "80.47019640"}}, {"id": 973, "city": "Malalpola", "details": {"postalcode": "71704", "latitude": "7.05166920", "longitude": "80.33802130"}}, {"id": 974, "city": "Maldeniya", "details": {"postalcode": "22021", "latitude": "6.93595660", "longitude": "80.27603180"}}, {"id": 975, "city": "Maliboda", "details": {"postalcode": "71411", "latitude": "6.89059220", "longitude": "80.43960600"}}, {"id": 976, "city": "Maliyadda", "details": {"postalcode": "90022", "latitude": "6.90051230", "longitude": "79.86842270"}}, {"id": 977, "city": "Malmaduwa", "details": {"postalcode": "71325", "latitude": "7.13677730", "longitude": "80.27812620"}}, {"id": 978, "city": "Marapana", "details": {"postalcode": "70041", "latitude": "6.65895580", "longitude": "80.42987040"}}, {"id": 979, "city": "Mawanella", "details": {"postalcode": "71500", "latitude": "7.23103050", "longitude": "80.47767140"}}, {"id": 980, "city": "Meetanwala", "details": {"postalcode": "60066", "latitude": "7.25133170", "longitude": "80.34637540"}}, {"id": 981, "city": "Migastenna Sabara", "details": {"postalcode": "71716", "latitude": "7.25227040", "longitude": "80.33963850"}}, {"id": 982, "city": "Miyanawita", "details": {"postalcode": "71432", "latitude": "6.88613020", "longitude": "80.36178500"}}, {"id": 983, "city": "Molagoda", "details": {"postalcode": "71016", "latitude": "7.25979540", "longitude": "80.39884800"}}, {"id": 984, "city": "Morontota", "details": {"postalcode": "71220", "latitude": "7.17571880", "longitude": "80.35890490"}}, {"id": 985, "city": "Narangala", "details": {"postalcode": "90064", "latitude": "7.17394400", "longitude": "80.43436400"}}, {"id": 986, "city": "Narangoda", "details": {"postalcode": "60152", "latitude": "7.19701280", "longitude": "80.29623850"}}, {"id": 987, "city": "Nattarampotha", "details": {"postalcode": "20194", "latitude": "7.28083760", "longitude": "80.67291850"}}, {"id": 988, "city": "Nelundeniya", "details": {"postalcode": "71060", "latitude": "7.23084430", "longitude": "80.26001000"}}, {"id": 989, "city": "Niyadurupola", "details": {"postalcode": "71602", "latitude": "7.16751890", "longitude": "80.21840250"}}, {"id": 990, "city": "Noori", "details": {"postalcode": "71407", "latitude": "6.94485410", "longitude": "80.40274360"}}, {"id": 991, "city": "Pannila", "details": {"postalcode": "12114", "latitude": "6.86839660", "longitude": "80.32409600"}}, {"id": 992, "city": "Pattampitiya", "details": {"postalcode": "71130", "latitude": "7.31182390", "longitude": "80.43534990"}}, {"id": 993, "city": "Pilawala", "details": {"postalcode": "20196", "latitude": "7.30149520", "longitude": "80.38674170"}}, {"id": 994, "city": "Pothukoladeniya", "details": {"postalcode": "71039", "latitude": "7.16747710", "longitude": "80.31504330"}}, {"id": 995, "city": "Puswelitenna", "details": {"postalcode": "60072", "latitude": "7.25081670", "longitude": "80.37145700"}}, {"id": 996, "city": "Rambukkana", "details": {"postalcode": "71100", "latitude": "7.27922720", "longitude": "80.38338030"}}, {"id": 997, "city": "Rilpola", "details": {"postalcode": "90026", "latitude": "6.95461930", "longitude": "81.06456800"}}, {"id": 998, "city": "Rukmale", "details": {"postalcode": "11129", "latitude": "6.85246830", "longitude": "79.98034150"}}, {"id": 999, "city": "Ruwanwella", "details": {"postalcode": "71300", "latitude": "7.04587350", "longitude": "80.25370630"}}, {"id": 1000, "city": "Samanalawewa", "details": {"postalcode": "70142", "latitude": "6.67500500", "longitude": "80.78655580"}}, {"id": 1001, "city": "Seaforth Colony", "details": {"postalcode": "71708", "latitude": "7.25133170", "longitude": "80.34637540"}}, {"id": 1003, "city": "Spring Valley", "details": {"postalcode": "90028", "latitude": "7.25133170", "longitude": "80.34637540"}}, {"id": 1004, "city": "Talgaspitiya", "details": {"postalcode": "71541", "latitude": "7.17379560", "longitude": "80.47655430"}}, {"id": 1005, "city": "Teligama", "details": {"postalcode": "71724", "latitude": "7.25133170", "longitude": "80.34637540"}}, {"id": 1006, "city": "Tholangamuwa", "details": {"postalcode": "71619", "latitude": "7.23781070", "longitude": "80.23554680"}}, {"id": 1007, "city": "Thotawella", "details": {"postalcode": "71106", "latitude": "7.23639400", "longitude": "80.31495500"}}, {"id": 1008, "city": "Udaha Hawupe", "details": {"postalcode": "70154", "latitude": "7.25133170", "longitude": "80.34637540"}}, {"id": 1009, "city": "Udapotha", "details": {"postalcode": "71236", "latitude": "7.09758690", "longitude": "80.37421630"}}, {"id": 1010, "city": "Uduwa", "details": {"postalcode": "20052", "latitude": "7.10856680", "longitude": "80.39091640"}}, {"id": 1011, "city": "Undugoda", "details": {"postalcode": "71200", "latitude": "7.13977700", "longitude": "80.35751280"}}, {"id": 1012, "city": "Ussapitiya", "details": {"postalcode": "71510", "latitude": "7.21616020", "longitude": "80.44655940"}}, {"id": 1013, "city": "Wahakula", "details": {"postalcode": "71303", "latitude": "7.06751980", "longitude": "80.20703280"}}, {"id": 1014, "city": "Waharaka", "details": {"postalcode": "71304", "latitude": "7.07946370", "longitude": "80.19883930"}}, {"id": 1015, "city": "Wanaluwewa", "details": {"postalcode": "11068", "latitude": "7.25133170", "longitude": "80.34637540"}}, {"id": 1016, "city": "Warakapola", "details": {"postalcode": "71600", "latitude": "7.22680330", "longitude": "80.19587550"}}, {"id": 1017, "city": "Watura", "details": {"postalcode": "71035", "latitude": "7.25133170", "longitude": "80.34637540"}}, {"id": 1018, "city": "Weeoya", "details": {"postalcode": "71702", "latitude": "7.06322130", "longitude": "80.33571390"}}, {"id": 1019, "city": "Wegalla", "details": {"postalcode": "71234", "latitude": "7.25133170", "longitude": "80.34637540"}}, {"id": 1020, "city": "Weligalla", "details": {"postalcode": "20610", "latitude": "7.18887650", "longitude": "80.59140380"}}, {"id": 1021, "city": "Welihelatenna", "details": {"postalcode": "71712", "latitude": "7.28311710", "longitude": "80.38454330"}}, {"id": 1022, "city": "Wewelwatta", "details": {"postalcode": "70066", "latitude": "6.70526590", "longitude": "80.47610540"}}, {"id": 1023, "city": "Yatagama", "details": {"postalcode": "71116", "latitude": "7.33010560", "longitude": "80.35784920"}}, {"id": 1024, "city": "Yatapana", "details": {"postalcode": "71326", "latitude": "7.13158740", "longitude": "80.30756390"}}, {"id": 1025, "city": "Yatiyantota", "details": {"postalcode": "71700", "latitude": "7.02888240", "longitude": "80.29554190"}}, {"id": 1026, "city": "Yattogoda", "details": {"postalcode": "71029", "latitude": "7.24433740", "longitude": "80.26837180"}}]}, {"id": 23, "district": "Ratnapura", "cities": [{"id": 1674, "city": "Akarella", "details": {"postalcode": "70082", "latitude": "6.59053290", "longitude": "80.64795240"}}, {"id": 1675, "city": "Amunumulla", "details": {"postalcode": "90204", "latitude": "6.71459120", "longitude": "80.78721850"}}, {"id": 1676, "city": "Atakalanpanna", "details": {"postalcode": "70294", "latitude": "6.54066950", "longitude": "80.59105670"}}, {"id": 1677, "city": "Ayagama", "details": {"postalcode": "70024", "latitude": "6.63772660", "longitude": "80.31255370"}}, {"id": 1678, "city": "Balangoda", "details": {"postalcode": "70100", "latitude": "6.64252200", "longitude": "80.68873330"}}, {"id": 1679, "city": "Batatota", "details": {"postalcode": "70504", "latitude": "6.70557420", "longitude": "80.38473450"}}, {"id": 1680, "city": "Beralapanathara", "details": {"postalcode": "81541", "latitude": "6.70557420", "longitude": "80.38473450"}}, {"id": 1681, "city": "Bogahakumbura", "details": {"postalcode": "90354", "latitude": "6.86329850", "longitude": "80.87375390"}}, {"id": 1682, "city": "Bolthumbe", "details": {"postalcode": "70131", "latitude": "6.74284770", "longitude": "80.66875800"}}, {"id": 1683, "city": "Bomluwageaina", "details": {"postalcode": "70344", "latitude": "6.70557420", "longitude": "80.38473450"}}, {"id": 1684, "city": "Bowalagama", "details": {"postalcode": "82458", "latitude": "6.67928120", "longitude": "80.40647070"}}, {"id": 1685, "city": "Bulutota", "details": {"postalcode": "70346", "latitude": "6.47066510", "longitude": "80.61208900"}}, {"id": 1686, "city": "Dambuluwana", "details": {"postalcode": "70019", "latitude": "6.70183190", "longitude": "80.32688120"}}, {"id": 1687, "city": "Daugala", "details": {"postalcode": "70455", "latitude": "6.70557420", "longitude": "80.38473450"}}, {"id": 1688, "city": "Dela", "details": {"postalcode": "70042", "latitude": "6.62049340", "longitude": "80.45420740"}}, {"id": 1689, "city": "Delwala", "details": {"postalcode": "70046", "latitude": "6.51666700", "longitude": "80.46666700"}}, {"id": 1690, "city": "Dodampe", "details": {"postalcode": "70017", "latitude": "6.74794090", "longitude": "80.31465020"}}, {"id": 1691, "city": "Doloswalakanda", "details": {"postalcode": "70404", "latitude": "6.57442010", "longitude": "80.45060660"}}, {"id": 1692, "city": "Dumbara Manana", "details": {"postalcode": "70495", "latitude": "6.68239770", "longitude": "80.24271850"}}, {"id": 1693, "city": "Eheliyagoda", "details": {"postalcode": "70600", "latitude": "6.84856380", "longitude": "80.26001000"}}, {"id": 1694, "city": "Ekamutugama", "details": {"postalcode": "70254", "latitude": "6.67008500", "longitude": "80.39535200"}}, {"id": 1695, "city": "Elapatha", "details": {"postalcode": "70032", "latitude": "6.65911030", "longitude": "80.37004070"}}, {"id": 1696, "city": "Ellagawa", "details": {"postalcode": "70492", "latitude": "6.73322300", "longitude": "80.21481700"}}, {"id": 1697, "city": "Ellaulla", "details": {"postalcode": "70552", "latitude": "6.70557420", "longitude": "80.38473450"}}, {"id": 1698, "city": "Ellawala", "details": {"postalcode": "70606", "latitude": "6.80892830", "longitude": "80.26279730"}}, {"id": 1699, "city": "Embilipitiya", "details": {"postalcode": "70200", "latitude": "6.31623240", "longitude": "80.84331450"}}, {"id": 1700, "city": "Eratna", "details": {"postalcode": "70506", "latitude": "6.83500650", "longitude": "80.40830880"}}, {"id": 1701, "city": "Erepola", "details": {"postalcode": "70602", "latitude": "6.80329990", "longitude": "80.24607180"}}, {"id": 1702, "city": "Gabbela", "details": {"postalcode": "70156", "latitude": "6.51347930", "longitude": "80.54662290"}}, {"id": 1703, "city": "Gangeyaya", "details": {"postalcode": "70195", "latitude": "6.37398870", "longitude": "80.83777890"}}, {"id": 1704, "city": "Gawaragiriya", "details": {"postalcode": "70026", "latitude": "6.65040560", "longitude": "80.26279730"}}, {"id": 1705, "city": "Gillimale", "details": {"postalcode": "70002", "latitude": "6.75193930", "longitude": "80.42670370"}}, {"id": 1706, "city": "Godakawela", "details": {"postalcode": "70160", "latitude": "6.50490600", "longitude": "80.65211390"}}, {"id": 1707, "city": "Gurubewilagama", "details": {"postalcode": "70136", "latitude": "7.87305400", "longitude": "80.77179700"}}, {"id": 1708, "city": "Halwinna", "details": {"postalcode": "70171", "latitude": "6.70557420", "longitude": "80.38473450"}}, {"id": 1709, "city": "Handagiriya", "details": {"postalcode": "70106", "latitude": "6.55213540", "longitude": "80.78240120"}}, {"id": 1710, "city": "Hatangala", "details": {"postalcode": "70105", "latitude": "6.54269300", "longitude": "80.74005370"}}, {"id": 1711, "city": "Hatarabage", "details": {"postalcode": "70108", "latitude": "6.65824100", "longitude": "80.74914430"}}, {"id": 1712, "city": "Hewanakumbura", "details": {"postalcode": "90358", "latitude": "7.30570880", "longitude": "80.67377420"}}, {"id": 1713, "city": "Hidellana", "details": {"postalcode": "70012", "latitude": "6.71422580", "longitude": "80.38604590"}}, {"id": 1714, "city": "Hiramadagama", "details": {"postalcode": "70296", "latitude": "6.53431270", "longitude": "80.60354940"}}, {"id": 1715, "city": "Horewelagoda", "details": {"postalcode": "82456", "latitude": "6.72834120", "longitude": "80.39381100"}}, {"id": 1716, "city": "Ittakanda", "details": {"postalcode": "70342", "latitude": "6.40196150", "longitude": "80.63824130"}}, {"id": 1717, "city": "Kahangama", "details": {"postalcode": "70016", "latitude": "6.71312360", "longitude": "80.35647920"}}, {"id": 1718, "city": "Kahawatta", "details": {"postalcode": "70150", "latitude": "6.57553120", "longitude": "80.57457300"}}, {"id": 1719, "city": "Kalawana", "details": {"postalcode": "70450", "latitude": "6.53171360", "longitude": "80.39648240"}}, {"id": 1720, "city": "Kaltota", "details": {"postalcode": "70122", "latitude": "6.65939600", "longitude": "80.87098720"}}, {"id": 1721, "city": "Kalubululanda", "details": {"postalcode": "90352", "latitude": "6.72834120", "longitude": "80.39381100"}}, {"id": 1722, "city": "Kananke Bazaar", "details": {"postalcode": "80136", "latitude": "6.01876550", "longitude": "80.44209920"}}, {"id": 1723, "city": "Kandepuhulpola", "details": {"postalcode": "90356", "latitude": "6.83668260", "longitude": "80.86822030"}}, {"id": 1724, "city": "Karandana", "details": {"postalcode": "70488", "latitude": "6.78270350", "longitude": "80.21839510"}}, {"id": 1725, "city": "Karangoda", "details": {"postalcode": "70018", "latitude": "6.67757110", "longitude": "80.39578850"}}, {"id": 1726, "city": "Kella Junction", "details": {"postalcode": "70352", "latitude": "6.36110440", "longitude": "80.69191190"}}, {"id": 1727, "city": "Keppetipola", "details": {"postalcode": "90350", "latitude": "7.16325170", "longitude": "80.57053960"}}, {"id": 1728, "city": "Kiriella", "details": {"postalcode": "70480", "latitude": "6.72950380", "longitude": "80.27046020"}}, {"id": 1729, "city": "Kiriibbanwewa", "details": {"postalcode": "70252", "latitude": "6.37767420", "longitude": "80.97191080"}}, {"id": 1730, "city": "Kolambage Ara", "details": {"postalcode": "70180", "latitude": "6.41835640", "longitude": "80.78032380"}}, {"id": 1731, "city": "Kolombugama", "details": {"postalcode": "70403", "latitude": "6.56783560", "longitude": "80.49382670"}}, {"id": 1732, "city": "Kolonna", "details": {"postalcode": "70350", "latitude": "6.40528450", "longitude": "80.68522530"}}, {"id": 1733, "city": "Kudawa", "details": {"postalcode": "70005", "latitude": "6.44335460", "longitude": "80.41705720"}}, {"id": 1734, "city": "Kuruwita", "details": {"postalcode": "70500", "latitude": "6.82184030", "longitude": "80.36150790"}}, {"id": 1735, "city": "Lellopitiya", "details": {"postalcode": "70056", "latitude": "6.66396700", "longitude": "80.48409740"}}, {"id": 1736, "city": "Imaduwa", "details": {"postalcode": "80130", "latitude": "6.03598780", "longitude": "80.39039020"}}, {"id": 1737, "city": "Imbulpe", "details": {"postalcode": "70134", "latitude": "6.70081730", "longitude": "80.75331260"}}, {"id": 1738, "city": "Mahagama Colony", "details": {"postalcode": "70256", "latitude": "7.37879790", "longitude": "80.38395840"}}, {"id": 1739, "city": "Mahawalatenna", "details": {"postalcode": "70112", "latitude": "6.58708770", "longitude": "80.74860620"}}, {"id": 1740, "city": "Makandura", "details": {"postalcode": "70298", "latitude": "6.55328880", "longitude": "80.63130410"}}, {"id": 1741, "city": "Malwala Junction", "details": {"postalcode": "70001", "latitude": "6.68217430", "longitude": "80.40973490"}}, {"id": 1742, "city": "Malwatta", "details": {"postalcode": "32198", "latitude": "6.50997090", "longitude": "80.64101600"}}, {"id": 1743, "city": "Matuwagalagama", "details": {"postalcode": "70482", "latitude": "6.70557420", "longitude": "80.38473450"}}, {"id": 1744, "city": "Medagalature", "details": {"postalcode": "70021", "latitude": "6.67757110", "longitude": "80.39578850"}}, {"id": 1745, "city": "Meddekanda", "details": {"postalcode": "70127", "latitude": "6.67524330", "longitude": "80.65904940"}}, {"id": 1746, "city": "Minipura Dumbara", "details": {"postalcode": "70494", "latitude": "6.71593270", "longitude": "80.21391730"}}, {"id": 1747, "city": "Mitipola", "details": {"postalcode": "70604", "latitude": "6.83459390", "longitude": "80.22376600"}}, {"id": 1748, "city": "Moragala Kirillapone", "details": {"postalcode": "81532", "latitude": "6.85774360", "longitude": "80.25582880"}}, {"id": 1749, "city": "Morahela", "details": {"postalcode": "70129", "latitude": "6.68509810", "longitude": "80.69094480"}}, {"id": 1750, "city": "Mulendiyawala", "details": {"postalcode": "70212", "latitude": "6.28868400", "longitude": "80.77132100"}}, {"id": 1751, "city": "Mulgama", "details": {"postalcode": "70117", "latitude": "6.66605170", "longitude": "80.81765100"}}, {"id": 1752, "city": "Nawalakanda", "details": {"postalcode": "70469", "latitude": "6.24460700", "longitude": "80.14345730"}}, {"id": 1753, "city": "Nawinnapinnakanda", "details": {"postalcode": "70165", "latitude": "6.70557420", "longitude": "80.38473450"}}, {"id": 1754, "city": "Niralagama", "details": {"postalcode": "70038", "latitude": "6.70557420", "longitude": "80.38473450"}}, {"id": 1755, "city": "Nivitigala", "details": {"postalcode": "70400", "latitude": "6.59588500", "longitude": "80.45776700"}}, {"id": 1756, "city": "Omalpe", "details": {"postalcode": "70215", "latitude": "6.32676260", "longitude": "80.69649050"}}, {"id": 1757, "city": "Opanayaka", "details": {"postalcode": "70080", "latitude": "6.62375960", "longitude": "80.68743720"}}, {"id": 1758, "city": "Padalangala", "details": {"postalcode": "70230", "latitude": "6.24917790", "longitude": "80.91524340"}}, {"id": 1759, "city": "Pallebedda", "details": {"postalcode": "70170", "latitude": "6.48273980", "longitude": "80.70644890"}}, {"id": 1760, "city": "Pallekanda", "details": {"postalcode": "82454", "latitude": "6.63603730", "longitude": "80.68123880"}}, {"id": 1761, "city": "Pambagolla", "details": {"postalcode": "70133", "latitude": "6.69048710", "longitude": "80.37989330"}}, {"id": 1762, "city": "Panamura", "details": {"postalcode": "70218", "latitude": "6.34352750", "longitude": "80.77319320"}}, {"id": 1763, "city": "Panapola", "details": {"postalcode": "70461", "latitude": "6.43003730", "longitude": "80.44934050"}}, {"id": 1764, "city": "Paragala", "details": {"postalcode": "81474", "latitude": "6.59648320", "longitude": "80.33802130"}}, {"id": 1765, "city": "Parakaduwa", "details": {"postalcode": "70550", "latitude": "6.82570290", "longitude": "80.30738260"}}, {"id": 1766, "city": "Pebotuwa", "details": {"postalcode": "70045", "latitude": "6.52792350", "longitude": "80.45381770"}}, {"id": 1767, "city": "Pelmadulla", "details": {"postalcode": "70070", "latitude": "6.63448470", "longitude": "80.52995410"}}, {"id": 1768, "city": "Pinnawala", "details": {"postalcode": "70130", "latitude": "7.30097050", "longitude": "80.38715630"}}, {"id": 1769, "city": "Pothdeniya", "details": {"postalcode": "81538", "latitude": "6.70824960", "longitude": "80.38266440"}}, {"id": 1770, "city": "Rajawaka", "details": {"postalcode": "70116", "latitude": "6.60274090", "longitude": "80.80732590"}}, {"id": 1771, "city": "Ranwala", "details": {"postalcode": "70162", "latitude": "6.54729140", "longitude": "80.66321030"}}, {"id": 1772, "city": "Rassagala", "details": {"postalcode": "70135", "latitude": "6.69234870", "longitude": "80.63789450"}}, {"id": 1773, "city": "Rathgama", "details": {"postalcode": "80260", "latitude": "6.71516980", "longitude": "80.46888050"}}, {"id": 1774, "city": "Ratna Hangamuwa", "details": {"postalcode": "70036", "latitude": "6.64236010", "longitude": "80.39091640"}}, {"id": 1775, "city": "Ratnapura", "details": {"postalcode": "70000", "latitude": "6.69514540", "longitude": "80.37274290"}}, {"id": 1776, "city": "Sewanagala", "details": {"postalcode": "70250", "latitude": "6.35989160", "longitude": "80.91956050"}}, {"id": 1777, "city": "Sri Palabaddala", "details": {"postalcode": "70004", "latitude": "6.78906410", "longitude": "80.46046430"}}, {"id": 1778, "city": "Sudagala", "details": {"postalcode": "70502", "latitude": "6.80890880", "longitude": "80.39369940"}}, {"id": 1779, "city": "Thalakolahinna", "details": {"postalcode": "70101", "latitude": "6.70557420", "longitude": "80.38473450"}}, {"id": 1780, "city": "Thanjantenna", "details": {"postalcode": "70118", "latitude": "6.63349430", "longitude": "80.84573630"}}, {"id": 1781, "city": "Theppanawa", "details": {"postalcode": "70512", "latitude": "6.74944380", "longitude": "80.34602730"}}, {"id": 1782, "city": "Thunkama", "details": {"postalcode": "70205", "latitude": "6.27825950", "longitude": "80.88827770"}}, {"id": 1783, "city": "Udakarawita", "details": {"postalcode": "70044", "latitude": "6.59280220", "longitude": "80.45945050"}}, {"id": 1784, "city": "Udaniriella", "details": {"postalcode": "70034", "latitude": "6.72950380", "longitude": "80.27046020"}}, {"id": 1785, "city": "Udawalawe", "details": {"postalcode": "70190", "latitude": "6.40556190", "longitude": "80.80205430"}}, {"id": 1786, "city": "Ullinduwawa", "details": {"postalcode": "70345", "latitude": "6.37019760", "longitude": "80.62714150"}}, {"id": 1787, "city": "Veddagala", "details": {"postalcode": "70459", "latitude": "6.46458460", "longitude": "80.43202860"}}, {"id": 1788, "city": "Vijeriya", "details": {"postalcode": "70348", "latitude": "6.41732680", "longitude": "80.65359580"}}, {"id": 1789, "city": "Waleboda", "details": {"postalcode": "70138", "latitude": "6.72651570", "longitude": "80.66400360"}}, {"id": 1790, "city": "Watapotha", "details": {"postalcode": "70408", "latitude": "6.72834120", "longitude": "80.39381100"}}, {"id": 1791, "city": "Waturawa", "details": {"postalcode": "70456", "latitude": "6.49853270", "longitude": "80.44456110"}}, {"id": 1792, "city": "Weligepola", "details": {"postalcode": "70104", "latitude": "6.57180590", "longitude": "80.70480840"}}, {"id": 1793, "city": "Welipathayaya", "details": {"postalcode": "70124", "latitude": "6.61981170", "longitude": "80.87375390"}}, {"id": 1794, "city": "Wikiliya", "details": {"postalcode": "70114", "latitude": "6.62149100", "longitude": "80.75054170"}}]}]}