{"id": 6, "province": "Eastern", "districts": [{"id": 1, "district": "Ampara", "cities": [{"id": 1, "city": "Akkaraipattu", "details": {"postalcode": "32400", "latitude": "7.21842790", "longitude": "81.85411610"}}, {"id": 2, "city": "Ambagahawatta", "details": {"postalcode": "90326", "latitude": "7.30175630", "longitude": "81.67472950"}}, {"id": 3, "city": "Ampara", "details": {"postalcode": "32000", "latitude": "7.30175630", "longitude": "81.67472950"}}, {"id": 4, "city": "Bakmitiyawa", "details": {"postalcode": "32024", "latitude": "7.02963180", "longitude": "81.68020540"}}, {"id": 5, "city": "Deegawapiya", "details": {"postalcode": "32006", "latitude": "7.30175630", "longitude": "81.67472950"}}, {"id": 6, "city": "Devalahinda", "details": {"postalcode": "32038", "latitude": "7.30175630", "longitude": "81.67472950"}}, {"id": 7, "city": "Digamadulla Weeragoda", "details": {"postalcode": "32008", "latitude": "7.39012540", "longitude": "81.69658760"}}, {"id": 8, "city": "Dorakumbura", "details": {"postalcode": "32104", "latitude": "7.35886970", "longitude": "81.30142840"}}, {"id": 9, "city": "Gonagolla", "details": {"postalcode": "32064", "latitude": "7.43037350", "longitude": "81.55892520"}}, {"id": 10, "city": "Hulannuge", "details": {"postalcode": "32514", "latitude": "6.92847170", "longitude": "81.65467140"}}, {"id": 11, "city": "Kalmunai", "details": {"postalcode": "32300", "latitude": "7.39567810", "longitude": "81.83336560"}}, {"id": 12, "city": "Kannakipuram", "details": {"postalcode": "32405", "latitude": "7.49350210", "longitude": "81.79578880"}}, {"id": 13, "city": "Karativu", "details": {"postalcode": "32250", "latitude": "7.37702820", "longitude": "81.84150650"}}, {"id": 14, "city": "Kekirihena", "details": {"postalcode": "32074", "latitude": "7.50745450", "longitude": "81.33512840"}}, {"id": 15, "city": "Koknahara", "details": {"postalcode": "32035", "latitude": "7.22390810", "longitude": "81.56234740"}}, {"id": 16, "city": "Kolamanthalawa", "details": {"postalcode": "32102", "latitude": "7.29429160", "longitude": "81.27941230"}}, {"id": 17, "city": "Komari", "details": {"postalcode": "32418", "latitude": "6.98626030", "longitude": "81.86477870"}}, {"id": 18, "city": "Lahugala", "details": {"postalcode": "32512", "latitude": "6.87208720", "longitude": "81.72262980"}}, {"id": 19, "city": "Irakkamam", "details": {"postalcode": "32450", "latitude": "7.24424420", "longitude": "81.74588450"}}, {"id": 20, "city": "Mahaoya", "details": {"postalcode": "32070", "latitude": "7.53121600", "longitude": "81.35609520"}}, {"id": 21, "city": "Marathamune", "details": {"postalcode": "32314", "latitude": "7.30175630", "longitude": "81.67472950"}}, {"id": 22, "city": "Namaloya", "details": {"postalcode": "32037", "latitude": "7.33119270", "longitude": "81.53221490"}}, {"id": 23, "city": "Navithanveli", "details": {"postalcode": "32308", "latitude": "7.42577260", "longitude": "81.77456990"}}, {"id": 24, "city": "Nintavur", "details": {"postalcode": "32340", "latitude": "7.32116800", "longitude": "81.85785230"}}, {"id": 25, "city": "Oluvil", "details": {"postalcode": "32360", "latitude": "7.29444730", "longitude": "81.86068210"}}, {"id": 26, "city": "Padiyatalawa", "details": {"postalcode": "32100", "latitude": "7.39251260", "longitude": "81.24362270"}}, {"id": 27, "city": "Pahalalanda", "details": {"postalcode": "32034", "latitude": "7.22268810", "longitude": "81.58980160"}}, {"id": 28, "city": "Panama", "details": {"postalcode": "32508", "latitude": "6.75805890", "longitude": "81.80877210"}}, {"id": 29, "city": "Pannalagama", "details": {"postalcode": "32022", "latitude": "7.30175630", "longitude": "81.67472950"}}, {"id": 30, "city": "Paragahakele", "details": {"postalcode": "32031", "latitude": "7.25777050", "longitude": "81.60898730"}}, {"id": 31, "city": "Periyaneelavanai", "details": {"postalcode": "32316", "latitude": "7.45160600", "longitude": "81.81423800"}}, {"id": 32, "city": "Polwaga Janapadaya", "details": {"postalcode": "32032", "latitude": "7.24344700", "longitude": "81.55690030"}}, {"id": 33, "city": "Pottuvil", "details": {"postalcode": "32500", "latitude": "6.87527060", "longitude": "81.83063340"}}, {"id": 34, "city": "Sainthamaruthu", "details": {"postalcode": "32280", "latitude": "7.39304920", "longitude": "81.83609770"}}, {"id": 35, "city": "Samanthurai", "details": {"postalcode": "32200", "latitude": "7.35748410", "longitude": "81.79510540"}}, {"id": 36, "city": "Serankada", "details": {"postalcode": "32101", "latitude": "7.45677530", "longitude": "81.27872420"}}, {"id": 37, "city": "Tempitiya", "details": {"postalcode": "32072", "latitude": "7.62289350", "longitude": "81.37293720"}}, {"id": 38, "city": "Thambiluvil", "details": {"postalcode": "32415", "latitude": "7.12851220", "longitude": "81.84861640"}}, {"id": 39, "city": "Tirukovil", "details": {"postalcode": "32420", "latitude": "7.11531220", "longitude": "81.85248820"}}, {"id": 40, "city": "Uhana", "details": {"postalcode": "32060", "latitude": "7.36303600", "longitude": "81.63527700"}}, {"id": 41, "city": "Wadinagala", "details": {"postalcode": "32039", "latitude": "7.12631470", "longitude": "81.57335280"}}, {"id": 42, "city": "Wanagamuwa", "details": {"postalcode": "32454", "latitude": "7.30175630", "longitude": "81.67472950"}}]}, {"id": 4, "district": "Batticaloa", "cities": [{"id": 287, "city": "Addalaichenai", "details": {"postalcode": "32350", "latitude": "7.24425790", "longitude": "81.85480710"}}, {"id": 288, "city": "Ampilanthurai", "details": {"postalcode": "30162", "latitude": "7.71655610", "longitude": "81.69881720"}}, {"id": 289, "city": "Araipattai", "details": {"postalcode": "30150", "latitude": "7.73099710", "longitude": "81.67472950"}}, {"id": 290, "city": "Ayithiyamalai", "details": {"postalcode": "30362", "latitude": "7.67361980", "longitude": "81.57030650"}}, {"id": 291, "city": "Bakiella", "details": {"postalcode": "30206", "latitude": "7.73099710", "longitude": "81.67472950"}}, {"id": 292, "city": "Batticaloa", "details": {"postalcode": "30000", "latitude": "7.73099710", "longitude": "81.67472950"}}, {"id": 293, "city": "Cheddipalayam", "details": {"postalcode": "30194", "latitude": "7.57957080", "longitude": "81.78493010"}}, {"id": 294, "city": "Chenkaladi", "details": {"postalcode": "30350", "latitude": "7.78585710", "longitude": "81.58980160"}}, {"id": 295, "city": "Eravur", "details": {"postalcode": "30300", "latitude": "7.77689720", "longitude": "81.60420280"}}, {"id": 296, "city": "Kaluwanchikudi", "details": {"postalcode": "30200", "latitude": "7.52937250", "longitude": "81.79460920"}}, {"id": 297, "city": "Kaluwankemy", "details": {"postalcode": "30372", "latitude": "7.52937250", "longitude": "81.79460920"}}, {"id": 298, "city": "Kannankudah", "details": {"postalcode": "30016", "latitude": "7.67886980", "longitude": "81.67250220"}}, {"id": 299, "city": "Karadiyanaru", "details": {"postalcode": "30354", "latitude": "7.70074660", "longitude": "81.53838700"}}, {"id": 300, "city": "Kathiraveli", "details": {"postalcode": "30456", "latitude": "8.22288100", "longitude": "81.40385770"}}, {"id": 301, "city": "Kattankudi", "details": {"postalcode": "30100", "latitude": "7.68536950", "longitude": "81.72601230"}}, {"id": 302, "city": "Kiran", "details": {"postalcode": "30394", "latitude": "7.86777970", "longitude": "81.51026550"}}, {"id": 303, "city": "Kirankulam", "details": {"postalcode": "30159", "latitude": "7.60532060", "longitude": "81.76838280"}}, {"id": 304, "city": "Koddaikallar", "details": {"postalcode": "30249", "latitude": "7.48387900", "longitude": "81.80798530"}}, {"id": 305, "city": "Kokkaddicholai", "details": {"postalcode": "30160", "latitude": "7.61605700", "longitude": "81.71031550"}}, {"id": 306, "city": "Kurukkalmadam", "details": {"postalcode": "30192", "latitude": "7.58799500", "longitude": "81.78041500"}}, {"id": 307, "city": "Mandur", "details": {"postalcode": "30220", "latitude": "7.48266490", "longitude": "81.75409020"}}, {"id": 308, "city": "Miravodai", "details": {"postalcode": "30426", "latitude": "7.88934640", "longitude": "81.51026550"}}, {"id": 309, "city": "Murakottanchanai", "details": {"postalcode": "30392", "latitude": "7.73099710", "longitude": "81.67472950"}}, {"id": 310, "city": "Navagirinagar", "details": {"postalcode": "30238", "latitude": "7.73099710", "longitude": "81.67472950"}}, {"id": 311, "city": "Navatkadu", "details": {"postalcode": "30018", "latitude": "7.20452670", "longitude": "81.84019570"}}, {"id": 312, "city": "Oddamavadi", "details": {"postalcode": "30420", "latitude": "7.90310760", "longitude": "81.52398460"}}, {"id": 313, "city": "Palamunai", "details": {"postalcode": "32354", "latitude": "7.66111430", "longitude": "81.74725220"}}, {"id": 314, "city": "Pankudavely", "details": {"postalcode": "30352", "latitude": "7.73099710", "longitude": "81.67472950"}}, {"id": 315, "city": "Periyaporativu", "details": {"postalcode": "30230", "latitude": "7.51916300", "longitude": "81.76913180"}}, {"id": 316, "city": "Periyapullumalai", "details": {"postalcode": "30358", "latitude": "7.58167990", "longitude": "81.46085600"}}, {"id": 317, "city": "Pillaiyaradi", "details": {"postalcode": "30022", "latitude": "7.73099710", "longitude": "81.67472950"}}, {"id": 318, "city": "Punanai", "details": {"postalcode": "30428", "latitude": "7.96500740", "longitude": "81.38897480"}}, {"id": 319, "city": "Thannamunai", "details": {"postalcode": "30024", "latitude": "7.75310300", "longitude": "81.63780190"}}, {"id": 320, "city": "Thettativu", "details": {"postalcode": "30196", "latitude": "7.55581030", "longitude": "81.79670110"}}, {"id": 321, "city": "Thikkodai", "details": {"postalcode": "30236", "latitude": "7.52434860", "longitude": "81.68841840"}}, {"id": 322, "city": "Thirupalugamam", "details": {"postalcode": "30234", "latitude": "7.73099710", "longitude": "81.67472950"}}, {"id": 323, "city": "Unnichchai", "details": {"postalcode": "30364", "latitude": "7.61828800", "longitude": "81.54882070"}}, {"id": 324, "city": "Vakaneri", "details": {"postalcode": "30424", "latitude": "7.92654340", "longitude": "81.48281980"}}, {"id": 325, "city": "Vakarai", "details": {"postalcode": "30450", "latitude": "8.13690990", "longitude": "81.43407900"}}, {"id": 326, "city": "Valaichenai", "details": {"postalcode": "30400", "latitude": "7.92132760", "longitude": "81.52467050"}}, {"id": 327, "city": "Vantharumoolai", "details": {"postalcode": "30376", "latitude": "7.79058820", "longitude": "81.55690030"}}, {"id": 328, "city": "Vellavely", "details": {"postalcode": "30204", "latitude": "7.49561360", "longitude": "81.72947020"}}]}, {"id": 24, "district": "Trincomalee", "cities": [{"id": 1795, "city": "Agbopura", "details": {"postalcode": "31304", "latitude": "8.33139520", "longitude": "80.97648920"}}, {"id": 1796, "city": "Buckmigama", "details": {"postalcode": "31028", "latitude": "8.58736380", "longitude": "81.21521210"}}, {"id": 1797, "city": "China Bay", "details": {"postalcode": "31050", "latitude": "8.56292020", "longitude": "81.19900940"}}, {"id": 1798, "city": "Dehiwatte", "details": {"postalcode": "31226", "latitude": "8.58736380", "longitude": "81.21521210"}}, {"id": 1799, "city": "Echchilampattai", "details": {"postalcode": "31236", "latitude": "8.58736380", "longitude": "81.21521210"}}, {"id": 1800, "city": "Galmetiyawa", "details": {"postalcode": "31318", "latitude": "8.58736380", "longitude": "81.21521210"}}, {"id": 1801, "city": "Gomarankadawala", "details": {"postalcode": "31026", "latitude": "8.67503840", "longitude": "80.96324230"}}, {"id": 1802, "city": "Kaddaiparichchan", "details": {"postalcode": "31212", "latitude": "8.45435440", "longitude": "81.29179710"}}, {"id": 1803, "city": "Kallar", "details": {"postalcode": "30250", "latitude": "8.58736380", "longitude": "81.21521210"}}, {"id": 1804, "city": "Kanniya", "details": {"postalcode": "31032", "latitude": "8.59878050", "longitude": "81.18715150"}}, {"id": 1805, "city": "Kantalai", "details": {"postalcode": "31300", "latitude": "8.35126340", "longitude": "81.00699280"}}, {"id": 1806, "city": "Kantalai Sugar Factory", "details": {"postalcode": "31306", "latitude": "8.31672220", "longitude": "81.04672190"}}, {"id": 1807, "city": "Kiliveddy", "details": {"postalcode": "31220", "latitude": "8.36183610", "longitude": "81.28427020"}}, {"id": 1808, "city": "Kinniya", "details": {"postalcode": "31100", "latitude": "8.50254730", "longitude": "81.18038320"}}, {"id": 1809, "city": "Kuchchaveli", "details": {"postalcode": "31014", "latitude": "8.82138500", "longitude": "81.09478080"}}, {"id": 1810, "city": "Kumburupiddy", "details": {"postalcode": "31012", "latitude": "8.73568790", "longitude": "81.16096790"}}, {"id": 1811, "city": "Kurinchakerny", "details": {"postalcode": "31112", "latitude": "8.50191580", "longitude": "81.17199360"}}, {"id": 1812, "city": "Lankapatuna", "details": {"postalcode": "31234", "latitude": "8.35736110", "longitude": "81.38962220"}}, {"id": 1813, "city": "Mahadivulwewa", "details": {"postalcode": "31036", "latitude": "8.61738580", "longitude": "80.96427730"}}, {"id": 1814, "city": "Maharugiramam", "details": {"postalcode": "31106", "latitude": "8.58736380", "longitude": "81.21521210"}}, {"id": 1815, "city": "Mallikativu", "details": {"postalcode": "31224", "latitude": "8.58736380", "longitude": "81.21521210"}}, {"id": 1816, "city": "Mawadichenai", "details": {"postalcode": "31238", "latitude": "8.60944630", "longitude": "81.21638370"}}, {"id": 1817, "city": "Mullipothana", "details": {"postalcode": "31312", "latitude": "8.42867990", "longitude": "81.05614580"}}, {"id": 1818, "city": "Mutur", "details": {"postalcode": "31200", "latitude": "8.45790650", "longitude": "81.26840190"}}, {"id": 1819, "city": "Neelapola", "details": {"postalcode": "31228", "latitude": "8.37006770", "longitude": "81.22434440"}}, {"id": 1820, "city": "Nilaveli", "details": {"postalcode": "31010", "latitude": "8.69273310", "longitude": "81.18852930"}}, {"id": 1821, "city": "Pankulam", "details": {"postalcode": "31034", "latitude": "8.62513020", "longitude": "81.03267950"}}, {"id": 1822, "city": "Pulmoddai", "details": {"postalcode": "50567", "latitude": "8.94455220", "longitude": "80.98267180"}}, {"id": 1823, "city": "Rottawewa", "details": {"postalcode": "31038", "latitude": "8.59950020", "longitude": "80.92170210"}}, {"id": 1824, "city": "Sampaltivu", "details": {"postalcode": "31006", "latitude": "8.63659760", "longitude": "81.22304850"}}, {"id": 1825, "city": "Sampoor", "details": {"postalcode": "31216", "latitude": "8.48224360", "longitude": "81.28937930"}}, {"id": 1826, "city": "Serunuwara", "details": {"postalcode": "31232", "latitude": "8.32497340", "longitude": "81.30074050"}}, {"id": 1827, "city": "Seruwila", "details": {"postalcode": "31260", "latitude": "8.37057000", "longitude": "81.31991360"}}, {"id": 1828, "city": "Sirajnagar", "details": {"postalcode": "31314", "latitude": "8.58736380", "longitude": "81.21521210"}}, {"id": 1829, "city": "Somapura", "details": {"postalcode": "31222", "latitude": "8.29801560", "longitude": "81.27665980"}}, {"id": 1830, "city": "Tampalakamam", "details": {"postalcode": "31046", "latitude": "8.49737520", "longitude": "81.09202180"}}, {"id": 1831, "city": "Thuraineelavanai", "details": {"postalcode": "30254", "latitude": "7.44730640", "longitude": "81.79920570"}}, {"id": 1832, "city": "Tiriyayi", "details": {"postalcode": "31016", "latitude": "6.94064680", "longitude": "79.86132860"}}, {"id": 1833, "city": "Toppur", "details": {"postalcode": "31250", "latitude": "8.40458120", "longitude": "81.31243410"}}, {"id": 1834, "city": "Trincomalee", "details": {"postalcode": "31000", "latitude": "8.58736380", "longitude": "81.21521210"}}, {"id": 1835, "city": "Wanela", "details": {"postalcode": "31308", "latitude": "8.38173830", "longitude": "81.07960500"}}]}]}