{"id": 7, "province": "Uva", "districts": [{"id": 3, "district": "Badulla", "cities": [{"id": 173, "city": "Akkarasiyaya", "details": {"postalcode": "90166", "latitude": "6.99340090", "longitude": "81.05498150"}}, {"id": 174, "city": "Aluketiyawa", "details": {"postalcode": "90736", "latitude": "7.30000000", "longitude": "81.11666700"}}, {"id": 175, "city": "Aluttaramma", "details": {"postalcode": "90722", "latitude": "6.99340090", "longitude": "81.05498150"}}, {"id": 176, "city": "Ambadandegama", "details": {"postalcode": "90108", "latitude": "6.81900520", "longitude": "81.05614580"}}, {"id": 177, "city": "Ambagasdowa", "details": {"postalcode": "90300", "latitude": "6.92807100", "longitude": "80.89657580"}}, {"id": 178, "city": "Arawa", "details": {"postalcode": "90017", "latitude": "7.16666700", "longitude": "81.08333300"}}, {"id": 179, "city": "Arawakumbura", "details": {"postalcode": "90532", "latitude": "7.08738620", "longitude": "81.19955110"}}, {"id": 180, "city": "Arawatta", "details": {"postalcode": "90712", "latitude": "7.34330130", "longitude": "81.03716620"}}, {"id": 181, "city": "Atakiriya", "details": {"postalcode": "90542", "latitude": "6.98189520", "longitude": "81.07628300"}}, {"id": 182, "city": "Badulla", "details": {"postalcode": "90000", "latitude": "6.99340090", "longitude": "81.05498150"}}, {"id": 183, "city": "Baduluoya", "details": {"postalcode": "90019", "latitude": "7.12482550", "longitude": "81.03026390"}}, {"id": 184, "city": "Ballaketuwa", "details": {"postalcode": "90092", "latitude": "6.86225690", "longitude": "81.10029850"}}, {"id": 185, "city": "Bambarapana", "details": {"postalcode": "90322", "latitude": "6.98156960", "longitude": "80.95118350"}}, {"id": 186, "city": "Bandarawela", "details": {"postalcode": "90100", "latitude": "6.82587800", "longitude": "80.99815760"}}, {"id": 187, "city": "Beramada", "details": {"postalcode": "90066", "latitude": "6.92125060", "longitude": "79.84778520"}}, {"id": 188, "city": "Bibilegama", "details": {"postalcode": "90502", "latitude": "6.89617300", "longitude": "81.14029050"}}, {"id": 189, "city": "Boragas", "details": {"postalcode": "90362", "latitude": "6.89990100", "longitude": "80.84608220"}}, {"id": 190, "city": "Boralanda", "details": {"postalcode": "90170", "latitude": "6.82790440", "longitude": "80.89450140"}}, {"id": 191, "city": "Bowela", "details": {"postalcode": "90302", "latitude": "6.98189520", "longitude": "81.07628300"}}, {"id": 192, "city": "Central Camp", "details": {"postalcode": "32050", "latitude": "6.99340090", "longitude": "81.05498150"}}, {"id": 193, "city": "Damanewela", "details": {"postalcode": "32126", "latitude": "6.99340090", "longitude": "81.05498150"}}, {"id": 194, "city": "Dambana", "details": {"postalcode": "90714", "latitude": "7.41362290", "longitude": "81.10834830"}}, {"id": 195, "city": "Dehiattakandiya", "details": {"postalcode": "32150", "latitude": "7.67127960", "longitude": "81.04648400"}}, {"id": 196, "city": "Demodara", "details": {"postalcode": "90080", "latitude": "6.89928290", "longitude": "81.05817760"}}, {"id": 197, "city": "Diganatenna", "details": {"postalcode": "90132", "latitude": "6.85588490", "longitude": "80.96526170"}}, {"id": 198, "city": "Dikkapitiya", "details": {"postalcode": "90214", "latitude": "6.89368620", "longitude": "80.93736230"}}, {"id": 199, "city": "Dimbulana", "details": {"postalcode": "90324", "latitude": "7.01527780", "longitude": "80.94000000"}}, {"id": 200, "city": "Divulapelessa", "details": {"postalcode": "90726", "latitude": "7.57782550", "longitude": "81.00368210"}}, {"id": 201, "city": "Diyatalawa", "details": {"postalcode": "90150", "latitude": "6.80695100", "longitude": "80.95720210"}}, {"id": 202, "city": "Dulgolla", "details": {"postalcode": "90104", "latitude": "6.85685410", "longitude": "80.88343670"}}, {"id": 203, "city": "Ekiriyankumbura", "details": {"postalcode": "91502", "latitude": "7.29888840", "longitude": "81.24086890"}}, {"id": 204, "city": "Ella", "details": {"postalcode": "90090", "latitude": "6.86669880", "longitude": "81.04655300"}}, {"id": 205, "city": "Ettampitiya", "details": {"postalcode": "90140", "latitude": "6.93645060", "longitude": "80.98779800"}}, {"id": 206, "city": "Galauda", "details": {"postalcode": "90065", "latitude": "6.99340090", "longitude": "81.05498150"}}, {"id": 207, "city": "Galporuyaya", "details": {"postalcode": "90752", "latitude": "7.42852030", "longitude": "81.03682110"}}, {"id": 208, "city": "Gawarawela", "details": {"postalcode": "90082", "latitude": "6.90284970", "longitude": "81.07132610"}}, {"id": 209, "city": "Girandurukotte", "details": {"postalcode": "90750", "latitude": "7.46291690", "longitude": "81.01749170"}}, {"id": 210, "city": "Godunna", "details": {"postalcode": "90067", "latitude": "7.06682380", "longitude": "80.97488400"}}, {"id": 211, "city": "Gurutalawa", "details": {"postalcode": "90208", "latitude": "6.84350900", "longitude": "80.90002230"}}, {"id": 212, "city": "Haldummulla", "details": {"postalcode": "90180", "latitude": "6.76892280", "longitude": "80.89266810"}}, {"id": 213, "city": "Hali Ela", "details": {"postalcode": "90060", "latitude": "6.95552540", "longitude": "81.03143840"}}, {"id": 214, "city": "Hangunnawa", "details": {"postalcode": "90224", "latitude": "6.94950730", "longitude": "80.87237050"}}, {"id": 215, "city": "Haputale", "details": {"postalcode": "90160", "latitude": "6.76541360", "longitude": "80.95256550"}}, {"id": 216, "city": "Hebarawa", "details": {"postalcode": "90724", "latitude": "7.53197770", "longitude": "80.98987010"}}, {"id": 217, "city": "Heeloya", "details": {"postalcode": "90112", "latitude": "6.86669880", "longitude": "81.04655300"}}, {"id": 218, "city": "Helahalpe", "details": {"postalcode": "90122", "latitude": "6.88928830", "longitude": "81.03450680"}}, {"id": 219, "city": "Helapupula", "details": {"postalcode": "90094", "latitude": "6.98189520", "longitude": "81.07628300"}}, {"id": 220, "city": "Hopton", "details": {"postalcode": "90524", "latitude": "6.98823220", "longitude": "81.19748460"}}, {"id": 221, "city": "Idalgashinna", "details": {"postalcode": "96167", "latitude": "6.78296900", "longitude": "80.90003310"}}, {"id": 222, "city": "Kahataruppa", "details": {"postalcode": "90052", "latitude": "6.98189520", "longitude": "81.07628300"}}, {"id": 223, "city": "Kalugahakandura", "details": {"postalcode": "90546", "latitude": "7.12266830", "longitude": "81.09478080"}}, {"id": 224, "city": "Kalupahana", "details": {"postalcode": "90186", "latitude": "6.79100550", "longitude": "80.84537710"}}, {"id": 225, "city": "Kebillawela", "details": {"postalcode": "90102", "latitude": "6.83496050", "longitude": "80.99328360"}}, {"id": 226, "city": "Kendagolla", "details": {"postalcode": "90048", "latitude": "6.99275530", "longitude": "81.10846340"}}, {"id": 227, "city": "Keselpotha", "details": {"postalcode": "90738", "latitude": "7.32834070", "longitude": "81.09421320"}}, {"id": 228, "city": "Ketawatta", "details": {"postalcode": "90016", "latitude": "6.98189520", "longitude": "81.07628300"}}, {"id": 229, "city": "Kiriwanagama", "details": {"postalcode": "90184", "latitude": "6.77335170", "longitude": "80.83121380"}}, {"id": 230, "city": "Koslanda", "details": {"postalcode": "90190", "latitude": "6.74312340", "longitude": "81.01783690"}}, {"id": 231, "city": "Kuruwitenna", "details": {"postalcode": "90728", "latitude": "6.98189520", "longitude": "81.07628300"}}, {"id": 232, "city": "Kuttiyagolla", "details": {"postalcode": "90046", "latitude": "7.02684860", "longitude": "81.09478080"}}, {"id": 233, "city": "Landewela", "details": {"postalcode": "90068", "latitude": "7.00514020", "longitude": "81.00230100"}}, {"id": 234, "city": "Liyangahawela", "details": {"postalcode": "90106", "latitude": "6.81189130", "longitude": "81.02991830"}}, {"id": 235, "city": "Lunugala", "details": {"postalcode": "90530", "latitude": "7.04036760", "longitude": "81.20167370"}}, {"id": 236, "city": "Lunuwatta", "details": {"postalcode": "90310", "latitude": "6.95572350", "longitude": "80.91939120"}}, {"id": 237, "city": "Madulsima", "details": {"postalcode": "90535", "latitude": "7.04667480", "longitude": "81.15821120"}}, {"id": 238, "city": "Mahiyanganaya", "details": {"postalcode": "90700", "latitude": "7.33161020", "longitude": "81.00368210"}}, {"id": 239, "city": "Makulella", "details": {"postalcode": "90114", "latitude": "6.82919910", "longitude": "81.03406010"}}, {"id": 240, "city": "Malgoda", "details": {"postalcode": "90754", "latitude": "6.98189520", "longitude": "81.07628300"}}, {"id": 241, "city": "Mapakadawewa", "details": {"postalcode": "90730", "latitude": "7.28932120", "longitude": "81.02577630"}}, {"id": 242, "city": "Maspanna", "details": {"postalcode": "90328", "latitude": "7.02794930", "longitude": "80.94427320"}}, {"id": 243, "city": "Maussagolla", "details": {"postalcode": "90582", "latitude": "6.91240280", "longitude": "81.13856710"}}, {"id": 244, "city": "Mawanagama", "details": {"postalcode": "32158", "latitude": "7.59697890", "longitude": "81.15269760"}}, {"id": 245, "city": "Medawela Udukinda", "details": {"postalcode": "90218", "latitude": "6.86256990", "longitude": "80.85776300"}}, {"id": 246, "city": "Meegahakiula", "details": {"postalcode": "90015", "latitude": "7.01864620", "longitude": "81.05639800"}}, {"id": 247, "city": "Metigahatenna", "details": {"postalcode": "90540", "latitude": "7.07720390", "longitude": "81.15407600"}}, {"id": 248, "city": "Mirahawatta", "details": {"postalcode": "90134", "latitude": "6.87515400", "longitude": "80.93397920"}}, {"id": 249, "city": "Miriyabedda", "details": {"postalcode": "90504", "latitude": "6.99340090", "longitude": "81.05498150"}}, {"id": 250, "city": "Nawamedagama", "details": {"postalcode": "32120", "latitude": "7.52535610", "longitude": "81.05890600"}}, {"id": 251, "city": "Nelumgama", "details": {"postalcode": "90042", "latitude": "6.99417300", "longitude": "81.07000500"}}, {"id": 252, "city": "Nikapotha", "details": {"postalcode": "90165", "latitude": "6.74527170", "longitude": "80.97298900"}}, {"id": 253, "city": "Nugatalawa", "details": {"postalcode": "90216", "latitude": "6.90191460", "longitude": "80.90770790"}}, {"id": 254, "city": "Ohiya", "details": {"postalcode": "90168", "latitude": "6.81901030", "longitude": "80.84469840"}}, {"id": 255, "city": "Pahalarathkinda", "details": {"postalcode": "90756", "latitude": "6.99340090", "longitude": "81.05498150"}}, {"id": 256, "city": "Pallekiruwa", "details": {"postalcode": "90534", "latitude": "7.01599390", "longitude": "81.22434440"}}, {"id": 257, "city": "Passara", "details": {"postalcode": "90500", "latitude": "6.93490880", "longitude": "81.15269760"}}, {"id": 258, "city": "Pattiyagedara", "details": {"postalcode": "90138", "latitude": "6.90433540", "longitude": "80.97438700"}}, {"id": 259, "city": "Pelagahatenna", "details": {"postalcode": "90522", "latitude": "6.96096040", "longitude": "81.12512350"}}, {"id": 260, "city": "Perawella", "details": {"postalcode": "90222", "latitude": "6.94737520", "longitude": "80.83078860"}}, {"id": 261, "city": "Pitamaruwa", "details": {"postalcode": "90544", "latitude": "7.11015220", "longitude": "81.15916800"}}, {"id": 262, "city": "Pitapola", "details": {"postalcode": "90171", "latitude": "6.80930280", "longitude": "80.89173530"}}, {"id": 263, "city": "Puhulpola", "details": {"postalcode": "90212", "latitude": "6.98189520", "longitude": "81.07628300"}}, {"id": 264, "city": "Rajagalatenna", "details": {"postalcode": "32068", "latitude": "6.98189520", "longitude": "81.07628300"}}, {"id": 265, "city": "Rathkarawwa", "details": {"postalcode": "90164", "latitude": "6.80691400", "longitude": "80.90556450"}}, {"id": 266, "city": "Ridimaliyadda", "details": {"postalcode": "90704", "latitude": "7.21816000", "longitude": "81.12050680"}}, {"id": 267, "city": "Silmiyapura", "details": {"postalcode": "90364", "latitude": "6.91441390", "longitude": "80.84193070"}}, {"id": 268, "city": "Sirimalgoda", "details": {"postalcode": "90044", "latitude": "6.98189520", "longitude": "81.07628300"}}, {"id": 269, "city": "Siripura", "details": {"postalcode": "32155", "latitude": "6.96852990", "longitude": "80.91082680"}}, {"id": 270, "city": "Sorabora Colony", "details": {"postalcode": "90718", "latitude": "7.36061250", "longitude": "80.98434460"}}, {"id": 271, "city": "Soragune", "details": {"postalcode": "90183", "latitude": "6.74491800", "longitude": "80.89279720"}}, {"id": 272, "city": "Soranathota", "details": {"postalcode": "90008", "latitude": "7.02284960", "longitude": "81.04495180"}}, {"id": 273, "city": "Taldena", "details": {"postalcode": "90014", "latitude": "7.09199130", "longitude": "81.04835830"}}, {"id": 274, "city": "Timbirigaspitiya", "details": {"postalcode": "90012", "latitude": "6.99340090", "longitude": "81.05498150"}}, {"id": 275, "city": "Uduhawara", "details": {"postalcode": "90226", "latitude": "6.94799280", "longitude": "80.86268640"}}, {"id": 276, "city": "Uraniya", "details": {"postalcode": "90702", "latitude": "7.26054430", "longitude": "81.08523180"}}, {"id": 277, "city": "Uva Karandagolla", "details": {"postalcode": "90091", "latitude": "6.98189520", "longitude": "81.07628300"}}, {"id": 278, "city": "Uva Mawelagama", "details": {"postalcode": "90192", "latitude": "6.98189520", "longitude": "81.07628300"}}, {"id": 279, "city": "Uva Tenna", "details": {"postalcode": "90188", "latitude": "6.98189520", "longitude": "81.07628300"}}, {"id": 280, "city": "Uva Tissapura", "details": {"postalcode": "90734", "latitude": "6.98189520", "longitude": "81.07628300"}}, {"id": 281, "city": "Welimada", "details": {"postalcode": "90200", "latitude": "6.90190720", "longitude": "80.90792450"}}, {"id": 282, "city": "Weranketagoda", "details": {"postalcode": "32062", "latitude": "6.98189520", "longitude": "81.07628300"}}, {"id": 283, "city": "Wewatta", "details": {"postalcode": "90716", "latitude": "7.38626820", "longitude": "81.16441360"}}, {"id": 284, "city": "Wineethagama", "details": {"postalcode": "90034", "latitude": "6.98088050", "longitude": "81.07696420"}}, {"id": 285, "city": "Yalagamuwa", "details": {"postalcode": "90329", "latitude": "6.98189520", "longitude": "81.07628300"}}, {"id": 286, "city": "Yalwela", "details": {"postalcode": "90706", "latitude": "7.26420680", "longitude": "81.15676260"}}, {"id": 1977, "city": "Idalgashinna", "details": {"postalcode": "90167", "latitude": "6.78296900", "longitude": "80.90003310"}}]}, {"id": 18, "district": "Monaragala", "cities": [{"id": 1431, "city": "Ayiwela", "details": {"postalcode": "91516", "latitude": "7.10702560", "longitude": "81.25048550"}}, {"id": 1432, "city": "Badalkumbura", "details": {"postalcode": "91070", "latitude": "6.89559920", "longitude": "81.23635890"}}, {"id": 1433, "city": "Baduluwela", "details": {"postalcode": "91058", "latitude": "6.99340090", "longitude": "81.05498150"}}, {"id": 1434, "city": "Bakinigahawela", "details": {"postalcode": "91554", "latitude": "6.99824690", "longitude": "81.28508070"}}, {"id": 1435, "city": "Balaharuwa", "details": {"postalcode": "91295", "latitude": "6.53084900", "longitude": "81.06442630"}}, {"id": 1436, "city": "Bibile", "details": {"postalcode": "91500", "latitude": "6.86086240", "longitude": "81.35025410"}}, {"id": 1437, "city": "Buddama", "details": {"postalcode": "91038", "latitude": "7.04054500", "longitude": "81.48880660"}}, {"id": 1438, "city": "Buttala", "details": {"postalcode": "91100", "latitude": "6.75892330", "longitude": "81.24912980"}}, {"id": 1439, "city": "Dambagalla", "details": {"postalcode": "91050", "latitude": "6.94999990", "longitude": "81.36666710"}}, {"id": 1440, "city": "Diyakobala", "details": {"postalcode": "91514", "latitude": "7.15884730", "longitude": "81.19934040"}}, {"id": 1441, "city": "Dombagahawela", "details": {"postalcode": "91010", "latitude": "6.90764870", "longitude": "81.50941940"}}, {"id": 1442, "city": "Ethimalewewa", "details": {"postalcode": "91020", "latitude": "6.81115120", "longitude": "81.50203280"}}, {"id": 1443, "city": "Ettiliwewa", "details": {"postalcode": "91250", "latitude": "6.89064540", "longitude": "81.34544170"}}, {"id": 1444, "city": "Galabedda", "details": {"postalcode": "91008", "latitude": "6.91911390", "longitude": "81.38509100"}}, {"id": 1445, "city": "Gamewela", "details": {"postalcode": "90512", "latitude": "6.92464050", "longitude": "81.20533240"}}, {"id": 1446, "city": "Hambegamuwa", "details": {"postalcode": "91308", "latitude": "6.53863360", "longitude": "80.96301560"}}, {"id": 1447, "city": "Hingurukaduwa", "details": {"postalcode": "90508", "latitude": "6.82574560", "longitude": "81.16298410"}}, {"id": 1448, "city": "Hulandawa", "details": {"postalcode": "91004", "latitude": "6.85467910", "longitude": "81.33856630"}}, {"id": 1449, "city": "Inginiyagala", "details": {"postalcode": "91040", "latitude": "7.21381560", "longitude": "81.54318720"}}, {"id": 1450, "city": "Kandaudapanguwa", "details": {"postalcode": "91032", "latitude": "6.98034640", "longitude": "81.54148000"}}, {"id": 1451, "city": "Kandawinna", "details": {"postalcode": "91552", "latitude": "6.89064540", "longitude": "81.34544170"}}, {"id": 1452, "city": "Kataragama", "details": {"postalcode": "91400", "latitude": "6.41354630", "longitude": "81.33256790"}}, {"id": 1453, "city": "Kotagama", "details": {"postalcode": "91512", "latitude": "7.11098880", "longitude": "81.18026190"}}, {"id": 1454, "city": "Kotamuduna", "details": {"postalcode": "90506", "latitude": "6.89022610", "longitude": "81.17750590"}}, {"id": 1455, "city": "Kotawehera Mankada", "details": {"postalcode": "91312", "latitude": "6.64690700", "longitude": "80.90847550"}}, {"id": 1456, "city": "Kudawewa", "details": {"postalcode": "61226", "latitude": "8.56222220", "longitude": "80.69388890"}}, {"id": 1457, "city": "Kumbukkana", "details": {"postalcode": "91098", "latitude": "6.81059500", "longitude": "81.30066680"}}, {"id": 1458, "city": "Marawa", "details": {"postalcode": "91006", "latitude": "6.80900980", "longitude": "81.38118390"}}, {"id": 1459, "city": "Mariarawa", "details": {"postalcode": "91052", "latitude": "6.96837810", "longitude": "81.47620430"}}, {"id": 1460, "city": "Medagana", "details": {"postalcode": "91550", "latitude": "7.03447320", "longitude": "81.27600400"}}, {"id": 1461, "city": "Medawelagama", "details": {"postalcode": "90518", "latitude": "7.03447320", "longitude": "81.27600400"}}, {"id": 1462, "city": "Miyanakandura", "details": {"postalcode": "90584", "latitude": "6.89064540", "longitude": "81.34544170"}}, {"id": 1463, "city": "Monaragala", "details": {"postalcode": "91000", "latitude": "6.89064540", "longitude": "81.34544170"}}, {"id": 1464, "city": "Moretuwegama", "details": {"postalcode": "91108", "latitude": "6.89064540", "longitude": "81.34544170"}}, {"id": 1465, "city": "Nakkala", "details": {"postalcode": "91003", "latitude": "6.88999620", "longitude": "81.29843090"}}, {"id": 1466, "city": "Namunukula", "details": {"postalcode": "90580", "latitude": "6.87447870", "longitude": "81.11547030"}}, {"id": 1467, "city": "Nannapurawa", "details": {"postalcode": "91519", "latitude": "7.08537010", "longitude": "81.25931330"}}, {"id": 1468, "city": "Nelliyadda", "details": {"postalcode": "91042", "latitude": "7.38785580", "longitude": "81.41690930"}}, {"id": 1469, "city": "Nilgala", "details": {"postalcode": "91508", "latitude": "7.19333790", "longitude": "81.39639010"}}, {"id": 1470, "city": "Obbegoda", "details": {"postalcode": "91007", "latitude": "6.92507090", "longitude": "81.35408600"}}, {"id": 1471, "city": "Okkampitiya", "details": {"postalcode": "91060", "latitude": "6.75003500", "longitude": "81.30761930"}}, {"id": 1472, "city": "Pangura", "details": {"postalcode": "91002", "latitude": "6.97668660", "longitude": "81.32008930"}}, {"id": 1473, "city": "Pitakumbura", "details": {"postalcode": "91505", "latitude": "7.17869360", "longitude": "81.29312200"}}, {"id": 1474, "city": "Randeniya", "details": {"postalcode": "91204", "latitude": "6.80151990", "longitude": "81.11409120"}}, {"id": 1475, "city": "Ruwalwela", "details": {"postalcode": "91056", "latitude": "6.86108030", "longitude": "81.33918040"}}, {"id": 1476, "city": "Sella Kataragama", "details": {"postalcode": "91405", "latitude": "6.43732850", "longitude": "81.29867670"}}, {"id": 1477, "city": "Siyambalagune", "details": {"postalcode": "91202", "latitude": "6.89064540", "longitude": "81.34544170"}}, {"id": 1478, "city": "Siyambalanduwa", "details": {"postalcode": "91030", "latitude": "6.90646360", "longitude": "81.56101380"}}, {"id": 1479, "city": "Suriara", "details": {"postalcode": "91306", "latitude": "6.89064540", "longitude": "81.34544170"}}, {"id": 1480, "city": "Thanamalwila", "details": {"postalcode": "91300", "latitude": "6.43975480", "longitude": "81.13339680"}}, {"id": 1481, "city": "Uva Gangodagama", "details": {"postalcode": "91054", "latitude": "7.01985990", "longitude": "81.43339230"}}, {"id": 1482, "city": "Uva Kudaoya", "details": {"postalcode": "91298", "latitude": "6.53279710", "longitude": "81.17474980"}}, {"id": 1483, "city": "Uva Pelwatta", "details": {"postalcode": "91112", "latitude": "6.74473370", "longitude": "81.19679580"}}, {"id": 1484, "city": "Warunagama", "details": {"postalcode": "91198", "latitude": "6.73234260", "longitude": "81.13408620"}}, {"id": 1485, "city": "Wedikumbura", "details": {"postalcode": "91005", "latitude": "6.89559920", "longitude": "81.23635890"}}, {"id": 1486, "city": "Weherayaya Handapanagala", "details": {"postalcode": "91206", "latitude": "6.64359030", "longitude": "81.11825900"}}, {"id": 1487, "city": "Wellawaya", "details": {"postalcode": "91200", "latitude": "6.73773560", "longitude": "81.10305730"}}, {"id": 1488, "city": "Wilaoya", "details": {"postalcode": "91022", "latitude": "6.76778200", "longitude": "81.69721660"}}, {"id": 1489, "city": "Yudaganawa", "details": {"postalcode": "51424", "latitude": "6.77425080", "longitude": "81.23511310"}}]}]}