{"id": 8, "province": "North Central", "districts": [{"id": 2, "district": "Anuradhapura", "cities": [{"id": 43, "city": "Angamuwa", "details": {"postalcode": "50248", "latitude": "8.18133110", "longitude": "80.20703280"}}, {"id": 44, "city": "Anuradhapura", "details": {"postalcode": "50000", "latitude": "8.31135180", "longitude": "80.40365080"}}, {"id": 45, "city": "Awukana", "details": {"postalcode": "50169", "latitude": "8.01014200", "longitude": "80.51311560"}}, {"id": 46, "city": "Bogahawewa", "details": {"postalcode": "50566", "latitude": "8.32554500", "longitude": "80.24885960"}}, {"id": 47, "city": "Dematawewa", "details": {"postalcode": "50356", "latitude": "8.28333300", "longitude": "80.58333300"}}, {"id": 48, "city": "Dimbulagala", "details": {"postalcode": "51031", "latitude": "7.85934130", "longitude": "81.10305730"}}, {"id": 49, "city": "Dutuwewa", "details": {"postalcode": "50393", "latitude": "8.62798020", "longitude": "80.86545340"}}, {"id": 50, "city": "Elayapattuwa", "details": {"postalcode": "50014", "latitude": "8.35534470", "longitude": "80.39647510"}}, {"id": 51, "city": "Ellewewa", "details": {"postalcode": "51034", "latitude": "7.78077700", "longitude": "81.07822530"}}, {"id": 52, "city": "Eppawala", "details": {"postalcode": "50260", "latitude": "8.14409500", "longitude": "80.41187210"}}, {"id": 53, "city": "Etawatunuwewa", "details": {"postalcode": "50584", "latitude": "8.31135180", "longitude": "80.40365080"}}, {"id": 54, "city": "Etaweeragollewa", "details": {"postalcode": "50518", "latitude": "8.61460480", "longitude": "80.53828890"}}, {"id": 55, "city": "Galapitagala", "details": {"postalcode": "32066", "latitude": "8.09808990", "longitude": "80.68262540"}}, {"id": 56, "city": "Galenbindunuwewa", "details": {"postalcode": "50390", "latitude": "8.29213380", "longitude": "80.71728370"}}, {"id": 57, "city": "Galkadawala", "details": {"postalcode": "50006", "latitude": "8.25944620", "longitude": "80.14425400"}}, {"id": 58, "city": "Galkiriyagama", "details": {"postalcode": "50120", "latitude": "7.92634930", "longitude": "80.57187720"}}, {"id": 59, "city": "Galkulama", "details": {"postalcode": "50064", "latitude": "8.30612950", "longitude": "80.45037230"}}, {"id": 60, "city": "Galnewa", "details": {"postalcode": "50170", "latitude": "8.03692110", "longitude": "80.47253460"}}, {"id": 61, "city": "Gambirigaswewa", "details": {"postalcode": "50057", "latitude": "8.48075710", "longitude": "80.39369940"}}, {"id": 62, "city": "Ganewalpola", "details": {"postalcode": "50142", "latitude": "8.08761040", "longitude": "80.62791750"}}, {"id": 63, "city": "Gemunupura", "details": {"postalcode": "50224", "latitude": "8.19657290", "longitude": "80.16797580"}}, {"id": 64, "city": "Getalawa", "details": {"postalcode": "50392", "latitude": "8.31826200", "longitude": "80.77406080"}}, {"id": 65, "city": "Gnanikulama", "details": {"postalcode": "50036", "latitude": "8.29901660", "longitude": "80.43682450"}}, {"id": 66, "city": "Gonahaddenawa", "details": {"postalcode": "50554", "latitude": "8.31135180", "longitude": "80.40365080"}}, {"id": 67, "city": "Habarana", "details": {"postalcode": "50150", "latitude": "8.03221470", "longitude": "80.75192720"}}, {"id": 68, "city": "Halmillawa Dambulla", "details": {"postalcode": "50124", "latitude": "8.17185550", "longitude": "80.75342070"}}, {"id": 69, "city": "Halmillawetiya", "details": {"postalcode": "50552", "latitude": "8.73197780", "longitude": "80.66598420"}}, {"id": 70, "city": "Hidogama", "details": {"postalcode": "50044", "latitude": "8.26194340", "longitude": "80.41317800"}}, {"id": 71, "city": "Horawpatana", "details": {"postalcode": "50350", "latitude": "8.55697630", "longitude": "80.83129110"}}, {"id": 72, "city": "Horiwila", "details": {"postalcode": "50222", "latitude": "7.86666700", "longitude": "81.08333300"}}, {"id": 73, "city": "Hurigaswewa", "details": {"postalcode": "50176", "latitude": "8.09486350", "longitude": "80.37004070"}}, {"id": 74, "city": "Hurulunikawewa", "details": {"postalcode": "50394", "latitude": "8.27086140", "longitude": "80.75918140"}}, {"id": 75, "city": "Ihala Puliyankulama", "details": {"postalcode": "61316", "latitude": "8.15202380", "longitude": "80.56328840"}}, {"id": 76, "city": "Kagama", "details": {"postalcode": "50282", "latitude": "8.04226330", "longitude": "80.50723210"}}, {"id": 77, "city": "Kahatagasdigiliya", "details": {"postalcode": "50320", "latitude": "8.42598100", "longitude": "80.68725300"}}, {"id": 78, "city": "Kahatagollewa", "details": {"postalcode": "50562", "latitude": "8.73523570", "longitude": "80.79901850"}}, {"id": 79, "city": "Kalakarambewa", "details": {"postalcode": "50288", "latitude": "8.31135180", "longitude": "80.40365080"}}, {"id": 80, "city": "Kalaoya", "details": {"postalcode": "50226", "latitude": "8.21001910", "longitude": "80.10754390"}}, {"id": 81, "city": "Kalawedi Ulpotha", "details": {"postalcode": "50556", "latitude": "7.90669100", "longitude": "80.37530500"}}, {"id": 82, "city": "Kallanchiya", "details": {"postalcode": "50454", "latitude": "8.46341190", "longitude": "80.57161990"}}, {"id": 83, "city": "Kalpitiya", "details": {"postalcode": "61360", "latitude": "8.32274050", "longitude": "80.40861190"}}, {"id": 84, "city": "Kalukele Badanagala", "details": {"postalcode": "51037", "latitude": "7.78305910", "longitude": "81.05890600"}}, {"id": 85, "city": "Kapugallawa", "details": {"postalcode": "50370", "latitude": "8.31135180", "longitude": "80.40365080"}}, {"id": 86, "city": "Karagahawewa", "details": {"postalcode": "50232", "latitude": "8.33692640", "longitude": "80.41545860"}}, {"id": 87, "city": "Kashyapapura", "details": {"postalcode": "51032", "latitude": "8.31135180", "longitude": "80.40365080"}}, {"id": 88, "city": "Kebithigollewa", "details": {"postalcode": "50500", "latitude": "8.64112290", "longitude": "80.66969990"}}, {"id": 89, "city": "Kekirawa", "details": {"postalcode": "50100", "latitude": "8.04210300", "longitude": "80.59383300"}}, {"id": 90, "city": "Kendewa", "details": {"postalcode": "50452", "latitude": "8.49101270", "longitude": "80.60420240"}}, {"id": 91, "city": "Kiralogama", "details": {"postalcode": "50259", "latitude": "8.19062870", "longitude": "80.36864880"}}, {"id": 92, "city": "Kirigalwewa", "details": {"postalcode": "50511", "latitude": "8.53632700", "longitude": "80.55773360"}}, {"id": 93, "city": "Kirimundalama", "details": {"postalcode": "61362", "latitude": "8.31135180", "longitude": "80.40365080"}}, {"id": 94, "city": "Kitulhitiyawa", "details": {"postalcode": "50132", "latitude": "8.31135180", "longitude": "80.40365080"}}, {"id": 95, "city": "Kurundankulama", "details": {"postalcode": "50062", "latitude": "8.35485670", "longitude": "80.45212160"}}, {"id": 96, "city": "Labunoruwa", "details": {"postalcode": "50088", "latitude": "8.16498510", "longitude": "80.59799730"}}, {"id": 97, "city": "Ihalagama", "details": {"postalcode": "50304", "latitude": "8.33183050", "longitude": "80.40290170"}}, {"id": 98, "city": "Ipologama", "details": {"postalcode": "50280", "latitude": "8.06502700", "longitude": "80.53551070"}}, {"id": 99, "city": "Madatugama", "details": {"postalcode": "50130", "latitude": "7.94585760", "longitude": "80.62714150"}}, {"id": 100, "city": "Maha Elagamuwa", "details": {"postalcode": "50126", "latitude": "7.99146130", "longitude": "80.61881560"}}, {"id": 101, "city": "Mahabulankulama", "details": {"postalcode": "50196", "latitude": "8.34481060", "longitude": "80.39723910"}}, {"id": 102, "city": "Mahailluppallama", "details": {"postalcode": "50270", "latitude": "8.10373640", "longitude": "80.46046430"}}, {"id": 103, "city": "Mahakanadarawa", "details": {"postalcode": "50306", "latitude": "8.35002930", "longitude": "80.39636870"}}, {"id": 104, "city": "Mahapothana", "details": {"postalcode": "50327", "latitude": "8.38787430", "longitude": "80.76120640"}}, {"id": 105, "city": "Mahasenpura", "details": {"postalcode": "50574", "latitude": "8.86182610", "longitude": "80.84884980"}}, {"id": 106, "city": "Mahawilachchiya", "details": {"postalcode": "50022", "latitude": "8.47075510", "longitude": "80.20982190"}}, {"id": 107, "city": "Mailagaswewa", "details": {"postalcode": "50384", "latitude": "8.28185290", "longitude": "80.68262540"}}, {"id": 108, "city": "Malwanagama", "details": {"postalcode": "50236", "latitude": "8.31135180", "longitude": "80.40365080"}}, {"id": 109, "city": "Maneruwa", "details": {"postalcode": "50182", "latitude": "7.90214030", "longitude": "80.47992730"}}, {"id": 110, "city": "Maradankadawala", "details": {"postalcode": "50080", "latitude": "8.11686520", "longitude": "80.56051110"}}, {"id": 111, "city": "Maradankalla", "details": {"postalcode": "50308", "latitude": "8.11686520", "longitude": "80.56051110"}}, {"id": 112, "city": "Medawachchiya", "details": {"postalcode": "50500", "latitude": "8.53748130", "longitude": "80.49098060"}}, {"id": 113, "city": "Megodawewa", "details": {"postalcode": "50334", "latitude": "8.21570610", "longitude": "80.70237990"}}, {"id": 114, "city": "Mihintale", "details": {"postalcode": "50300", "latitude": "8.35342320", "longitude": "80.50494450"}}, {"id": 115, "city": "Morakewa", "details": {"postalcode": "50349", "latitude": "8.50922770", "longitude": "80.78517100"}}, {"id": 116, "city": "Mulkiriyawa", "details": {"postalcode": "50324", "latitude": "8.31135180", "longitude": "80.40365080"}}, {"id": 117, "city": "Muriyakadawala", "details": {"postalcode": "50344", "latitude": "8.14464530", "longitude": "80.58841560"}}, {"id": 119, "city": "Nachchaduwa", "details": {"postalcode": "50046", "latitude": "8.25549640", "longitude": "80.48270740"}}, {"id": 120, "city": "Namalpura", "details": {"postalcode": "50339", "latitude": "8.14396200", "longitude": "80.74731900"}}, {"id": 121, "city": "Negampaha", "details": {"postalcode": "50180", "latitude": "7.95785590", "longitude": "80.51122380"}}, {"id": 122, "city": "Nochchiyagama", "details": {"postalcode": "50200", "latitude": "8.29255010", "longitude": "80.22655450"}}, {"id": 123, "city": "Nuwaragala", "details": {"postalcode": "51039", "latitude": "7.79264660", "longitude": "81.00368210"}}, {"id": 124, "city": "Padavi Maithripura", "details": {"postalcode": "50572", "latitude": "8.34481060", "longitude": "80.39723910"}}, {"id": 125, "city": "Padavi Parakramapura", "details": {"postalcode": "50582", "latitude": "8.90344220", "longitude": "80.77579840"}}, {"id": 126, "city": "Padavi Sripura", "details": {"postalcode": "50587", "latitude": "8.91950600", "longitude": "80.80871030"}}, {"id": 127, "city": "Padavi Sritissapura", "details": {"postalcode": "50588", "latitude": "8.31135180", "longitude": "80.40365080"}}, {"id": 128, "city": "Padaviya", "details": {"postalcode": "50570", "latitude": "8.83409980", "longitude": "80.76073890"}}, {"id": 129, "city": "Padikaramaduwa", "details": {"postalcode": "50338", "latitude": "8.23585720", "longitude": "80.74734750"}}, {"id": 130, "city": "Pahala Halmillewa", "details": {"postalcode": "50206", "latitude": "8.30461820", "longitude": "80.61799520"}}, {"id": 131, "city": "Pahala Maragahawe", "details": {"postalcode": "50220", "latitude": "8.24286010", "longitude": "80.15319510"}}, {"id": 132, "city": "Pahalagama", "details": {"postalcode": "50244", "latitude": "8.18585380", "longitude": "80.28230630"}}, {"id": 133, "city": "Palugaswewa", "details": {"postalcode": "50144", "latitude": "8.06044070", "longitude": "80.68817180"}}, {"id": 134, "city": "Pandukabayapura", "details": {"postalcode": "50448", "latitude": "8.31135180", "longitude": "80.40365080"}}, {"id": 135, "city": "Pandulagama", "details": {"postalcode": "50029", "latitude": "8.32751600", "longitude": "80.36110910"}}, {"id": 136, "city": "Parakumpura", "details": {"postalcode": "50326", "latitude": "8.31135180", "longitude": "80.40365080"}}, {"id": 137, "city": "Parangiyawadiya", "details": {"postalcode": "50354", "latitude": "8.48798500", "longitude": "80.92077370"}}, {"id": 138, "city": "Parasangahawewa", "details": {"postalcode": "50055", "latitude": "8.35534470", "longitude": "80.39647510"}}, {"id": 139, "city": "Pelatiyawa", "details": {"postalcode": "51033", "latitude": "7.81604000", "longitude": "81.09202180"}}, {"id": 140, "city": "Pemaduwa", "details": {"postalcode": "50020", "latitude": "8.49536680", "longitude": "80.19151100"}}, {"id": 141, "city": "Perimiyankulama", "details": {"postalcode": "50004", "latitude": "8.35534470", "longitude": "80.39647510"}}, {"id": 142, "city": "Pihimbiyagolewa", "details": {"postalcode": "50512", "latitude": "8.31135180", "longitude": "80.40365080"}}, {"id": 143, "city": "Pubbogama", "details": {"postalcode": "50122", "latitude": "7.92807970", "longitude": "80.59681890"}}, {"id": 144, "city": "Punewa", "details": {"postalcode": "50506", "latitude": "8.61016710", "longitude": "80.46880610"}}, {"id": 145, "city": "Rajanganaya", "details": {"postalcode": "50246", "latitude": "8.16572070", "longitude": "80.19644430"}}, {"id": 146, "city": "Rambewa", "details": {"postalcode": "50450", "latitude": "8.44010740", "longitude": "80.50494450"}}, {"id": 147, "city": "Rampathwila", "details": {"postalcode": "50386", "latitude": "8.40259460", "longitude": "80.63546650"}}, {"id": 148, "city": "Rathmalgahawewa", "details": {"postalcode": "50514", "latitude": "8.52339920", "longitude": "80.69649050"}}, {"id": 149, "city": "Saliyapura", "details": {"postalcode": "50008", "latitude": "8.40542620", "longitude": "80.41596030"}}, {"id": 150, "city": "Seeppukulama", "details": {"postalcode": "50380", "latitude": "8.38161270", "longitude": "80.58905790"}}, {"id": 151, "city": "Senapura", "details": {"postalcode": "50284", "latitude": "8.00068170", "longitude": "81.15821120"}}, {"id": 152, "city": "Sivalakulama", "details": {"postalcode": "50068", "latitude": "8.25643610", "longitude": "80.63604780"}}, {"id": 153, "city": "Siyambalewa", "details": {"postalcode": "50184", "latitude": "8.01668610", "longitude": "80.42708850"}}, {"id": 154, "city": "Sravasthipura", "details": {"postalcode": "50042", "latitude": "8.29881970", "longitude": "80.37702160"}}, {"id": 155, "city": "Talawa", "details": {"postalcode": "50230", "latitude": "8.23651890", "longitude": "80.35077300"}}, {"id": 156, "city": "Tambuttegama", "details": {"postalcode": "50240", "latitude": "8.15400150", "longitude": "80.30459670"}}, {"id": 157, "city": "Tammennawa", "details": {"postalcode": "50104", "latitude": "8.35002930", "longitude": "80.39636870"}}, {"id": 158, "city": "Tantirimale", "details": {"postalcode": "50016", "latitude": "8.57228020", "longitude": "80.25722250"}}, {"id": 159, "city": "Telhiriyawa", "details": {"postalcode": "50242", "latitude": "8.14312930", "longitude": "80.31413490"}}, {"id": 160, "city": "Tirappane", "details": {"postalcode": "50072", "latitude": "8.21330460", "longitude": "80.52717560"}}, {"id": 161, "city": "Tittagonewa", "details": {"postalcode": "50558", "latitude": "8.69645040", "longitude": "80.77132100"}}, {"id": 162, "city": "Udunuwara Colony", "details": {"postalcode": "50207", "latitude": "7.23197260", "longitude": "80.56606570"}}, {"id": 163, "city": "Upuldeniya", "details": {"postalcode": "50382", "latitude": "8.31380840", "longitude": "80.66043640"}}, {"id": 164, "city": "Uttimaduwa", "details": {"postalcode": "50067", "latitude": "8.42457530", "longitude": "80.25833250"}}, {"id": 165, "city": "Vellamanal", "details": {"postalcode": "31053", "latitude": "8.31135180", "longitude": "80.40365080"}}, {"id": 166, "city": "Viharapalugama", "details": {"postalcode": "50012", "latitude": "8.36304860", "longitude": "80.40542270"}}, {"id": 167, "city": "Wahalkada", "details": {"postalcode": "50564", "latitude": "8.72249360", "longitude": "80.83501090"}}, {"id": 168, "city": "Wahamalgollewa", "details": {"postalcode": "50492", "latitude": "8.48070790", "longitude": "80.50216520"}}, {"id": 169, "city": "Walagambahuwa", "details": {"postalcode": "50086", "latitude": "8.15586220", "longitude": "80.49660620"}}, {"id": 170, "city": "Walahaviddawewa", "details": {"postalcode": "50516", "latitude": "8.45887190", "longitude": "80.86599690"}}, {"id": 171, "city": "Welimuwapotana", "details": {"postalcode": "50358", "latitude": "8.55929760", "longitude": "80.83501090"}}, {"id": 172, "city": "Welioya Project", "details": {"postalcode": "50586", "latitude": "8.96404140", "longitude": "80.78794070"}}, {"id": 1952, "city": "Bulnewa", "details": {"postalcode": "50172", "latitude": "8.04139230", "longitude": "80.44655940"}}, {"id": 1953, "city": "Kebithigollewa", "details": {"postalcode": "50550", "latitude": "8.64089160", "longitude": "80.66968160"}}]}, {"id": 21, "district": "Polonnaruwa", "cities": [{"id": 1566, "city": "Attanakadawala", "details": {"postalcode": "51235", "latitude": "7.93309540", "longitude": "80.87029550"}}, {"id": 1567, "city": "Bakamuna", "details": {"postalcode": "51250", "latitude": "7.78060200", "longitude": "80.81840100"}}, {"id": 1568, "city": "Diyabeduma", "details": {"postalcode": "51225", "latitude": "7.92974320", "longitude": "80.87098720"}}, {"id": 1569, "city": "Elahera", "details": {"postalcode": "51258", "latitude": "7.73438700", "longitude": "80.79347980"}}, {"id": 1570, "city": "Giritale", "details": {"postalcode": "51026", "latitude": "8.00235640", "longitude": "80.92492120"}}, {"id": 1571, "city": "Hingurakdamana", "details": {"postalcode": "51408", "latitude": "8.04158880", "longitude": "80.95323590"}}, {"id": 1572, "city": "Hingurakgoda", "details": {"postalcode": "51400", "latitude": "8.04158880", "longitude": "80.95323590"}}, {"id": 1573, "city": "Jayanthipura", "details": {"postalcode": "51024", "latitude": "7.94831560", "longitude": "81.00178270"}}, {"id": 1574, "city": "Kalingaela", "details": {"postalcode": "51002", "latitude": "7.94033840", "longitude": "81.01879840"}}, {"id": 1575, "city": "Lakshauyana", "details": {"postalcode": "51006", "latitude": "7.99050680", "longitude": "80.99953870"}}, {"id": 1576, "city": "Mankemi", "details": {"postalcode": "30442", "latitude": "7.94033840", "longitude": "81.01879840"}}, {"id": 1577, "city": "Minneriya", "details": {"postalcode": "51410", "latitude": "8.03867090", "longitude": "80.90639220"}}, {"id": 1578, "city": "Onegama", "details": {"postalcode": "51004", "latitude": "7.97767770", "longitude": "81.09202180"}}, {"id": 1579, "city": "Orubendi Siyambalawa", "details": {"postalcode": "51256", "latitude": "7.75360980", "longitude": "80.81286360"}}, {"id": 1580, "city": "Palugasdamana", "details": {"postalcode": "51046", "latitude": "7.96545990", "longitude": "81.02577630"}}, {"id": 1581, "city": "Panichankemi", "details": {"postalcode": "30444", "latitude": "7.94033840", "longitude": "81.01879840"}}, {"id": 1582, "city": "Polonnaruwa", "details": {"postalcode": "51000", "latitude": "7.96191410", "longitude": "80.99523530"}}, {"id": 1583, "city": "Talpotha", "details": {"postalcode": "51044", "latitude": "8.03145710", "longitude": "81.03401510"}}, {"id": 1584, "city": "Tambala", "details": {"postalcode": "51049", "latitude": "8.00939770", "longitude": "81.06970530"}}, {"id": 1585, "city": "Unagalavehera", "details": {"postalcode": "51008", "latitude": "8.01190430", "longitude": "80.99125140"}}, {"id": 1586, "city": "Wijayabapura", "details": {"postalcode": "51042", "latitude": "7.82271190", "longitude": "81.18569940"}}]}]}