{"id": 9, "province": "Northern", "districts": [{"id": 9, "district": "Jaffna", "cities": [{"id": 654, "city": "Jaffna", "details": {"postalcode": "40000", "latitude": "9.66901300", "longitude": "80.02695280"}}, {"id": 1978, "city": "Allaipiddi", "details": {"postalcode": "40048", "latitude": "9.61988780", "longitude": "79.96543240"}}, {"id": 1979, "city": "Allaveddi", "details": {"postalcode": "40120", "latitude": "9.66149810", "longitude": "80.02554650"}}, {"id": 1980, "city": "Alvai", "details": {"postalcode": "40635", "latitude": "9.82086330", "longitude": "80.20424360"}}, {"id": 1981, "city": "Anaikoddai", "details": {"postalcode": "40198", "latitude": "9.69635430", "longitude": "79.99479560"}}, {"id": 1982, "city": "Analaitivu", "details": {"postalcode": "40280", "latitude": "9.66790030", "longitude": "79.77643370"}}, {"id": 1983, "city": "Araly", "details": {"postalcode": "40221", "latitude": "9.70620780", "longitude": "79.95564240"}}, {"id": 1984, "city": "Atchuveli", "details": {"postalcode": "40150", "latitude": "9.77863970", "longitude": "80.11606510"}}, {"id": 1985, "city": "Chankanai", "details": {"postalcode": "40212", "latitude": "9.74522360", "longitude": "79.97242450"}}, {"id": 1986, "city": "Chavakachcheri", "details": {"postalcode": "40500", "latitude": "9.66646000", "longitude": "80.13209180"}}, {"id": 1987, "city": "Chullipuram", "details": {"postalcode": "40230", "latitude": "9.76592620", "longitude": "79.94623750"}}, {"id": 1988, "city": "Chundikuli", "details": {"postalcode": "40020", "latitude": "9.65349270", "longitude": "80.03393120"}}, {"id": 1989, "city": "Chunnakam", "details": {"postalcode": "40075", "latitude": "9.73756340", "longitude": "80.02450490"}}, {"id": 1990, "city": "Delft West", "details": {"postalcode": "40378", "latitude": "9.52769110", "longitude": "79.69985740"}}, {"id": 1991, "city": "Delft", "details": {"postalcode": "40370", "latitude": "9.52769110", "longitude": "79.69985740"}}, {"id": 1992, "city": "Eluvaitivu", "details": {"postalcode": "40275", "latitude": "9.69231050", "longitude": "79.81146400"}}, {"id": 1993, "city": "Erialai", "details": {"postalcode": "40080", "latitude": "9.63829020", "longitude": "80.07863590"}}, {"id": 1994, "city": "Ilavalai", "details": {"postalcode": "40108", "latitude": "9.79527530", "longitude": "79.98920340"}}, {"id": 1995, "city": "Kankesanthurai", "details": {"postalcode": "40190", "latitude": "9.81611050", "longitude": "80.04478780"}}, {"id": 1996, "city": "Karainagar", "details": {"postalcode": "40250", "latitude": "9.74807380", "longitude": "79.88288280"}}, {"id": 1997, "city": "Karaveddi", "details": {"postalcode": "40520", "latitude": "9.80006730", "longitude": "80.19941820"}}, {"id": 1998, "city": "Kayts", "details": {"postalcode": "40270", "latitude": "9.69789370", "longitude": "79.86048310"}}, {"id": 1999, "city": "Kodikamam", "details": {"postalcode": "40700", "latitude": "9.68449040", "longitude": "80.22201770"}}, {"id": 2000, "city": "Kokuvil", "details": {"postalcode": "40060", "latitude": "9.69082400", "longitude": "80.02114300"}}, {"id": 2001, "city": "Kondavil", "details": {"postalcode": "40062", "latitude": "9.70300070", "longitude": "80.03393120"}}, {"id": 2002, "city": "Kopay", "details": {"postalcode": "40170", "latitude": "9.70430280", "longitude": "80.07863590"}}, {"id": 2003, "city": "Kudatanai", "details": {"postalcode": "40620", "latitude": "9.66149810", "longitude": "80.02554650"}}, {"id": 2004, "city": "Mallakam", "details": {"postalcode": "40142", "latitude": "9.76188640", "longitude": "80.02414890"}}, {"id": 2005, "city": "Mandaitivu", "details": {"postalcode": "40045", "latitude": "9.61653910", "longitude": "79.99199950"}}, {"id": 2006, "city": "Manipay", "details": {"postalcode": "40200", "latitude": "9.72910620", "longitude": "79.99254460"}}, {"id": 2007, "city": "Mathagal", "details": {"postalcode": "40110", "latitude": "9.78601780", "longitude": "79.96613080"}}, {"id": 2008, "city": "Meesalai", "details": {"postalcode": "40510", "latitude": "9.67466610", "longitude": "80.19587550"}}, {"id": 2009, "city": "Mahiyampathy", "details": {"postalcode": null, "latitude": "9.66207980", "longitude": "80.01189260"}}, {"id": 2010, "city": "Mirusuvil", "details": {"postalcode": "40750", "latitude": "9.66770280", "longitude": "80.23401800"}}, {"id": 2011, "city": "Nagarkovil", "details": {"postalcode": "40630", "latitude": "9.70309500", "longitude": "80.31371060"}}, {"id": 2012, "city": "Nagendramadam", "details": {"postalcode": "40223", "latitude": "9.66149810", "longitude": "80.02554650"}}, {"id": 2013, "city": "Nainathivu", "details": {"postalcode": "40360", "latitude": "9.61901230", "longitude": "79.77487620"}}, {"id": 2014, "city": "Neervely", "details": {"postalcode": "40165", "latitude": "9.72106990", "longitude": "80.08469440"}}, {"id": 2015, "city": "Pandaterippu", "details": {"postalcode": "40100", "latitude": "9.77825690", "longitude": "79.97242450"}}, {"id": 2016, "city": "Point Pedro", "details": {"postalcode": "40600", "latitude": "9.79378850", "longitude": "80.22097730"}}, {"id": 2017, "city": "Puloly", "details": {"postalcode": "40615", "latitude": "9.81728290", "longitude": "80.23526810"}}, {"id": 2018, "city": "Pungudutivu", "details": {"postalcode": "40330", "latitude": "9.58964650", "longitude": "79.82407150"}}, {"id": 2019, "city": "Puttur", "details": {"postalcode": "40158", "latitude": "9.73308980", "longitude": "80.10003760"}}, {"id": 2020, "city": "Sandilipay", "details": {"postalcode": "40098", "latitude": "9.74933600", "longitude": "79.98738320"}}, {"id": 2021, "city": "Sangarathai", "details": {"postalcode": "40225", "latitude": "9.72854720", "longitude": "79.96683080"}}, {"id": 2022, "city": "Sithankerny", "details": {"postalcode": "40229", "latitude": "9.75365500", "longitude": "79.96177550"}}, {"id": 2023, "city": "Sivankovilady", "details": {"postalcode": "40227", "latitude": "9.67130510", "longitude": "80.01155680"}}, {"id": 2024, "city": "Thellippallai", "details": {"postalcode": "40130", "latitude": "9.79108750", "longitude": "80.03393120"}}, {"id": 2025, "city": "Thondamanaru", "details": {"postalcode": "40545", "latitude": "9.81840780", "longitude": "80.13696540"}}, {"id": 2026, "city": "Urumpirai", "details": {"postalcode": "40180", "latitude": "9.72031900", "longitude": "80.04304180"}}, {"id": 2027, "city": "Vaddukoddai", "details": {"postalcode": "40220", "latitude": "9.72238430", "longitude": "79.94445260"}}, {"id": 2028, "city": "Valvettithurai", "details": {"postalcode": "40540", "latitude": "9.81493700", "longitude": "80.16608040"}}, {"id": 2029, "city": "Varany", "details": {"postalcode": "40640", "latitude": "9.66649990", "longitude": "80.01096540"}}, {"id": 2030, "city": "Vasavilan", "details": {"postalcode": "40145", "latitude": "9.78830650", "longitude": "80.07007120"}}, {"id": 2031, "city": "Velanai", "details": {"postalcode": "40300", "latitude": "9.63724050", "longitude": "79.90107840"}}, {"id": 2032, "city": "Gurunagar", "details": {"postalcode": null, "latitude": "9.65355890", "longitude": "80.01695030"}}, {"id": 2033, "city": "Kaitadi", "details": {"postalcode": null, "latitude": "9.67146140", "longitude": "80.09644150"}}, {"id": 2034, "city": "Nallur", "details": {"postalcode": null, "latitude": "9.67015470", "longitude": "80.03952050"}}, {"id": 2035, "city": "Thirunelvely", "details": {"postalcode": null, "latitude": "9.68257550", "longitude": "80.03699480"}}, {"id": 2036, "city": "Vannarponnai", "details": {"postalcode": null, "latitude": "9.68384070", "longitude": "80.01366670"}}]}, {"id": 13, "district": "Kilinochchi", "cities": [{"id": 1027, "city": "Kandavalai", "details": {"postalcode": "42508", "latitude": "9.40909980", "longitude": "80.52186610"}}, {"id": 1028, "city": "Karachchi", "details": {"postalcode": null, "latitude": "9.38352270", "longitude": "80.40840650"}}, {"id": 1029, "city": "Kilinochchi", "details": {"postalcode": "42400", "latitude": "9.38028860", "longitude": "80.37699990"}}, {"id": 1030, "city": "Pachchilaipalli", "details": {"postalcode": "42550", "latitude": "9.56732280", "longitude": "80.38813330"}}, {"id": 1031, "city": "Poonakary", "details": {"postalcode": "42600", "latitude": "9.50331090", "longitude": "80.21121640"}}, {"id": 2037, "city": "Akkarayankulam", "details": {"postalcode": "42640", "latitude": "9.32614520", "longitude": "80.30181070"}}, {"id": 2038, "city": "Aliyawalai", "details": {"postalcode": "42565", "latitude": "9.58818920", "longitude": "80.44655940"}}, {"id": 2039, "city": "Chempiyanpattu", "details": {"postalcode": "42560", "latitude": "9.38028860", "longitude": "80.37699990"}}, {"id": 2040, "city": "Elephant Pass", "details": {"postalcode": "42510", "latitude": "9.52566550", "longitude": "80.40622650"}}, {"id": 2041, "city": "Eluthumadduval", "details": {"postalcode": "42580", "latitude": "9.65623000", "longitude": "80.28316680"}}, {"id": 2042, "city": "Iranaitiv", "details": {"postalcode": "42630", "latitude": "9.28993290", "longitude": "79.98361080"}}, {"id": 2043, "city": "Iyyakachchi", "details": {"postalcode": "42520", "latitude": "9.57152350", "longitude": "80.41619680"}}, {"id": 2044, "city": "Kavutharimunai", "details": {"postalcode": "42608", "latitude": "9.56666700", "longitude": "80.11666700"}}, {"id": 2045, "city": "Konavil", "details": {"postalcode": "42645", "latitude": "9.35149910", "longitude": "80.32688120"}}, {"id": 2046, "city": "Mulliyan", "details": {"postalcode": "42570", "latitude": "9.55313190", "longitude": "80.47158660"}}, {"id": 2047, "city": "Murasumoddai", "details": {"postalcode": "42505", "latitude": "9.43792020", "longitude": "80.45281690"}}, {"id": 2048, "city": "Pallavarayankaddu", "details": {"postalcode": "42615", "latitude": "9.31432200", "longitude": "80.17076620"}}, {"id": 2049, "city": "Paranthan", "details": {"postalcode": "42500", "latitude": "9.44141520", "longitude": "80.40483060"}}, {"id": 2050, "city": "Puliyampokkanai", "details": {"postalcode": "42509", "latitude": "9.44104490", "longitude": "80.53125230"}}, {"id": 2051, "city": "Punakari-Nallur", "details": {"postalcode": "42606", "latitude": "9.45027570", "longitude": "80.27812620"}}, {"id": 2052, "city": "Ramanathapuram", "details": {"postalcode": "42408", "latitude": "9.36699420", "longitude": "80.49382670"}}, {"id": 2053, "city": "Sivapuram", "details": {"postalcode": "42618", "latitude": "9.44587530", "longitude": "80.41735140"}}, {"id": 2054, "city": "Skanthapuram", "details": {"postalcode": "42638", "latitude": "9.33710780", "longitude": "80.30181070"}}, {"id": 2055, "city": "Thalaiyadi", "details": {"postalcode": "42563", "latitude": "9.63045850", "longitude": "80.40285230"}}, {"id": 2056, "city": "Tharmapuram", "details": {"postalcode": "42512", "latitude": "9.41065240", "longitude": "80.52336360"}}, {"id": 2057, "city": "Uruthirapuram", "details": {"postalcode": "42502", "latitude": "9.39865250", "longitude": "80.34637540"}}, {"id": 2058, "city": "Vaddakachchi", "details": {"postalcode": "42405", "latitude": "9.36139060", "longitude": "80.46667320"}}, {"id": 2059, "city": "Vannerikkulam", "details": {"postalcode": "42635", "latitude": "9.38028860", "longitude": "80.37699990"}}, {"id": 2060, "city": "Veravil", "details": {"postalcode": "42620", "latitude": "9.35284760", "longitude": "80.07863590"}}, {"id": 2061, "city": "Vinayagapuram", "details": {"postalcode": "42625", "latitude": "9.11384010", "longitude": "80.24328390"}}, {"id": 2063, "city": "Ambalnagar", "details": {"postalcode": null, "latitude": "9.34577150", "longitude": "80.41874250"}}, {"id": 2064, "city": "Cheddiyakurichchi", "details": {"postalcode": null, "latitude": "9.37272850", "longitude": "80.41178570"}}, {"id": 2065, "city": "Chundikulam", "details": {"postalcode": null, "latitude": "9.51416670", "longitude": "80.53222220"}}, {"id": 2066, "city": "Kalmadunagar", "details": {"postalcode": null, "latitude": "9.37856530", "longitude": "80.51606080"}}, {"id": 2067, "city": "Karadipokku", "details": {"postalcode": null, "latitude": "9.40863720", "longitude": "80.40644470"}}, {"id": 2068, "city": "Kilay", "details": {"postalcode": null, "latitude": "9.38975610", "longitude": "80.40650010"}}, {"id": 2069, "city": "Kunchuparanthan", "details": {"postalcode": null, "latitude": "9.41087790", "longitude": "80.33826070"}}, {"id": 2070, "city": "Muhamalai", "details": {"postalcode": null, "latitude": "9.64717690", "longitude": "80.29345220"}}, {"id": 2071, "city": "Pallai", "details": {"postalcode": "42550", "latitude": "9.56732280", "longitude": "80.38813330"}}, {"id": 2072, "city": "Sivanagar", "details": {"postalcode": null, "latitude": "9.38893750", "longitude": "80.34219840"}}, {"id": 2073, "city": "Soranpattu", "details": {"postalcode": null, "latitude": "9.59702640", "longitude": "80.36864880"}}, {"id": 2074, "city": "Thirunagar", "details": {"postalcode": null, "latitude": "9.39438340", "longitude": "80.39091640"}}, {"id": 2075, "city": "Thiruvaiaru", "details": {"postalcode": null, "latitude": "9.37616450", "longitude": "80.42708850"}}]}, {"id": 15, "district": "Mannar", "cities": [{"id": 1285, "city": "Mannar", "details": {"postalcode": "41000", "latitude": "8.98097430", "longitude": "79.90441490"}}, {"id": 1286, "city": "Puthukudiyiruppu", "details": {"postalcode": "30158", "latitude": "9.06038940", "longitude": "79.84730910"}}, {"id": 2172, "city": "Aandankulam", "details": {"postalcode": null, "latitude": "8.94142900", "longitude": "80.02275140"}}, {"id": 2173, "city": "Adampan", "details": {"postalcode": null, "latitude": "8.93257410", "longitude": "79.99759160"}}, {"id": 2174, "city": "Arippu", "details": {"postalcode": null, "latitude": "8.79255710", "longitude": "79.92965370"}}, {"id": 2175, "city": "Athimottai", "details": {"postalcode": null, "latitude": "8.97773900", "longitude": "79.91629000"}}, {"id": 2176, "city": "Chilavathurai", "details": {"postalcode": null, "latitude": "8.74500740", "longitude": "79.95424380"}}, {"id": 2177, "city": "Erukkalampiddy", "details": {"postalcode": null, "latitude": "9.03435060", "longitude": "79.88148300"}}, {"id": 2178, "city": "Illuppaikadavai", "details": {"postalcode": null, "latitude": "9.09252860", "longitude": "80.08055630"}}, {"id": 2179, "city": "Karisal", "details": {"postalcode": null, "latitude": "9.06674680", "longitude": "79.84128420"}}, {"id": 2180, "city": "Kokkupadayan", "details": {"postalcode": null, "latitude": "8.73311300", "longitude": "79.96683080"}}, {"id": 2181, "city": "Madhu Church", "details": {"postalcode": null, "latitude": "8.85502020", "longitude": "80.20284200"}}, {"id": 2182, "city": "Madhu Road", "details": {"postalcode": null, "latitude": "8.81419660", "longitude": "80.17639490"}}, {"id": 2183, "city": "Marichchikaddi", "details": {"postalcode": null, "latitude": "8.96486110", "longitude": "79.91827770"}}, {"id": 2184, "city": "Mullikulam", "details": {"postalcode": null, "latitude": "8.72547360", "longitude": "79.96053750"}}, {"id": 2185, "city": "Murunkan", "details": {"postalcode": null, "latitude": "8.83279700", "longitude": "80.03393120"}}, {"id": 2186, "city": "Nanattan", "details": {"postalcode": null, "latitude": "8.83709930", "longitude": "79.96910980"}}, {"id": 2187, "city": "Palampiddy", "details": {"postalcode": null, "latitude": "8.92204610", "longitude": "80.21539980"}}, {"id": 2188, "city": "Pallimunai", "details": {"postalcode": null, "latitude": "8.98009400", "longitude": "79.92160730"}}, {"id": 2189, "city": "Pandaraveli", "details": {"postalcode": null, "latitude": "8.78159340", "longitude": "79.95004770"}}, {"id": 2190, "city": "Pappamoddai", "details": {"postalcode": null, "latitude": "8.99299680", "longitude": "80.01436560"}}, {"id": 2191, "city": "Parappankandal", "details": {"postalcode": null, "latitude": "8.87400300", "longitude": "80.04790390"}}, {"id": 2192, "city": "Parappukadanthan", "details": {"postalcode": null, "latitude": "8.91554570", "longitude": "80.06530170"}}, {"id": 2193, "city": "Periyakunchikulam", "details": {"postalcode": null, "latitude": "8.97585590", "longitude": "79.91699640"}}, {"id": 2194, "city": "Periyamadhu", "details": {"postalcode": null, "latitude": "8.98099710", "longitude": "80.17634670"}}, {"id": 2195, "city": "Periyapandivirichchan", "details": {"postalcode": null, "latitude": "8.96486110", "longitude": "79.91827770"}}, {"id": 2196, "city": "Pesalai", "details": {"postalcode": null, "latitude": "9.08283040", "longitude": "79.81006300"}}, {"id": 2197, "city": "Potkerny", "details": {"postalcode": null, "latitude": "8.77931380", "longitude": "79.96917970"}}, {"id": 2198, "city": "Puthuveli", "details": {"postalcode": null, "latitude": "8.76976940", "longitude": "79.96543240"}}, {"id": 2199, "city": "Sooriyakaddaikadhu", "details": {"postalcode": null, "latitude": "8.98167070", "longitude": "79.92319020"}}, {"id": 2200, "city": "Thalaimannar", "details": {"postalcode": null, "latitude": "9.08343000", "longitude": "79.73437910"}}, {"id": 2201, "city": "Thalaimannar Pier", "details": {"postalcode": null, "latitude": "9.10229100", "longitude": "79.72596580"}}, {"id": 2202, "city": "Thalaimannar West", "details": {"postalcode": null, "latitude": "9.08343000", "longitude": "79.73437910"}}, {"id": 2203, "city": "Thalvupadu", "details": {"postalcode": null, "latitude": "8.99092580", "longitude": "79.88880120"}}, {"id": 2204, "city": "Tharapuram", "details": {"postalcode": null, "latitude": "9.01237950", "longitude": "79.87588350"}}, {"id": 2205, "city": "Thiruketheeswaram", "details": {"postalcode": null, "latitude": "8.94443570", "longitude": "79.95774040"}}, {"id": 2206, "city": "Uyilankulam", "details": {"postalcode": null, "latitude": "8.88589160", "longitude": "79.98361080"}}, {"id": 2207, "city": "Uyirtharasankulam", "details": {"postalcode": null, "latitude": "8.98632760", "longitude": "79.90891460"}}, {"id": 2208, "city": "Vaddakandal", "details": {"postalcode": null, "latitude": "8.90771000", "longitude": "80.03532850"}}, {"id": 2209, "city": "Vankalai", "details": {"postalcode": null, "latitude": "8.89409850", "longitude": "79.93466030"}}, {"id": 2210, "city": "Vellankulam", "details": {"postalcode": null, "latitude": "9.18608900", "longitude": "80.12648090"}}, {"id": 2211, "city": "Veppankulam", "details": {"postalcode": null, "latitude": "8.78602730", "longitude": "80.01436560"}}, {"id": 2212, "city": "Vidataltivu", "details": {"postalcode": null, "latitude": "9.02154990", "longitude": "80.05086310"}}]}, {"id": 19, "district": "Mullaitivu", "cities": [{"id": 1490, "city": "Mullativu", "details": {"postalcode": "42000", "latitude": "9.26709110", "longitude": "80.81424800"}}, {"id": 2076, "city": "Alampil", "details": {"postalcode": "42005", "latitude": "9.18157970", "longitude": "80.84608220"}}, {"id": 2077, "city": "Karuppaddamurippu", "details": {"postalcode": "42220", "latitude": "9.15264030", "longitude": "80.52022900"}}, {"id": 2078, "city": "Mankulam", "details": {"postalcode": "42300", "latitude": "9.13698850", "longitude": "80.44516870"}}, {"id": 2079, "city": "Mullivaikkal", "details": {"postalcode": "42540", "latitude": "9.31196020", "longitude": "80.78659060"}}, {"id": 2080, "city": "Mulliyawalai", "details": {"postalcode": "42100", "latitude": "9.21921510", "longitude": "80.76439520"}}, {"id": 2081, "city": "Muththaiyankaddukulam", "details": {"postalcode": "42210", "latitude": "9.26709110", "longitude": "80.81424800"}}, {"id": 2082, "city": "Naddankandal", "details": {"postalcode": "42308", "latitude": "9.00401300", "longitude": "80.22097730"}}, {"id": 2083, "city": "Oddusudan", "details": {"postalcode": "42200", "latitude": "9.15386780", "longitude": "80.64973120"}}, {"id": 2084, "city": "Puthukkudiyiruppu", "details": {"postalcode": "42530", "latitude": "9.31579980", "longitude": "80.69262120"}}, {"id": 2085, "city": "Puthuvedduvan", "details": {"postalcode": "42330", "latitude": "9.24754080", "longitude": "80.33245140"}}, {"id": 2086, "city": "Thunukkai", "details": {"postalcode": "42320", "latitude": "9.13404860", "longitude": "80.28626360"}}, {"id": 2087, "city": "Udayarkaddu", "details": {"postalcode": "42518", "latitude": "9.31318210", "longitude": "80.58411550"}}, {"id": 2088, "city": "Vavunakkulam", "details": {"postalcode": "42305", "latitude": "9.26709110", "longitude": "80.81424800"}}, {"id": 2089, "city": "Visvamadukulam", "details": {"postalcode": "42515", "latitude": "9.37603700", "longitude": "80.55024560"}}, {"id": 2090, "city": "Yogapuram", "details": {"postalcode": "42315", "latitude": "9.13041700", "longitude": "80.30720850"}}, {"id": 2091, "city": "Ampalavanpokkanai", "details": {"postalcode": null, "latitude": "9.37419060", "longitude": "80.68717670"}}, {"id": 2092, "city": "Ananthapuram", "details": {"postalcode": null, "latitude": "9.32541350", "longitude": "80.72895090"}}, {"id": 2093, "city": "Ethawetunuwewa", "details": {"postalcode": "50584", "latitude": "8.97525670", "longitude": "80.74499970"}}, {"id": 2094, "city": "Kokkilai", "details": {"postalcode": null, "latitude": "9.00040660", "longitude": "80.94914480"}}, {"id": 2095, "city": "Kokkuthuoduvai", "details": {"postalcode": null, "latitude": "9.49361110", "longitude": "80.57388890"}}, {"id": 2096, "city": "Kumulamunai", "details": {"postalcode": null, "latitude": "9.15250960", "longitude": "80.82384490"}}, {"id": 2097, "city": "Mullathivu", "details": {"postalcode": "42000", "latitude": "9.26709110", "longitude": "80.81424800"}}, {"id": 2098, "city": "Murukandy", "details": {"postalcode": null, "latitude": "9.26295870", "longitude": "80.39648240"}}, {"id": 2099, "city": "Welioya", "details": {"postalcode": "50586", "latitude": "8.96404140", "longitude": "80.78794070"}}]}, {"id": 25, "district": "Vavuniya", "cities": [{"id": 1836, "city": "Vavuniya", "details": {"postalcode": "43000", "latitude": "8.75420290", "longitude": "80.49824020"}}, {"id": 2116, "city": "Nedunkerny", "details": {"postalcode": "42250", "latitude": "9.05371870", "longitude": "80.66043640"}}, {"id": 2117, "city": "Neriyakulam", "details": {"postalcode": "43300", "latitude": "8.61546220", "longitude": "80.35472860"}}, {"id": 2135, "city": "Alagalla", "details": {"postalcode": null, "latitude": "8.67901160", "longitude": "80.50494450"}}, {"id": 2136, "city": "Andiyapuliyankulam", "details": {"postalcode": null, "latitude": "8.72189240", "longitude": "80.26558460"}}, {"id": 2137, "city": "Asikulam", "details": {"postalcode": null, "latitude": "8.68181450", "longitude": "80.53659490"}}, {"id": 2138, "city": "Cheddikulam", "details": {"postalcode": null, "latitude": "8.66559560", "longitude": "80.29623850"}}, {"id": 2139, "city": "Chemamadukulam", "details": {"postalcode": null, "latitude": "8.88222220", "longitude": "80.58194440"}}, {"id": 2140, "city": "Iranai lluppaikulam", "details": {"postalcode": null, "latitude": "8.85239540", "longitude": "80.36128980"}}, {"id": 2141, "city": "Kalmadhu", "details": {"postalcode": null, "latitude": "8.83949310", "longitude": "80.39369940"}}, {"id": 2142, "city": "Iratta Periyakulama", "details": {"postalcode": null, "latitude": "8.70711060", "longitude": "80.48207360"}}, {"id": 2143, "city": "Kanagarayankulam", "details": {"postalcode": null, "latitude": "8.75365450", "longitude": "80.49574890"}}, {"id": 2144, "city": "Kannaddi", "details": {"postalcode": null, "latitude": "8.78602010", "longitude": "80.22097730"}}, {"id": 2145, "city": "Kela Bogaswewa", "details": {"postalcode": null, "latitude": "8.87897430", "longitude": "80.66043640"}}, {"id": 2146, "city": "Kovilkulam", "details": {"postalcode": null, "latitude": "8.73753070", "longitude": "80.50633410"}}, {"id": 2147, "city": "Madukanda", "details": {"postalcode": null, "latitude": "8.75658000", "longitude": "80.56051110"}}, {"id": 2148, "city": "Mahakachchakodiya", "details": {"postalcode": null, "latitude": "8.78555240", "longitude": "80.57578530"}}, {"id": 2149, "city": "Mamaduwa", "details": {"postalcode": null, "latitude": "8.81635400", "longitude": "80.55495610"}}, {"id": 2150, "city": "Maradammaduwa", "details": {"postalcode": null, "latitude": "8.57829580", "longitude": "80.36856430"}}, {"id": 2151, "city": "Maraiyadithakulam", "details": {"postalcode": null, "latitude": "8.75032420", "longitude": "80.49704350"}}, {"id": 2152, "city": "Maruthodai", "details": {"postalcode": null, "latitude": "8.86861110", "longitude": "80.51722220"}}, {"id": 2153, "city": "Mathavuvaithakulam", "details": {"postalcode": null, "latitude": "8.75032420", "longitude": "80.49704350"}}, {"id": 2154, "city": "Nainamadu", "details": {"postalcode": null, "latitude": "9.04079380", "longitude": "80.58272720"}}, {"id": 2155, "city": "Nelukkulam", "details": {"postalcode": null, "latitude": "8.76466930", "longitude": "80.44934050"}}, {"id": 2156, "city": "Nochchimoddai", "details": {"postalcode": null, "latitude": "8.83143640", "longitude": "80.50494450"}}, {"id": 2157, "city": "Omanthai", "details": {"postalcode": null, "latitude": "8.87238700", "longitude": "80.50772370"}}, {"id": 2158, "city": "Palamoddai", "details": {"postalcode": null, "latitude": "8.94322430", "longitude": "80.39926520"}}, {"id": 2159, "city": "Pampaimadu", "details": {"postalcode": null, "latitude": "8.78559790", "longitude": "80.41596030"}}, {"id": 2160, "city": "Pavakkulama Unit 1", "details": {"postalcode": null, "latitude": "8.75420290", "longitude": "80.49824020"}}, {"id": 2161, "city": "Pavakkulama Unit 2", "details": {"postalcode": null, "latitude": "8.70633850", "longitude": "80.40204800"}}, {"id": 2162, "city": "Periyathambanai", "details": {"postalcode": null, "latitude": "8.79231630", "longitude": "80.46602560"}}, {"id": 2163, "city": "Periya Ulukkulama", "details": {"postalcode": null, "latitude": "8.67678120", "longitude": "80.41596030"}}, {"id": 2164, "city": "Poovarasankulam", "details": {"postalcode": null, "latitude": "8.78417510", "longitude": "80.36029700"}}, {"id": 2165, "city": "Puliyankulam", "details": {"postalcode": null, "latitude": "8.97381780", "longitude": "80.52717560"}}, {"id": 2166, "city": "Sathirikulankulam", "details": {"postalcode": null, "latitude": "8.77833450", "longitude": "80.48489570"}}, {"id": 2167, "city": "Sinnasippikulam", "details": {"postalcode": null, "latitude": "8.57146260", "longitude": "80.33245140"}}, {"id": 2168, "city": "Thandikulam", "details": {"postalcode": null, "latitude": "8.78729320", "longitude": "80.48270740"}}, {"id": 2169, "city": "Vaarikkuttiyoor", "details": {"postalcode": null, "latitude": "8.73854240", "longitude": "80.50937380"}}]}]}